AccountingDate,DiffMeanHourlyPayPercent,DiffMedianHourlyPercent,DiffMeanBonusPercent,DiffMedianBonusPercent,MaleMedianBonusPayPercent,FemaleMedianBonusPayPercent,MaleLowerPayBand,FemaleLowerPayBand,MaleMiddlePayBand,FemaleMiddlePayBand,MaleUpperPayBand,FemaleUpperPayBand,MaleUpperQuartilePayBand,FemaleUpperQuartilePayBand,CompanyLinkToGPGInfo,ResponsiblePerson,SubmittedDate,EmployerName,CompanyNumber,Address1,Address2,Address3,Country,PostCode,PoBox,SicCodes
04/04/2016 00:00:00,9.00,14.00,70.00,39.00,15.00,56.00,79.00,63.00,91.00,70.00,94.00,62.00,97.00,100.00,https://AA&AAUTOSLTD.co.uk/GPGData,Firstname67 Lastname67 (Jobtitle 67),14/02/2017 00:00:00,A A & A AUTOS LTD,07045770,Savillebridge Mills,Mill Street East,Dewsbury,,WF12 9BQ,,45200
04/04/2016 00:00:00,64.00,41.00,59.00,84.00,95.00,43.00,85.00,12.00,76.00,3.00,29.00,34.00,88.00,3.00,https://AA&ASTEPHEN(BURPHAM)LTD..co.uk/GPGData,Firstname68 Lastname68 (Jobtitle 68),04/08/2016 00:00:00,A A & A STEPHEN (BURPHAM) LTD.,02456235,Cullerne Close,Ewell,Epsom,,KT17 1XY,,
04/04/2016 00:00:00,38.00,36.00,50.00,78.00,28.00,5.00,77.00,55.00,42.00,63.00,50.00,2.00,47.00,97.00,https://AA&CMANAGEMENTLIMITED.co.uk/GPGData,Firstname69 Lastname69 (Jobtitle 69),01/11/2016 00:00:00,A A & C MANAGEMENT LIMITED,03135170,Royal Crescent,,Bath,,BA1 2LR,,70100
04/04/2016 00:00:00,58.00,52.00,68.00,74.00,29.00,89.00,43.00,54.00,76.00,3.00,69.00,83.00,92.00,3.00,https://AA&DFRASERLIMITED.co.uk/GPGData,Firstname70 Lastname70 (Jobtitle 70),28/03/2017 00:00:00,A A & D FRASER LIMITED,SC474087,Rearquhar,,Dornoch,,IV25 3NE,,"1500,42990"
04/04/2016 00:00:00,80.00,76.00,26.00,70.00,49.00,4.00,37.00,95.00,65.00,4.00,11.00,15.00,100.00,8.00,https://AA&EVALIMITED.co.uk/GPGData,Firstname71 Lastname71 (Jobtitle 71),18/05/2016 00:00:00,A A & EVA LIMITED,07723236,Floor 112-116 Whitechapel Road,,London,England,E1 1JE,,46310
04/04/2016 00:00:00,39.00,59.00,27.00,5.00,73.00,61.00,69.00,50.00,1.00,62.00,20.00,28.00,99.00,18.00,https://AAACCONSULTINGLIMITED.co.uk/GPGData,Firstname64 Lastname64 (Jobtitle 64),11/05/2016 00:00:00,A A A C CONSULTING LIMITED,09336860,St. Aubyns,,Hove,England,BN3 2TE,,64999
04/04/2016 00:00:00,51.00,8.00,95.00,86.00,94.00,40.00,31.00,98.00,55.00,54.00,12.00,84.00,26.00,5.00,https://AAALETTING&MAINTENANCELTD.co.uk/GPGData,Firstname65 Lastname65 (Jobtitle 65),30/03/2017 00:00:00,A A A LETTING & MAINTENANCE LTD,08312819,West Avenue,,Exeter,,EX4 4SD,,68201
04/04/2016 00:00:00,0.00,38.00,82.00,31.00,43.00,75.00,13.00,82.00,1.00,92.00,21.00,93.00,9.00,88.00,https://AAABBEYROOFING&BUILDINGCONTRACTORSLTD.co.uk/GPGData,Firstname63 Lastname63 (Jobtitle 63),14/11/2016 00:00:00,A A ABBEY ROOFING & BUILDING CONTRACTORS LTD,07676340,Caer Street,,Swansea,,SA1 3PP,,43991
04/04/2016 00:00:00,1.00,15.00,48.00,51.00,66.00,21.00,13.00,78.00,55.00,60.00,11.00,78.00,69.00,20.00,https://AAAMUSEMENTSLIMITED.co.uk/GPGData,Firstname66 Lastname66 (Jobtitle 66),23/03/2017 00:00:00,A A AMUSEMENTS LIMITED,08950239,Holbeach Drove,,Spalding,,PE12 0PX,,"47910,63120"
04/04/2016 00:00:00,51.00,75.00,1.00,51.00,6.00,26.00,50.00,32.00,48.00,100.00,84.00,98.00,17.00,51.00,https://ALIMITED.co.uk/GPGData,Firstname62 Lastname62 (Jobtitle 62),02/04/2017 00:00:00,A LIMITED,05438136,Windsor Avenue,,London,,SW19 2RR,,
01/04/2016 00:00:00,73.00,8.00,55.00,76.00,19.00,96.00,41.00,97.00,65.00,59.00,49.00,43.00,50.00,60.00,https://AccountantinBankruptcy.co.uk/GPGData,Firstname493 Lastname493 (Jobtitle 493),02/12/2016 00:00:00,Accountant in Bankruptcy,,Address line 493,,City493,Country493,Post Code493,,1
01/04/2016 00:00:00,73.00,46.00,89.00,74.00,6.00,93.00,88.00,56.00,5.00,69.00,73.00,89.00,35.00,22.00,https://AdvisoryConciliationandArbitrationService.co.uk/GPGData,Firstname494 Lastname494 (Jobtitle 494),18/03/2017 00:00:00,Advisory Conciliation and Arbitration Service,,Address line 494,,City494,Country494,Post Code494,,1
01/04/2016 00:00:00,77.00,2.00,71.00,86.00,43.00,20.00,32.00,20.00,84.00,100.00,39.00,24.00,42.00,7.00,https://AirAccidentsInvestigationBranch.co.uk/GPGData,Firstname495 Lastname495 (Jobtitle 495),12/10/2016 00:00:00,Air Accidents Investigation Branch,,Address line 495,,City495,Country495,Post Code495,,1
01/04/2016 00:00:00,36.00,94.00,78.00,59.00,33.00,5.00,58.00,13.00,60.00,63.00,18.00,57.00,46.00,23.00,https://AlbrightonParishCouncil.co.uk/GPGData,Firstname496 Lastname496 (Jobtitle 496),13/04/2016 00:00:00,Albrighton Parish Council,,Address line 496,,City496,Country496,Post Code496,,1
01/04/2016 00:00:00,7.00,27.00,55.00,14.00,18.00,8.00,23.00,75.00,55.00,22.00,18.00,75.00,89.00,6.00,https://AlconburyParishCouncil.co.uk/GPGData,Firstname497 Lastname497 (Jobtitle 497),10/04/2016 00:00:00,Alconbury Parish Council,,Address line 497,,City497,Country497,Post Code497,,1
01/04/2016 00:00:00,3.00,8.00,59.00,32.00,98.00,10.00,17.00,84.00,2.00,99.00,37.00,95.00,70.00,29.00,https://AlderburyParishCouncil.co.uk/GPGData,Firstname498 Lastname498 (Jobtitle 498),18/02/2017 00:00:00,Alderbury Parish Council,,Address line 498,,City498,Country498,Post Code498,,1
01/04/2016 00:00:00,86.00,44.00,97.00,76.00,38.00,81.00,71.00,47.00,35.00,26.00,36.00,80.00,49.00,49.00,https://AldingtonandBonningtonParishCouncil.co.uk/GPGData,Firstname499 Lastname499 (Jobtitle 499),24/06/2016 00:00:00,Aldington and Bonnington Parish Council,,Address line 499,,City499,Country499,Post Code499,,1
01/04/2016 00:00:00,37.00,77.00,91.00,74.00,65.00,9.00,0.00,92.00,70.00,25.00,53.00,75.00,6.00,80.00,https://AlkboroughandWalcotParishCouncil.co.uk/GPGData,Firstname500 Lastname500 (Jobtitle 500),05/03/2017 00:00:00,Alkborough and Walcot Parish Council,,Address line 500,,City500,Country500,Post Code500,,1
01/04/2016 00:00:00,64.00,49.00,22.00,37.00,12.00,63.00,35.00,100.00,12.00,27.00,37.00,14.00,76.00,92.00,https://AllbrookandNorthBoyattParishCouncil.co.uk/GPGData,Firstname501 Lastname501 (Jobtitle 501),06/05/2016 00:00:00,Allbrook and North Boyatt Parish Council,,Address line 501,,City501,Country501,Post Code501,,1
01/04/2016 00:00:00,9.00,96.00,16.00,89.00,42.00,76.00,88.00,33.00,84.00,12.00,24.00,29.00,8.00,1.00,https://AllerdaleBoroughCouncil.co.uk/GPGData,Firstname502 Lastname502 (Jobtitle 502),14/02/2017 00:00:00,Allerdale Borough Council,,Address line 502,,City502,Country502,Post Code502,,1
01/04/2016 00:00:00,32.00,40.00,27.00,90.00,72.00,34.00,27.00,45.00,61.00,54.00,58.00,63.00,96.00,16.00,https://AshwellParishCouncil.co.uk/GPGData,Firstname369 Lastname369 (Jobtitle 369),24/11/2016 00:00:00,Ashwell Parish Council,,Address line 369,,City369,Country369,Post Code369,,1
01/04/2016 00:00:00,37.00,92.00,58.00,47.00,17.00,18.00,17.00,6.00,43.00,17.00,54.00,12.00,69.00,93.00,https://AspirationsAcademiesTrust.co.uk/GPGData,Firstname370 Lastname370 (Jobtitle 370),11/02/2017 00:00:00,Aspirations Academies Trust,,Address line 370,,City370,Country370,Post Code370,,1
01/04/2016 00:00:00,4.00,44.00,72.00,83.00,11.00,20.00,9.00,64.00,39.00,54.00,55.00,98.00,33.00,16.00,https://AspleyGuiseParishCouncil.co.uk/GPGData,Firstname371 Lastname371 (Jobtitle 371),31/07/2016 00:00:00,Aspley Guise Parish Council,,Address line 371,,City371,Country371,Post Code371,,1
01/04/2016 00:00:00,43.00,39.00,83.00,70.00,79.00,35.00,66.00,7.00,56.00,78.00,68.00,62.00,21.00,96.00,https://AssociationofGreaterManchesterAuthorities.co.uk/GPGData,Firstname372 Lastname372 (Jobtitle 372),28/05/2016 00:00:00,Association of Greater Manchester Authorities,,Address line 372,,City372,Country372,Post Code372,,1
01/04/2016 00:00:00,52.00,0.00,83.00,3.00,12.00,47.00,95.00,70.00,80.00,82.00,45.00,77.00,78.00,37.00,https://AssociationofNationalParkAuthorities.co.uk/GPGData,Firstname373 Lastname373 (Jobtitle 373),10/02/2017 00:00:00,Association of National Park Authorities,,Address line 373,,City373,Country373,Post Code373,,1
01/04/2016 00:00:00,62.00,31.00,0.00,98.00,92.00,1.00,43.00,96.00,28.00,84.00,37.00,96.00,6.00,58.00,https://AssociationofNorthEastCouncilsLimited.co.uk/GPGData,Firstname374 Lastname374 (Jobtitle 374),22/01/2017 00:00:00,Association of North East Councils Limited,,Address line 374,,City374,Country374,Post Code374,,1
01/04/2016 00:00:00,100.00,44.00,62.00,24.00,79.00,5.00,73.00,62.00,65.00,65.00,11.00,53.00,87.00,13.00,https://AstonleWallsParishCouncil.co.uk/GPGData,Firstname375 Lastname375 (Jobtitle 375),13/06/2016 00:00:00,Aston le Walls Parish Council,,Address line 375,,City375,Country375,Post Code375,,1
01/04/2016 00:00:00,67.00,69.00,18.00,9.00,84.00,24.00,24.00,47.00,50.00,4.00,48.00,58.00,65.00,1.00,https://Aston-cum-AughtonParishCouncil.co.uk/GPGData,Firstname376 Lastname376 (Jobtitle 376),02/02/2017 00:00:00,Aston-cum-Aughton Parish Council,,Address line 376,,City376,Country376,Post Code376,,1
01/04/2016 00:00:00,80.00,55.00,12.00,6.00,45.00,61.00,28.00,14.00,56.00,37.00,27.00,96.00,14.00,48.00,https://AtherstoneTownCouncil.co.uk/GPGData,Firstname377 Lastname377 (Jobtitle 377),26/12/2016 00:00:00,Atherstone Town Council,,Address line 377,,City377,Country377,Post Code377,,1
01/04/2016 00:00:00,42.00,71.00,4.00,12.00,61.00,64.00,51.00,74.00,35.00,36.00,98.00,52.00,20.00,15.00,https://AuditScotland.co.uk/GPGData,Firstname378 Lastname378 (Jobtitle 378),27/07/2016 00:00:00,Audit Scotland,,Address line 378,,City378,Country378,Post Code378,,1
01/04/2016 00:00:00,59.00,83.00,45.00,34.00,77.00,8.00,7.00,63.00,40.00,7.00,56.00,39.00,4.00,8.00,https://AylesburyValeDistrictCouncil.co.uk/GPGData,Firstname476 Lastname476 (Jobtitle 476),06/02/2017 00:00:00,Aylesbury Vale District Council,,Address line 476,,City476,Country476,Post Code476,,1
01/04/2016 00:00:00,46.00,4.00,70.00,48.00,68.00,13.00,16.00,35.00,30.00,66.00,90.00,24.00,60.00,84.00,https://AylshamTownCouncil.co.uk/GPGData,Firstname477 Lastname477 (Jobtitle 477),28/03/2017 00:00:00,Aylsham Town Council,,Address line 477,,City477,Country477,Post Code477,,1
01/04/2016 00:00:00,41.00,32.00,10.00,1.00,6.00,59.00,72.00,64.00,36.00,24.00,53.00,0.00,10.00,83.00,https://AyrshireJointStructurePlan.co.uk/GPGData,Firstname478 Lastname478 (Jobtitle 478),03/01/2017 00:00:00,Ayrshire Joint Structure Plan,,Address line 478,,City478,Country478,Post Code478,,1
01/04/2016 00:00:00,55.00,29.00,26.00,55.00,79.00,26.00,78.00,68.00,36.00,73.00,88.00,4.00,16.00,54.00,https://AyrshireValuationJointBoard.co.uk/GPGData,Firstname479 Lastname479 (Jobtitle 479),02/06/2016 00:00:00,Ayrshire Valuation Joint Board,,Address line 479,,City479,Country479,Post Code479,,1
04/04/2016 00:00:00,21.00,14.00,1.00,88.00,92.00,65.00,84.00,25.00,6.00,58.00,18.00,18.00,100.00,89.00,https://B&ATAXLIMITED.co.uk/GPGData,Firstname122 Lastname122 (Jobtitle 122),13/10/2016 00:00:00,B & A TAX LIMITED,09365869,Munster Road,,London,,SW6 6DH,,70229
04/04/2016 00:00:00,57.00,89.00,85.00,17.00,70.00,13.00,80.00,93.00,52.00,1.00,24.00,52.00,84.00,21.00,https://B&ATHOMSONHOLDINGSLTD.co.uk/GPGData,Firstname123 Lastname123 (Jobtitle 123),05/05/2016 00:00:00,B & A THOMSON HOLDINGS LTD,SC511766,Cluny Square,,Buckie,United Kingdom,AB56 1AH,,68209
04/04/2016 00:00:00,79.00,40.00,85.00,1.00,56.00,39.00,64.00,36.00,1.00,53.00,56.00,55.00,26.00,83.00,https://B&ATORGUTLTD.co.uk/GPGData,Firstname124 Lastname124 (Jobtitle 124),02/08/2016 00:00:00,B & A TORGUT LTD,09051517,Amington Road,,Tamworth,,B77 3LN,,56103
04/04/2016 00:00:00,72.00,42.00,73.00,1.00,6.00,95.00,75.00,75.00,46.00,25.00,70.00,97.00,8.00,52.00,https://B&ATRANSATLANTICSERVICESLIMITED.co.uk/GPGData,Firstname126 Lastname126 (Jobtitle 126),23/01/2017 00:00:00,B & A TRANSATLANTIC SERVICES LIMITED,01130313,Browns Lane,Uckfield,Sussex,,TN22 1RT,,74990
04/04/2016 00:00:00,49.00,26.00,53.00,89.00,79.00,54.00,45.00,10.00,10.00,68.00,56.00,86.00,55.00,12.00,https://B&AUKLIMITED.co.uk/GPGData,Firstname127 Lastname127 (Jobtitle 127),15/06/2016 00:00:00,B & A UK LIMITED,05984724,Dulwich,,London,,SE22 8UJ,,47220
04/04/2016 00:00:00,9.00,98.00,76.00,39.00,87.00,43.00,98.00,25.00,6.00,88.00,76.00,84.00,29.00,46.00,https://B&AUPHOLSTERY(LEEDS)LIMITED.co.uk/GPGData,Firstname128 Lastname128 (Jobtitle 128),08/05/2016 00:00:00,B & A UPHOLSTERY (LEEDS) LIMITED,04718684,Kirklees Garth,Farsley,Pudsey,,LS28 5TQ,,31090
04/04/2016 00:00:00,79.00,27.00,29.00,40.00,24.00,37.00,98.00,7.00,51.00,69.00,35.00,17.00,78.00,1.00,https://B&AVALETING(MIDLANDS)LIMITED.co.uk/GPGData,Firstname130 Lastname130 (Jobtitle 130),21/07/2016 00:00:00,B & A VALETING (MIDLANDS) LIMITED,09656056,Merstow Green,,Evesham,United Kingdom,WR11 4BB,,81299
04/04/2016 00:00:00,12.00,35.00,16.00,52.00,45.00,95.00,17.00,56.00,17.00,20.00,64.00,68.00,71.00,34.00,https://B&AVALETINGLIMITED.co.uk/GPGData,Firstname129 Lastname129 (Jobtitle 129),25/09/2016 00:00:00,B & A VALETING LIMITED,09526002,Blandford Road,,Poole,England,BH15 4JL,,96090
04/04/2016 00:00:00,42.00,59.00,80.00,42.00,22.00,78.00,38.00,58.00,94.00,56.00,28.00,4.00,36.00,26.00,https://B&AWEBBERPROPERTIESLIMITED.co.uk/GPGData,Firstname131 Lastname131 (Jobtitle 131),10/03/2017 00:00:00,B & A WEBBER PROPERTIES LIMITED,09194793,Sackville Street,,Manchester,,M1 3LZ,,68100
04/04/2016 00:00:00,55.00,62.00,11.00,55.00,6.00,0.00,85.00,0.00,18.00,85.00,33.00,70.00,69.00,30.00,https://B&BINFLATABLESLIMITED.co.uk/GPGData,Firstname52 Lastname52 (Jobtitle 52),10/03/2017 00:00:00,B & B INFLATABLES LIMITED,05850568,Wheelhouse Road,,Rugeley,,WS15 1UZ,,82990
04/04/2016 00:00:00,13.00,36.00,44.00,10.00,81.00,97.00,29.00,79.00,44.00,3.00,90.00,43.00,12.00,6.00,https://B&BINSTALLATIONSLTD.co.uk/GPGData,Firstname53 Lastname53 (Jobtitle 53),04/03/2017 00:00:00,B & B INSTALLATIONS LTD,10305134,Layford Road,Huyton,Merseyside,United Kingdom,L36 3SR,,43290
04/04/2016 00:00:00,32.00,20.00,12.00,60.00,98.00,73.00,12.00,26.00,57.00,66.00,53.00,17.00,91.00,92.00,https://B&BJOINERSLTD.co.uk/GPGData,Firstname54 Lastname54 (Jobtitle 54),02/04/2017 00:00:00,B & B JOINERS LTD,SC256443,Hamilton Street,Broughty Ferry,Dundee,,DD5 2NR,,41202
04/04/2016 00:00:00,72.00,5.00,57.00,6.00,44.00,6.00,93.00,80.00,99.00,97.00,28.00,5.00,7.00,57.00,https://B&BJOINERYLIMITED.co.uk/GPGData,Firstname55 Lastname55 (Jobtitle 55),24/07/2016 00:00:00,B & B JOINERY LIMITED,05076749,Carlton,,Barnsley,,S71 3PQ,,43320
04/04/2016 00:00:00,99.00,79.00,94.00,23.00,40.00,61.00,0.00,71.00,96.00,6.00,6.00,97.00,55.00,17.00,https://B&BKIDSCUTSLTD.co.uk/GPGData,Firstname57 Lastname57 (Jobtitle 57),22/05/2016 00:00:00,B & B KIDS CUTS LTD,07791484,Duke's Passage,,Brighton,United Kingdom,BN1 1BS,,96020
04/04/2016 00:00:00,68.00,53.00,17.00,17.00,68.00,94.00,27.00,90.00,25.00,62.00,65.00,60.00,30.00,52.00,https://B&BKNITWEARLIMITED.co.uk/GPGData,Firstname58 Lastname58 (Jobtitle 58),29/03/2017 00:00:00,B & B KNITWEAR LIMITED,01148570,Nottingham Road,Long Eaton,Nottingham,,NG10 1HP,,13910
04/04/2016 00:00:00,53.00,21.00,26.00,34.00,54.00,4.00,14.00,37.00,1.00,57.00,90.00,65.00,10.00,29.00,https://B&BUNITEDLTD.co.uk/GPGData,Firstname313 Lastname313 (Jobtitle 313),10/12/2016 00:00:00,B & B UNITED LTD,10167781,Hollywood Court,15 Inglis Road,Ealing Broadway,England,W53RJ,,
04/04/2016 00:00:00,44.00,12.00,69.00,17.00,59.00,23.00,97.00,85.00,39.00,3.00,10.00,16.00,92.00,29.00,https://B&BUPHOLSTERYLIMITED.co.uk/GPGData,Firstname314 Lastname314 (Jobtitle 314),12/07/2016 00:00:00,B & B UPHOLSTERY LIMITED,04955936,Rhodes Avenue,,Chesterfield,,S41 7AY,,13923
04/04/2016 00:00:00,60.00,26.00,67.00,28.00,88.00,98.00,77.00,14.00,70.00,57.00,49.00,67.00,75.00,82.00,https://B&BVEHICLECONTRACTSLTD.co.uk/GPGData,Firstname315 Lastname315 (Jobtitle 315),03/02/2017 00:00:00,B & B VEHICLE CONTRACTS LTD,06184222,Fairfield Road,,Chesterfield,England,S40 4TR,,64910
04/04/2016 00:00:00,77.00,70.00,66.00,95.00,87.00,84.00,48.00,92.00,75.00,58.00,31.00,62.00,90.00,78.00,https://B&BWELDINGSERVICESLIMITED.co.uk/GPGData,Firstname317 Lastname317 (Jobtitle 317),22/03/2017 00:00:00,B & B WELDING SERVICES LIMITED,06943647,Soham,,Ely,,CB7 5DB,,25990
04/04/2016 00:00:00,100.00,95.00,16.00,3.00,53.00,44.00,87.00,96.00,86.00,95.00,23.00,88.00,75.00,7.00,https://B&BWINDOWSLIMITED.co.uk/GPGData,Firstname319 Lastname319 (Jobtitle 319),06/03/2017 00:00:00,B & B WINDOWS LIMITED,07165830,"Warwick Court, Park Road",,Middleton,,M24 1AE,,43210
04/04/2016 00:00:00,31.00,7.00,97.00,95.00,75.00,84.00,89.00,45.00,57.00,66.00,91.00,31.00,63.00,21.00,https://B&BWRISTBANDSLIMITED.co.uk/GPGData,Firstname321 Lastname321 (Jobtitle 321),03/04/2017 00:00:00,B & B WRISTBANDS LIMITED,09308171,Heather Road,,Skegness,,PE25 3SR,,82990
04/04/2016 00:00:00,7.00,75.00,4.00,61.00,1.00,12.00,6.00,81.00,59.00,62.00,6.00,3.00,52.00,45.00,https://B&CACCOUNTINGSERVICESLTD.co.uk/GPGData,Firstname322 Lastname322 (Jobtitle 322),16/12/2016 00:00:00,B & C ACCOUNTING SERVICES LTD,07304461,Walmersley Road,,Bury,,BL9 5JX,,"69201,69202"
04/04/2016 00:00:00,98.00,47.00,90.00,38.00,70.00,53.00,13.00,26.00,74.00,100.00,66.00,62.00,74.00,80.00,https://B&CAGLTD..co.uk/GPGData,Firstname333 Lastname333 (Jobtitle 333),24/02/2017 00:00:00,B & C AG LTD.,10497166,Caldervale Road,,Wakefield,United Kingdom,WF1 5PF,,"64209,70229"
04/04/2016 00:00:00,32.00,78.00,53.00,14.00,31.00,34.00,61.00,80.00,71.00,20.00,56.00,91.00,38.00,89.00,https://B&CARCHITECTURALLIMITED.co.uk/GPGData,Firstname334 Lastname334 (Jobtitle 334),07/08/2016 00:00:00,B & C ARCHITECTURAL LIMITED,09712124,Kestral Road,,Mansfield,Great Britain,NG18 5FT,,46150
04/04/2016 00:00:00,41.00,67.00,32.00,78.00,76.00,66.00,15.00,93.00,87.00,68.00,16.00,64.00,74.00,65.00,https://B&CASSOCIATES(LONDON)LTD.co.uk/GPGData,Firstname336 Lastname336 (Jobtitle 336),23/06/2016 00:00:00,B & C ASSOCIATES (LONDON) LTD,06006931,Floor,167-169 Great Portland Street,London,,W1W 5PF,,82990
04/04/2016 00:00:00,11.00,7.00,46.00,4.00,16.00,5.00,55.00,14.00,84.00,63.00,7.00,33.00,18.00,0.00,https://B&CASSOCIATESFINANCIALSERVICESLIMITED.co.uk/GPGData,Firstname335 Lastname335 (Jobtitle 335),16/04/2016 00:00:00,B & C ASSOCIATES FINANCIAL SERVICES LIMITED,08933026,Floor 167-169 Great Portland Street,,London,,W1W 5PF,,82990
04/04/2016 00:00:00,70.00,17.00,17.00,60.00,29.00,94.00,94.00,45.00,95.00,93.00,81.00,56.00,86.00,4.00,https://B&CATKINSONLIMITED.co.uk/GPGData,Firstname337 Lastname337 (Jobtitle 337),29/09/2016 00:00:00,B & C ATKINSON LIMITED,04191804,New Oxford Street,,Workington,,CA14 2LR,,41100
04/04/2016 00:00:00,79.00,47.00,61.00,44.00,2.00,31.00,76.00,17.00,2.00,45.00,37.00,55.00,78.00,74.00,https://B&CAUDIOVISUALLIMITED.co.uk/GPGData,Firstname338 Lastname338 (Jobtitle 338),24/07/2016 00:00:00,B & C AUDIO VISUAL LIMITED,NI046909,Lesley Plaza,406/408 Lisburn Road,Belfast,,,,47430
04/04/2016 00:00:00,98.00,76.00,68.00,33.00,18.00,88.00,55.00,28.00,32.00,78.00,16.00,12.00,18.00,13.00,https://B&CAUGERSLTD.co.uk/GPGData,Firstname339 Lastname339 (Jobtitle 339),05/12/2016 00:00:00,B & C AUGERS LTD,08463271,And 3e Hatfield Park Farm,,Takeley,,CM22 6NG,,25620
04/04/2016 00:00:00,69.00,59.00,84.00,32.00,81.00,53.00,26.00,11.00,16.00,63.00,11.00,49.00,21.00,8.00,https://B&CBARANDCLUBRELIEFSLTD.co.uk/GPGData,Firstname340 Lastname340 (Jobtitle 340),11/04/2016 00:00:00,B & C BAR AND CLUB RELIEFS LTD,10403955,Whitefriars Lane,,Coventry,United Kingdom,CV1 2DT,,56301
04/04/2016 00:00:00,62.00,9.00,88.00,52.00,69.00,70.00,57.00,28.00,79.00,48.00,57.00,94.00,81.00,94.00,https://B&CBOLTONLIMITED.co.uk/GPGData,Firstname341 Lastname341 (Jobtitle 341),28/01/2017 00:00:00,B & C BOLTON LIMITED,07097375,Bradshaw Hall Drive,,Bolton,,BL2 4NY,,64999
04/04/2016 00:00:00,38.00,31.00,98.00,83.00,70.00,97.00,11.00,67.00,19.00,29.00,5.00,88.00,60.00,86.00,https://B&CBRICKWORKLIMITED.co.uk/GPGData,Firstname342 Lastname342 (Jobtitle 342),16/05/2016 00:00:00,B & C BRICKWORK LIMITED,08582449,London Road,,Marlborough,,SN8 1LH,,41202
04/04/2016 00:00:00,22.00,85.00,23.00,84.00,13.00,42.00,87.00,69.00,35.00,69.00,72.00,22.00,98.00,76.00,https://BADRIVINGSERVICESLTD.co.uk/GPGData,Firstname205 Lastname205 (Jobtitle 205),27/05/2016 00:00:00,B A DRIVING SERVICES LTD,07979092,Ashbury Drive,Haydock,St. Helens,,WA11 0FA,,49410
04/04/2016 00:00:00,77.00,56.00,67.00,65.00,84.00,90.00,3.00,12.00,77.00,23.00,92.00,92.00,54.00,26.00,https://BAELECTRICALCONTRACTORSLTD.co.uk/GPGData,Firstname207 Lastname207 (Jobtitle 207),13/08/2016 00:00:00,B A ELECTRICAL CONTRACTORS LTD,05643707,Church Road,West Row,Bury St. Edmunds,,IP28 8PF,,43210
04/04/2016 00:00:00,9.00,27.00,80.00,86.00,58.00,46.00,81.00,25.00,57.00,24.00,99.00,96.00,63.00,25.00,https://BAELECTRICALCONTRACTORSNORTHERNLIMITED.co.uk/GPGData,Firstname208 Lastname208 (Jobtitle 208),24/09/2016 00:00:00,B A ELECTRICAL CONTRACTORS NORTHERN LIMITED,08749366,Bankside,,Morpeth,,NE61 1XD,,33140
04/04/2016 00:00:00,82.00,84.00,1.00,77.00,55.00,32.00,94.00,44.00,82.00,31.00,93.00,69.00,27.00,33.00,https://BAELLULLIMITED.co.uk/GPGData,Firstname209 Lastname209 (Jobtitle 209),22/07/2016 00:00:00,B A ELLUL LIMITED,10280152,Stanley Way,Orpington,Kent,United Kingdom,BR5 2HE,,43210
04/04/2016 00:00:00,100.00,61.00,27.00,7.00,75.00,100.00,76.00,14.00,56.00,79.00,91.00,86.00,85.00,31.00,https://BAENGINEERING&CONSTRUCTIONLTD.co.uk/GPGData,Firstname210 Lastname210 (Jobtitle 210),25/06/2016 00:00:00,B A ENGINEERING & CONSTRUCTION LTD,07558891,,,Llanarth,,SA47 0PF,,41201
04/04/2016 00:00:00,84.00,93.00,81.00,14.00,69.00,21.00,88.00,38.00,48.00,57.00,46.00,78.00,92.00,93.00,https://BAFADAMSLTD.co.uk/GPGData,Firstname211 Lastname211 (Jobtitle 211),02/11/2016 00:00:00,B A F ADAMS LTD,09501708,Burton Green,,Kenilworth,,CV8 1QB,,94990
04/04/2016 00:00:00,42.00,52.00,51.00,81.00,27.00,23.00,7.00,41.00,90.00,94.00,32.00,24.00,25.00,41.00,https://BAFFLOORINGLTD.co.uk/GPGData,Firstname212 Lastname212 (Jobtitle 212),26/03/2017 00:00:00,B A F FLOORING LTD,07641974,Mulberry Green,,Old Harlow,United Kingdom,CM17 0ET,,43330
04/04/2016 00:00:00,28.00,14.00,82.00,35.00,68.00,7.00,52.00,92.00,68.00,85.00,35.00,77.00,95.00,24.00,https://BAFIELDSERVICESLIMITED.co.uk/GPGData,Firstname213 Lastname213 (Jobtitle 213),28/04/2016 00:00:00,B A FIELD SERVICES LIMITED,09750697,Aveley Road,,Romford,United Kingdom,RM1 4AB,,42120
04/04/2016 00:00:00,28.00,30.00,97.00,54.00,68.00,53.00,5.00,85.00,84.00,68.00,17.00,32.00,54.00,28.00,https://BANDATRADERSLIMITED.co.uk/GPGData,Firstname125 Lastname125 (Jobtitle 125),06/10/2016 00:00:00,B AND A TRADERS LIMITED,09856595,Craven Park Road,South Tottenham,London,United Kingdom,N15 6AB,,"68100,68320"
04/04/2016 00:00:00,22.00,36.00,31.00,88.00,22.00,54.00,62.00,79.00,24.00,83.00,36.00,94.00,69.00,89.00,https://BANDBJONESLIMITED.co.uk/GPGData,Firstname56 Lastname56 (Jobtitle 56),11/07/2016 00:00:00,B AND B JONES LIMITED,06490066,Penybont,,Oswestry,,SY10 9JG,,1410
04/04/2016 00:00:00,95.00,82.00,94.00,66.00,62.00,40.00,20.00,11.00,48.00,44.00,19.00,85.00,52.00,59.00,https://BANDBLANDDEVELOPMENTSLIMITED.co.uk/GPGData,Firstname59 Lastname59 (Jobtitle 59),08/12/2016 00:00:00,B AND B LAND DEVELOPMENTS LIMITED,05460454,Downing Court,Gorleston,Great Yarmouth,,NR31 7BA,,41100
04/04/2016 00:00:00,48.00,15.00,72.00,36.00,77.00,82.00,0.00,30.00,97.00,51.00,27.00,73.00,69.00,72.00,https://BANDBLANDHOLDINGSLIMITED.co.uk/GPGData,Firstname60 Lastname60 (Jobtitle 60),07/08/2016 00:00:00,B AND B LAND HOLDINGS LIMITED,08586138,Downing Court,Gorleston,Great Yarmouth,,NR31 7BA,,64209
04/04/2016 00:00:00,59.00,7.00,68.00,13.00,68.00,67.00,40.00,85.00,55.00,66.00,82.00,82.00,89.00,31.00,https://BANDBWINESLTD.co.uk/GPGData,Firstname320 Lastname320 (Jobtitle 320),24/12/2016 00:00:00,B AND B WINES LTD,07994792,Vansittart Road,,Forestgate,,E7 0AS,,47110
04/04/2016 00:00:00,79.00,38.00,30.00,93.00,83.00,43.00,82.00,42.00,57.00,89.00,17.00,51.00,2.00,36.00,https://B.&B.LIFTINGEQUIPMENTLTD..co.uk/GPGData,Firstname61 Lastname61 (Jobtitle 61),22/11/2016 00:00:00,B. & B. LIFTING EQUIPMENT LTD.,SC201020,82 Muir Street,,Hamilton,,ML3 6BJ,,82990
04/04/2016 00:00:00,96.00,47.00,28.00,27.00,0.00,12.00,29.00,51.00,60.00,13.00,38.00,63.00,89.00,91.00,https://B.&B.VENDINGLIMITED.co.uk/GPGData,Firstname316 Lastname316 (Jobtitle 316),20/10/2016 00:00:00,B. & B. VENDING LIMITED,00964071,Crown Road,,Stoke On Trent,,ST1 5NJ,,"56210,77330"
04/04/2016 00:00:00,93.00,6.00,72.00,67.00,58.00,84.00,19.00,87.00,16.00,97.00,74.00,2.00,29.00,22.00,https://B.&B.WESTLONDONLIMITED.co.uk/GPGData,Firstname318 Lastname318 (Jobtitle 318),29/12/2016 00:00:00,B. & B. WEST LONDON LIMITED,01807240,Second Avenue,Acton,London,,W3 7RX,,
04/04/2016 00:00:00,16.00,36.00,93.00,96.00,28.00,67.00,93.00,87.00,24.00,93.00,10.00,94.00,61.00,8.00,https://B.A.D.MEDIALIMITED.co.uk/GPGData,Firstname204 Lastname204 (Jobtitle 204),11/09/2016 00:00:00,B. A. D. MEDIA LIMITED,10296350,Kilburn High Road,,London,Great Britain,NW6 7QE,,59200
04/04/2016 00:00:00,44.00,47.00,15.00,7.00,5.00,89.00,86.00,41.00,95.00,21.00,38.00,65.00,38.00,63.00,https://B.ADVISORYLIMITED.co.uk/GPGData,Firstname206 Lastname206 (Jobtitle 206),02/05/2016 00:00:00,B. ADVISORY LIMITED,10183946,Church Street,,Burnham,United Kingdom,SL1 7HZ,,62090
01/04/2016 00:00:00,56.00,22.00,65.00,21.00,65.00,54.00,15.00,0.00,42.00,90.00,97.00,100.00,56.00,64.00,https://BaberghDistrictCouncil.co.uk/GPGData,Firstname480 Lastname480 (Jobtitle 480),13/11/2016 00:00:00,Babergh District Council,,Address line 480,,City480,Country480,Post Code480,,1
01/04/2016 00:00:00,91.00,14.00,67.00,93.00,39.00,1.00,70.00,1.00,51.00,78.00,60.00,15.00,69.00,9.00,https://BackwellParishCouncil.co.uk/GPGData,Firstname481 Lastname481 (Jobtitle 481),13/10/2016 00:00:00,Backwell Parish Council,,Address line 481,,City481,Country481,Post Code481,,1
01/04/2016 00:00:00,45.00,18.00,3.00,62.00,52.00,77.00,55.00,83.00,65.00,21.00,48.00,2.00,99.00,20.00,https://BadgerFarmParish.co.uk/GPGData,Firstname482 Lastname482 (Jobtitle 482),18/07/2016 00:00:00,Badger Farm Parish,,Address line 482,,City482,Country482,Post Code482,,1
01/04/2016 00:00:00,59.00,45.00,48.00,65.00,89.00,88.00,90.00,43.00,98.00,97.00,1.00,31.00,9.00,16.00,https://BagilltCommunityCouncil.co.uk/GPGData,Firstname483 Lastname483 (Jobtitle 483),06/09/2016 00:00:00,Bagillt Community Council,,Address line 483,,City483,Country483,Post Code483,,1
01/04/2016 00:00:00,72.00,20.00,18.00,31.00,86.00,98.00,64.00,1.00,39.00,31.00,40.00,81.00,31.00,22.00,https://BaildonTownCouncil.co.uk/GPGData,Firstname343 Lastname343 (Jobtitle 343),06/09/2016 00:00:00,Baildon Town Council,,Address line 343,,City343,Country343,Post Code343,,1
01/04/2016 00:00:00,16.00,90.00,52.00,29.00,2.00,31.00,81.00,52.00,31.00,19.00,97.00,85.00,73.00,2.00,https://BakewellTownCouncil.co.uk/GPGData,Firstname344 Lastname344 (Jobtitle 344),15/06/2016 00:00:00,Bakewell Town Council,,Address line 344,,City344,Country344,Post Code344,,1
01/04/2016 00:00:00,19.00,48.00,72.00,51.00,66.00,37.00,64.00,71.00,61.00,7.00,85.00,44.00,78.00,7.00,https://BaldertonParishCouncil.co.uk/GPGData,Firstname345 Lastname345 (Jobtitle 345),12/12/2016 00:00:00,Balderton Parish Council,,Address line 345,,City345,Country345,Post Code345,,1
01/04/2016 00:00:00,89.00,22.00,83.00,71.00,42.00,18.00,62.00,95.00,25.00,69.00,83.00,77.00,66.00,75.00,https://BallymenaBoroughCouncil.co.uk/GPGData,Firstname346 Lastname346 (Jobtitle 346),19/04/2016 00:00:00,Ballymena Borough Council,,Address line 346,,City346,Country346,Post Code346,,1
01/04/2016 00:00:00,36.00,35.00,81.00,10.00,23.00,32.00,81.00,90.00,19.00,72.00,83.00,80.00,25.00,62.00,https://BallymoneyBoroughCouncil.co.uk/GPGData,Firstname347 Lastname347 (Jobtitle 347),27/02/2017 00:00:00,Ballymoney Borough Council,,Address line 347,,City347,Country347,Post Code347,,1
01/04/2016 00:00:00,39.00,33.00,55.00,5.00,53.00,12.00,44.00,1.00,9.00,58.00,13.00,86.00,31.00,33.00,https://BamptonParishCouncil.co.uk/GPGData,Firstname348 Lastname348 (Jobtitle 348),01/11/2016 00:00:00,Bampton Parish Council,,Address line 348,,City348,Country348,Post Code348,,1
01/04/2016 00:00:00,66.00,40.00,89.00,90.00,56.00,20.00,51.00,61.00,82.00,55.00,15.00,24.00,81.00,17.00,https://BamptonTownCouncil.co.uk/GPGData,Firstname349 Lastname349 (Jobtitle 349),25/04/2016 00:00:00,BamptonTown Council,,Address line 349,,City349,Country349,Post Code349,,1
01/04/2016 00:00:00,22.00,75.00,31.00,58.00,22.00,71.00,5.00,11.00,43.00,19.00,12.00,77.00,100.00,4.00,https://BanburyTownCouncil.co.uk/GPGData,Firstname350 Lastname350 (Jobtitle 350),12/05/2016 00:00:00,Banbury Town Council,,Address line 350,,City350,Country350,Post Code350,,1
01/04/2016 00:00:00,95.00,72.00,94.00,77.00,92.00,63.00,61.00,69.00,73.00,59.00,24.00,52.00,57.00,18.00,https://BardneyGroupParishCouncil.co.uk/GPGData,Firstname351 Lastname351 (Jobtitle 351),26/04/2016 00:00:00,Bardney Group Parish Council,,Address line 351,,City351,Country351,Post Code351,,1
01/04/2016 00:00:00,61.00,80.00,40.00,44.00,70.00,37.00,2.00,20.00,62.00,72.00,28.00,69.00,87.00,81.00,https://BarkingandDagenhamCouncil.co.uk/GPGData,Firstname352 Lastname352 (Jobtitle 352),21/04/2016 00:00:00,Barking and Dagenham Council,,Address line 352,,City352,Country352,Post Code352,,1
01/04/2016 00:00:00,88.00,1.00,17.00,20.00,53.00,83.00,49.00,37.00,14.00,21.00,79.00,94.00,67.00,24.00,https://BarrowinFurnessBoroughCouncil.co.uk/GPGData,Firstname379 Lastname379 (Jobtitle 379),09/12/2016 00:00:00,Barrow in Furness Borough Council,,Address line 379,,City379,Country379,Post Code379,,1
01/04/2016 00:00:00,93.00,75.00,92.00,57.00,96.00,31.00,95.00,62.00,76.00,38.00,46.00,92.00,92.00,33.00,https://BartestreewithLugwardineGroupParishCouncil.co.uk/GPGData,Firstname380 Lastname380 (Jobtitle 380),01/04/2016 00:00:00,Bartestree with Lugwardine Group Parish Council,,Address line 380,,City380,Country380,Post Code380,,1
01/04/2016 00:00:00,18.00,41.00,94.00,67.00,70.00,82.00,49.00,89.00,53.00,60.00,59.00,33.00,6.00,14.00,https://BartsHealthNHSTrust.co.uk/GPGData,Firstname381 Lastname381 (Jobtitle 381),15/01/2017 00:00:00,Barts Health NHS Trust,,Address line 381,,City381,Country381,Post Code381,,1
01/04/2016 00:00:00,87.00,92.00,37.00,35.00,9.00,25.00,31.00,30.00,83.00,1.00,84.00,40.00,86.00,20.00,https://BasildonandThurrockUniversityHospitalsNHSFoundationTrust.co.uk/GPGData,Firstname382 Lastname382 (Jobtitle 382),06/03/2017 00:00:00,Basildon and Thurrock University Hospitals NHS Foundation Trust,,Address line 382,,City382,Country382,Post Code382,,1
01/04/2016 00:00:00,60.00,54.00,52.00,4.00,83.00,98.00,32.00,57.00,100.00,70.00,22.00,19.00,58.00,87.00,https://BasildonDistrictCouncil.co.uk/GPGData,Firstname383 Lastname383 (Jobtitle 383),21/05/2016 00:00:00,Basildon District Council,,Address line 383,,City383,Country383,Post Code383,,1
01/04/2016 00:00:00,24.00,8.00,3.00,21.00,3.00,52.00,98.00,13.00,40.00,22.00,76.00,2.00,69.00,98.00,https://BasildonParishCouncil.co.uk/GPGData,Firstname384 Lastname384 (Jobtitle 384),14/08/2016 00:00:00,Basildon Parish Council,,Address line 384,,City384,Country384,Post Code384,,1
01/04/2016 00:00:00,78.00,78.00,50.00,86.00,80.00,79.00,78.00,78.00,15.00,9.00,76.00,33.00,47.00,17.00,https://BasingstokeandDeaneBoroughCouncil.co.uk/GPGData,Firstname385 Lastname385 (Jobtitle 385),21/05/2016 00:00:00,Basingstoke and Deane Borough Council,,Address line 385,,City385,Country385,Post Code385,,1
01/04/2016 00:00:00,44.00,13.00,27.00,1.00,14.00,58.00,9.00,93.00,86.00,54.00,94.00,73.00,63.00,70.00,https://BassetlawDistrictCouncil.co.uk/GPGData,Firstname386 Lastname386 (Jobtitle 386),15/03/2017 00:00:00,Bassetlaw District Council,,Address line 386,,City386,Country386,Post Code386,,1
01/04/2016 00:00:00,54.00,37.00,44.00,41.00,33.00,45.00,3.00,84.00,7.00,29.00,93.00,71.00,21.00,10.00,https://BathandNorthEastSomersetCouncil.co.uk/GPGData,Firstname387 Lastname387 (Jobtitle 387),04/12/2016 00:00:00,Bath and North East Somerset Council,,Address line 387,,City387,Country387,Post Code387,,1
01/04/2016 00:00:00,99.00,0.00,93.00,15.00,46.00,41.00,74.00,33.00,5.00,51.00,30.00,33.00,74.00,14.00,https://BaughurstParishCouncil.co.uk/GPGData,Firstname388 Lastname388 (Jobtitle 388),29/06/2016 00:00:00,Baughurst Parish Council,,Address line 388,,City388,Country388,Post Code388,,1
01/04/2016 00:00:00,92.00,17.00,59.00,78.00,32.00,4.00,61.00,39.00,69.00,0.00,33.00,86.00,47.00,1.00,https://BiltoninAinstywithBickertonParishCouncil.co.uk/GPGData,Firstname32 Lastname32 (Jobtitle 32),13/03/2017 00:00:00,Bilton in Ainsty with Bickerton Parish Council,,Address line 32,,City32,Country32,Post Code32,,1
01/04/2016 00:00:00,96.00,34.00,24.00,4.00,42.00,40.00,19.00,62.00,0.00,41.00,21.00,39.00,61.00,1.00,https://BinfieldParishCouncil.co.uk/GPGData,Firstname33 Lastname33 (Jobtitle 33),14/01/2017 00:00:00,Binfield Parish Council,,Address line 33,,City33,Country33,Post Code33,,1
01/04/2016 00:00:00,73.00,13.00,51.00,31.00,73.00,96.00,19.00,51.00,21.00,30.00,73.00,28.00,0.00,36.00,https://BinghamTownCouncil.co.uk/GPGData,Firstname34 Lastname34 (Jobtitle 34),30/04/2016 00:00:00,Bingham Town Council,,Address line 34,,City34,Country34,Post Code34,,1
01/04/2016 00:00:00,97.00,96.00,36.00,91.00,99.00,18.00,19.00,50.00,82.00,86.00,43.00,62.00,71.00,47.00,https://BingleyTownCouncil.co.uk/GPGData,Firstname35 Lastname35 (Jobtitle 35),29/03/2017 00:00:00,Bingley Town Council,,Address line 35,,City35,Country35,Post Code35,,1
01/04/2016 00:00:00,50.00,54.00,24.00,67.00,78.00,93.00,83.00,15.00,27.00,5.00,95.00,86.00,50.00,85.00,https://BirminghamandSolihullMentalHealthNHSFoundationTrust.co.uk/GPGData,Firstname36 Lastname36 (Jobtitle 36),12/05/2016 00:00:00,Birmingham and Solihull Mental Health NHS Foundation Trust,,Address line 36,,City36,Country36,Post Code36,,1
01/04/2016 00:00:00,20.00,54.00,17.00,50.00,77.00,61.00,94.00,21.00,59.00,94.00,34.00,71.00,18.00,0.00,https://BirminghamChildren'sHospitalNHSFoundationTrust.co.uk/GPGData,Firstname37 Lastname37 (Jobtitle 37),27/10/2016 00:00:00,Birmingham Children's Hospital NHS Foundation Trust,,Address line 37,,City37,Country37,Post Code37,,1
01/04/2016 00:00:00,82.00,39.00,76.00,19.00,57.00,14.00,45.00,84.00,33.00,65.00,43.00,10.00,45.00,5.00,https://BirminghamCityCouncil.co.uk/GPGData,Firstname38 Lastname38 (Jobtitle 38),01/04/2016 00:00:00,"Birmingham City Council ",,Address line 38,,City38,Country38,Post Code38,,1
01/04/2016 00:00:00,61.00,82.00,45.00,65.00,22.00,91.00,30.00,59.00,89.00,14.00,23.00,87.00,74.00,87.00,https://BirminghamCommunityHealthcareNHSTrust.co.uk/GPGData,Firstname39 Lastname39 (Jobtitle 39),16/09/2016 00:00:00,Birmingham Community Healthcare NHS Trust,,Address line 39,,City39,Country39,Post Code39,,1
01/04/2016 00:00:00,17.00,79.00,15.00,95.00,17.00,90.00,60.00,4.00,55.00,23.00,19.00,87.00,46.00,81.00,https://BirminghamWomen'sNHSFoundationTrust.co.uk/GPGData,Firstname40 Lastname40 (Jobtitle 40),15/05/2016 00:00:00,Birmingham Women's NHS Foundation Trust,,Address line 40,,City40,Country40,Post Code40,,1
01/04/2016 00:00:00,15.00,47.00,47.00,98.00,43.00,61.00,87.00,71.00,43.00,15.00,41.00,59.00,13.00,29.00,https://BishopAucklandTownCouncil.co.uk/GPGData,Firstname41 Lastname41 (Jobtitle 41),15/10/2016 00:00:00,Bishop Auckland Town Council,,Address line 41,,City41,Country41,Post Code41,,1
01/04/2016 00:00:00,41.00,40.00,1.00,56.00,46.00,76.00,77.00,31.00,17.00,53.00,39.00,72.00,34.00,30.00,https://BishopClearyCatholicMultiAcademyCompany.co.uk/GPGData,Firstname152 Lastname152 (Jobtitle 152),17/02/2017 00:00:00,Bishop Cleary Catholic Multi Academy Company,,Address line 152,,City152,Country152,Post Code152,,1
01/04/2016 00:00:00,1.00,94.00,7.00,82.00,51.00,79.00,32.00,53.00,90.00,53.00,44.00,8.00,32.00,45.00,https://BishopMiddleham&MainsforthParishCouncil.co.uk/GPGData,Firstname153 Lastname153 (Jobtitle 153),06/04/2016 00:00:00,Bishop Middleham & Mainsforth Parish Council,,Address line 153,,City153,Country153,Post Code153,,1
01/04/2016 00:00:00,7.00,28.00,17.00,11.00,9.00,33.00,17.00,13.00,29.00,17.00,65.00,45.00,14.00,7.00,https://BishopsCanningsParishCouncil.co.uk/GPGData,Firstname154 Lastname154 (Jobtitle 154),09/08/2016 00:00:00,Bishops Cannings Parish Council,,Address line 154,,City154,Country154,Post Code154,,1
01/04/2016 00:00:00,98.00,31.00,98.00,88.00,79.00,72.00,84.00,33.00,56.00,94.00,21.00,13.00,82.00,98.00,https://Bishop'sWalthamParishCouncil.co.uk/GPGData,Firstname155 Lastname155 (Jobtitle 155),17/01/2017 00:00:00,Bishop's Waltham Parish Council,,Address line 155,,City155,Country155,Post Code155,,1
01/04/2016 00:00:00,50.00,12.00,51.00,30.00,2.00,30.00,33.00,39.00,8.00,90.00,64.00,10.00,85.00,41.00,https://BroadlandDistrictCouncil.co.uk/GPGData,Firstname399 Lastname399 (Jobtitle 399),10/12/2016 00:00:00,Broadland District Council,,Address line 399,,City399,Country399,Post Code399,,1
01/04/2016 00:00:00,51.00,25.00,16.00,23.00,81.00,57.00,72.00,7.00,52.00,43.00,99.00,0.00,60.00,95.00,https://BroadstairsandStPetersTownCouncil.co.uk/GPGData,Firstname400 Lastname400 (Jobtitle 400),26/11/2016 00:00:00,Broadstairs and St Peters Town Council,,Address line 400,,City400,Country400,Post Code400,,1
01/04/2016 00:00:00,71.00,96.00,93.00,75.00,60.00,89.00,47.00,52.00,56.00,59.00,27.00,61.00,78.00,6.00,https://BroadwindsorGroupParishCouncil.co.uk/GPGData,Firstname401 Lastname401 (Jobtitle 401),26/05/2016 00:00:00,Broadwindsor Group Parish Council,,Address line 401,,City401,Country401,Post Code401,,1
01/04/2016 00:00:00,59.00,28.00,30.00,68.00,74.00,32.00,15.00,92.00,74.00,20.00,24.00,24.00,32.00,67.00,https://BrockworthParishCouncil.co.uk/GPGData,Firstname402 Lastname402 (Jobtitle 402),15/08/2016 00:00:00,Brockworth Parish Council,,Address line 402,,City402,Country402,Post Code402,,1
01/04/2016 00:00:00,44.00,9.00,92.00,5.00,62.00,78.00,99.00,84.00,46.00,29.00,38.00,19.00,56.00,53.00,https://BromleyandWinslowTownCouncil.co.uk/GPGData,Firstname403 Lastname403 (Jobtitle 403),23/07/2016 00:00:00,Bromley and Winslow Town Council,,Address line 403,,City403,Country403,Post Code403,,1
01/04/2016 00:00:00,62.00,36.00,62.00,54.00,31.00,74.00,41.00,15.00,23.00,88.00,53.00,56.00,34.00,3.00,https://BromleyHealthcare.co.uk/GPGData,Firstname404 Lastname404 (Jobtitle 404),16/01/2017 00:00:00,Bromley Healthcare,,Address line 404,,City404,Country404,Post Code404,,1
01/04/2016 00:00:00,59.00,52.00,69.00,16.00,71.00,31.00,42.00,70.00,14.00,1.00,96.00,65.00,7.00,6.00,https://BrookLearningTrust.co.uk/GPGData,Firstname405 Lastname405 (Jobtitle 405),03/12/2016 00:00:00,Brook Learning Trust,,Address line 405,,City405,Country405,Post Code405,,1
01/04/2016 00:00:00,78.00,88.00,35.00,78.00,80.00,46.00,78.00,22.00,57.00,99.00,17.00,41.00,39.00,33.00,https://BroughtonandBrettonCommunityCouncil.co.uk/GPGData,Firstname406 Lastname406 (Jobtitle 406),26/06/2016 00:00:00,Broughton and Bretton Community Council,,Address line 406,,City406,Country406,Post Code406,,1
01/04/2016 00:00:00,99.00,88.00,64.00,10.00,33.00,44.00,83.00,67.00,53.00,41.00,37.00,36.00,36.00,89.00,https://BroughtonandMiltonKeynesParishCouncil.co.uk/GPGData,Firstname407 Lastname407 (Jobtitle 407),01/03/2017 00:00:00,Broughton and Milton Keynes Parish Council,,Address line 407,,City407,Country407,Post Code407,,1
01/04/2016 00:00:00,15.00,31.00,26.00,99.00,84.00,26.00,63.00,93.00,93.00,16.00,20.00,32.00,77.00,32.00,https://BroughtonAstleyParishCouncil.co.uk/GPGData,Firstname408 Lastname408 (Jobtitle 408),29/11/2016 00:00:00,Broughton Astley Parish Council,,Address line 408,,City408,Country408,Post Code408,,1
01/04/2016 00:00:00,9.00,58.00,19.00,45.00,67.00,64.00,65.00,33.00,82.00,11.00,57.00,25.00,61.00,67.00,https://BroxtonandDistrictParishCouncil.co.uk/GPGData,Firstname142 Lastname142 (Jobtitle 142),21/06/2016 00:00:00,Broxton and District Parish Council,,Address line 142,,City142,Country142,Post Code142,,1
01/04/2016 00:00:00,8.00,55.00,23.00,7.00,79.00,17.00,11.00,46.00,24.00,32.00,21.00,32.00,8.00,96.00,https://BrymptonParishCouncil.co.uk/GPGData,Firstname143 Lastname143 (Jobtitle 143),23/02/2017 00:00:00,Brympton Parish Council,,Address line 143,,City143,Country143,Post Code143,,1
01/04/2016 00:00:00,27.00,58.00,53.00,3.00,57.00,47.00,84.00,35.00,13.00,64.00,77.00,31.00,60.00,19.00,https://BrynfordCommunityCouncil.co.uk/GPGData,Firstname312 Lastname312 (Jobtitle 312),16/10/2016 00:00:00,Brynford Community Council,,Address line 312,,City312,Country312,Post Code312,,1
01/04/2016 00:00:00,7.00,29.00,46.00,1.00,56.00,36.00,1.00,67.00,61.00,9.00,6.00,76.00,40.00,57.00,https://BuckfastleighTownCouncil.co.uk/GPGData,Firstname144 Lastname144 (Jobtitle 144),22/07/2016 00:00:00,Buckfastleigh Town Council,,Address line 144,,City144,Country144,Post Code144,,1
01/04/2016 00:00:00,78.00,93.00,47.00,2.00,44.00,89.00,1.00,28.00,94.00,38.00,78.00,35.00,14.00,64.00,https://BuckhurstHillParishCouncil.co.uk/GPGData,Firstname145 Lastname145 (Jobtitle 145),25/10/2016 00:00:00,Buckhurst Hill Parish Council,,Address line 145,,City145,Country145,Post Code145,,1
01/04/2016 00:00:00,16.00,70.00,65.00,19.00,74.00,30.00,70.00,99.00,98.00,79.00,12.00,36.00,34.00,71.00,https://BuckinghamParkParishCouncil.co.uk/GPGData,Firstname146 Lastname146 (Jobtitle 146),29/10/2016 00:00:00,Buckingham Park Parish Council,,Address line 146,,City146,Country146,Post Code146,,1
01/04/2016 00:00:00,38.00,20.00,67.00,69.00,14.00,17.00,65.00,76.00,46.00,65.00,82.00,10.00,76.00,71.00,https://BuckinghamTownCouncil.co.uk/GPGData,Firstname147 Lastname147 (Jobtitle 147),22/07/2016 00:00:00,Buckingham Town Council,,Address line 147,,City147,Country147,Post Code147,,1
01/04/2016 00:00:00,44.00,32.00,3.00,99.00,61.00,41.00,28.00,66.00,74.00,40.00,66.00,79.00,88.00,66.00,https://BuckinghamshireCountyCouncil.co.uk/GPGData,Firstname148 Lastname148 (Jobtitle 148),08/04/2016 00:00:00,Buckinghamshire County Council,,Address line 148,,City148,Country148,Post Code148,,1
01/04/2016 00:00:00,11.00,99.00,37.00,55.00,87.00,26.00,43.00,26.00,38.00,100.00,20.00,54.00,41.00,94.00,https://BuckinghamshireFire&RescueService.co.uk/GPGData,Firstname149 Lastname149 (Jobtitle 149),06/11/2016 00:00:00,Buckinghamshire Fire & Rescue Service,,Address line 149,,City149,Country149,Post Code149,,1
01/04/2016 00:00:00,69.00,8.00,3.00,49.00,19.00,88.00,46.00,0.00,39.00,78.00,57.00,54.00,31.00,29.00,https://BuckinghamshireFireandRescueService.co.uk/GPGData,Firstname150 Lastname150 (Jobtitle 150),19/11/2016 00:00:00,Buckinghamshire Fire and Rescue Service,,Address line 150,,City150,Country150,Post Code150,,1
01/04/2016 00:00:00,21.00,28.00,48.00,36.00,50.00,21.00,0.00,68.00,2.00,19.00,13.00,34.00,32.00,89.00,https://BuckinghamshireHealthcareNHSTrust.co.uk/GPGData,Firstname151 Lastname151 (Jobtitle 151),16/10/2016 00:00:00,Buckinghamshire Healthcare NHS Trust,,Address line 151,,City151,Country151,Post Code151,,1
01/04/2016 00:00:00,49.00,73.00,10.00,65.00,4.00,85.00,29.00,93.00,42.00,87.00,96.00,38.00,94.00,50.00,https://BuryMetropolitanBoroughCouncil.co.uk/GPGData,Firstname466 Lastname466 (Jobtitle 466),17/04/2016 00:00:00,Bury Metropolitan Borough Council,,Address line 466,,City466,Country466,Post Code466,,1
01/04/2016 00:00:00,26.00,30.00,37.00,92.00,33.00,30.00,34.00,23.00,63.00,73.00,34.00,64.00,64.00,70.00,https://BuryStEdmundsTownCouncil.co.uk/GPGData,Firstname467 Lastname467 (Jobtitle 467),19/02/2017 00:00:00,Bury St Edmunds Town Council,,Address line 467,,City467,Country467,Post Code467,,1
01/04/2016 00:00:00,65.00,20.00,8.00,74.00,86.00,62.00,35.00,83.00,61.00,94.00,51.00,7.00,91.00,7.00,"https://Business,InnovationandSkills(excl.agencies).co.uk/GPGData",Firstname468 Lastname468 (Jobtitle 468),26/07/2016 00:00:00,"Business, Innovation and Skills (excl. agencies)",,Address line 468,,City468,Country468,Post Code468,,1
01/04/2016 00:00:00,37.00,52.00,4.00,29.00,51.00,86.00,78.00,30.00,41.00,18.00,45.00,94.00,14.00,25.00,https://CabinetOffice(excl.agencies).co.uk/GPGData,Firstname469 Lastname469 (Jobtitle 469),29/05/2016 00:00:00,Cabinet Office (excl. agencies),,Address line 469,,City469,Country469,Post Code469,,1
01/04/2016 00:00:00,15.00,25.00,73.00,9.00,77.00,67.00,11.00,64.00,49.00,23.00,68.00,80.00,75.00,10.00,https://CabotLearningFederation.co.uk/GPGData,Firstname470 Lastname470 (Jobtitle 470),11/06/2016 00:00:00,Cabot Learning Federation,,Address line 470,,City470,Country470,Post Code470,,1
01/04/2016 00:00:00,16.00,43.00,84.00,47.00,30.00,86.00,27.00,59.00,34.00,40.00,97.00,66.00,91.00,24.00,https://CaerphillyCountyBoroughCouncil.co.uk/GPGData,Firstname471 Lastname471 (Jobtitle 471),08/03/2017 00:00:00,Caerphilly County Borough Council,,Address line 471,,City471,Country471,Post Code471,,1
01/04/2016 00:00:00,100.00,21.00,38.00,34.00,52.00,55.00,6.00,32.00,92.00,16.00,86.00,73.00,29.00,10.00,https://CalderdaleMetropolitanBoroughCouncil.co.uk/GPGData,Firstname472 Lastname472 (Jobtitle 472),26/01/2017 00:00:00,Calderdale Metropolitan Borough Council,,Address line 472,,City472,Country472,Post Code472,,1
01/04/2016 00:00:00,75.00,7.00,56.00,90.00,68.00,0.00,33.00,83.00,82.00,45.00,43.00,30.00,47.00,21.00,https://Caldicot&WentloogeLevelsInternalDrainageBoard.co.uk/GPGData,Firstname473 Lastname473 (Jobtitle 473),05/03/2017 00:00:00,Caldicot & Wentlooge Levels Internal Drainage Board,,Address line 473,,City473,Country473,Post Code473,,1
01/04/2016 00:00:00,16.00,10.00,63.00,99.00,80.00,85.00,54.00,55.00,24.00,90.00,67.00,15.00,57.00,31.00,https://CamborneTownCouncil.co.uk/GPGData,Firstname474 Lastname474 (Jobtitle 474),08/10/2016 00:00:00,Camborne Town Council,,Address line 474,,City474,Country474,Post Code474,,1
01/04/2016 00:00:00,14.00,44.00,56.00,29.00,93.00,99.00,46.00,51.00,78.00,59.00,80.00,26.00,94.00,48.00,https://CambourneParishCouncil.co.uk/GPGData,Firstname475 Lastname475 (Jobtitle 475),03/09/2016 00:00:00,Cambourne Parish Council,,Address line 475,,City475,Country475,Post Code475,,1
01/04/2016 00:00:00,66.00,11.00,88.00,19.00,57.00,86.00,71.00,74.00,47.00,50.00,50.00,93.00,88.00,82.00,https://CambridgeshireFireAndRescueServices.co.uk/GPGData,Firstname292 Lastname292 (Jobtitle 292),11/04/2016 00:00:00,Cambridgeshire Fire And Rescue Services,,Address line 292,,City292,Country292,Post Code292,,1
01/04/2016 00:00:00,79.00,38.00,100.00,49.00,80.00,96.00,5.00,15.00,87.00,33.00,9.00,35.00,78.00,23.00,https://CambridgeshirePolice.co.uk/GPGData,Firstname293 Lastname293 (Jobtitle 293),21/04/2016 00:00:00,Cambridgeshire Police,,Address line 293,,City293,Country293,Post Code293,,1
01/04/2016 00:00:00,35.00,65.00,36.00,68.00,35.00,31.00,79.00,99.00,80.00,46.00,98.00,85.00,20.00,32.00,https://CambridgeshirePoliceAuthority.co.uk/GPGData,Firstname294 Lastname294 (Jobtitle 294),03/04/2016 00:00:00,Cambridgeshire Police Authority,,Address line 294,,City294,Country294,Post Code294,,1
01/04/2016 00:00:00,21.00,66.00,51.00,98.00,82.00,86.00,20.00,57.00,61.00,82.00,14.00,27.00,75.00,92.00,https://CamdenandIslingtonNHSFoundationTrust.co.uk/GPGData,Firstname295 Lastname295 (Jobtitle 295),03/12/2016 00:00:00,Camden and Islington NHS Foundation Trust,,Address line 295,,City295,Country295,Post Code295,,1
01/04/2016 00:00:00,62.00,58.00,30.00,34.00,5.00,17.00,95.00,10.00,4.00,92.00,96.00,87.00,10.00,3.00,https://CamdenCouncil.co.uk/GPGData,Firstname296 Lastname296 (Jobtitle 296),26/06/2016 00:00:00,Camden Council,,Address line 296,,City296,Country296,Post Code296,,1
01/04/2016 00:00:00,20.00,29.00,1.00,35.00,66.00,58.00,5.00,28.00,18.00,64.00,4.00,14.00,40.00,94.00,https://CamelfordTownCouncil.co.uk/GPGData,Firstname297 Lastname297 (Jobtitle 297),10/03/2017 00:00:00,Camelford Town Council,,Address line 297,,City297,Country297,Post Code297,,1
01/04/2016 00:00:00,18.00,17.00,81.00,27.00,55.00,1.00,53.00,8.00,79.00,53.00,75.00,100.00,85.00,86.00,https://CampbellParkParishCouncil.co.uk/GPGData,Firstname298 Lastname298 (Jobtitle 298),26/12/2016 00:00:00,Campbell Park Parish Council,,Address line 298,,City298,Country298,Post Code298,,1
01/04/2016 00:00:00,4.00,85.00,79.00,15.00,18.00,37.00,65.00,39.00,75.00,96.00,54.00,57.00,22.00,99.00,https://CannockChaseDistrictCouncil.co.uk/GPGData,Firstname299 Lastname299 (Jobtitle 299),21/03/2017 00:00:00,Cannock Chase District Council,,Address line 299,,City299,Country299,Post Code299,,1
01/04/2016 00:00:00,59.00,60.00,37.00,56.00,67.00,24.00,19.00,60.00,15.00,28.00,93.00,93.00,7.00,8.00,https://CanonSladeCofESchool.co.uk/GPGData,Firstname300 Lastname300 (Jobtitle 300),21/10/2016 00:00:00,Canon Slade CofE School,,Address line 300,,City300,Country300,Post Code300,,1
01/04/2016 00:00:00,52.00,57.00,3.00,12.00,41.00,0.00,6.00,36.00,87.00,97.00,79.00,53.00,41.00,5.00,https://CanterburyCityCouncil.co.uk/GPGData,Firstname301 Lastname301 (Jobtitle 301),04/06/2016 00:00:00,Canterbury City Council,,Address line 301,,City301,Country301,Post Code301,,1
01/04/2016 00:00:00,53.00,63.00,5.00,49.00,34.00,71.00,39.00,56.00,59.00,49.00,51.00,70.00,79.00,28.00,https://CharltonKingsParishCouncil.co.uk/GPGData,Firstname186 Lastname186 (Jobtitle 186),13/12/2016 00:00:00,Charlton Kings Parish Council,,Address line 186,,City186,Country186,Post Code186,,1
01/04/2016 00:00:00,30.00,68.00,82.00,91.00,70.00,26.00,6.00,83.00,62.00,82.00,97.00,42.00,67.00,17.00,https://CharlwoodParishCouncil.co.uk/GPGData,Firstname187 Lastname187 (Jobtitle 187),21/10/2016 00:00:00,Charlwood Parish Council,,Address line 187,,City187,Country187,Post Code187,,1
01/04/2016 00:00:00,47.00,36.00,56.00,25.00,100.00,79.00,17.00,5.00,74.00,6.00,93.00,66.00,100.00,28.00,https://CharndonParishCouncil.co.uk/GPGData,Firstname188 Lastname188 (Jobtitle 188),24/11/2016 00:00:00,Charndon Parish Council,,Address line 188,,City188,Country188,Post Code188,,1
01/04/2016 00:00:00,79.00,0.00,21.00,38.00,83.00,99.00,67.00,80.00,28.00,69.00,40.00,38.00,87.00,8.00,https://CharnwoodBoroughCouncil.co.uk/GPGData,Firstname12 Lastname12 (Jobtitle 12),21/08/2016 00:00:00,Charnwood Borough Council,,Address line 12,,City12,Country12,Post Code12,,1
01/04/2016 00:00:00,61.00,45.00,81.00,99.00,74.00,76.00,60.00,43.00,13.00,5.00,72.00,54.00,15.00,29.00,https://CheamHighSchool.co.uk/GPGData,Firstname189 Lastname189 (Jobtitle 189),03/02/2017 00:00:00,Cheam High School,,Address line 189,,City189,Country189,Post Code189,,1
01/04/2016 00:00:00,34.00,95.00,20.00,66.00,90.00,100.00,88.00,32.00,26.00,44.00,82.00,16.00,39.00,81.00,https://ChedzoyParishCouncil.co.uk/GPGData,Firstname190 Lastname190 (Jobtitle 190),18/09/2016 00:00:00,Chedzoy Parish Council,,Address line 190,,City190,Country190,Post Code190,,1
01/04/2016 00:00:00,73.00,30.00,10.00,73.00,23.00,32.00,100.00,7.00,77.00,8.00,50.00,35.00,49.00,39.00,https://CheeveningParishCouncil.co.uk/GPGData,Firstname191 Lastname191 (Jobtitle 191),08/03/2017 00:00:00,Cheevening Parish Council,,Address line 191,,City191,Country191,Post Code191,,1
01/04/2016 00:00:00,27.00,29.00,23.00,13.00,0.00,6.00,15.00,39.00,34.00,19.00,65.00,11.00,73.00,99.00,https://ChelseaandWestminsterHospitalNHSFoundationTrust.co.uk/GPGData,Firstname192 Lastname192 (Jobtitle 192),10/06/2016 00:00:00,Chelsea and Westminster Hospital NHS Foundation Trust,,Address line 192,,City192,Country192,Post Code192,,1
01/04/2016 00:00:00,48.00,56.00,70.00,89.00,2.00,44.00,27.00,3.00,78.00,19.00,15.00,11.00,7.00,15.00,https://CheltenhamBoroughCouncil.co.uk/GPGData,Firstname13 Lastname13 (Jobtitle 13),13/07/2016 00:00:00,Cheltenham Borough Council,,Address line 13,,City13,Country13,Post Code13,,1
01/04/2016 00:00:00,46.00,12.00,36.00,92.00,19.00,92.00,56.00,72.00,99.00,99.00,87.00,42.00,46.00,63.00,https://Chelveston-cum-CaldecottParishCouncil.co.uk/GPGData,Firstname193 Lastname193 (Jobtitle 193),03/08/2016 00:00:00,Chelveston-cum-Caldecott Parish Council,,Address line 193,,City193,Country193,Post Code193,,1
01/04/2016 00:00:00,66.00,66.00,14.00,56.00,58.00,15.00,78.00,17.00,98.00,8.00,88.00,6.00,91.00,76.00,https://ChesterfieldBoroughCouncil.co.uk/GPGData,Firstname14 Lastname14 (Jobtitle 14),20/09/2016 00:00:00,Chesterfield Borough Council,,Address line 14,,City14,Country14,Post Code14,,1
01/04/2016 00:00:00,77.00,52.00,72.00,46.00,36.00,60.00,64.00,49.00,47.00,21.00,4.00,85.00,97.00,21.00,https://ChiddingfoldParishCouncil.co.uk/GPGData,Firstname409 Lastname409 (Jobtitle 409),08/04/2016 00:00:00,Chiddingfold Parish Council,,Address line 409,,City409,Country409,Post Code409,,1
01/04/2016 00:00:00,98.00,56.00,5.00,92.00,65.00,90.00,28.00,27.00,67.00,57.00,3.00,73.00,36.00,22.00,https://ChiddinglyParishCouncil.co.uk/GPGData,Firstname410 Lastname410 (Jobtitle 410),17/04/2016 00:00:00,Chiddingly Parish Council,,Address line 410,,City410,Country410,Post Code410,,1
01/04/2016 00:00:00,65.00,48.00,84.00,15.00,58.00,15.00,44.00,88.00,42.00,50.00,81.00,22.00,100.00,27.00,https://ChigwellParishCouncil.co.uk/GPGData,Firstname411 Lastname411 (Jobtitle 411),25/02/2017 00:00:00,Chigwell Parish Council,,Address line 411,,City411,Country411,Post Code411,,1
01/04/2016 00:00:00,83.00,73.00,59.00,5.00,1.00,92.00,86.00,44.00,54.00,40.00,12.00,60.00,74.00,41.00,https://ChildExploitationandOnlineProtectionCentre.co.uk/GPGData,Firstname412 Lastname412 (Jobtitle 412),07/02/2017 00:00:00,Child Exploitation and Online Protection Centre,,Address line 412,,City412,Country412,Post Code412,,1
01/04/2016 00:00:00,58.00,53.00,80.00,40.00,37.00,41.00,49.00,17.00,15.00,33.00,16.00,11.00,0.00,44.00,https://ChildSupportAgency.co.uk/GPGData,Firstname413 Lastname413 (Jobtitle 413),23/02/2017 00:00:00,Child Support Agency,,Address line 413,,City413,Country413,Post Code413,,1
01/04/2016 00:00:00,71.00,81.00,35.00,4.00,66.00,19.00,46.00,31.00,3.00,29.00,18.00,77.00,79.00,55.00,https://ChildrenandFamilyCourtAdvisoryandSupportService.co.uk/GPGData,Firstname414 Lastname414 (Jobtitle 414),20/08/2016 00:00:00,Children and Family Court Advisory and Support Service,,Address line 414,,City414,Country414,Post Code414,,1
01/04/2016 00:00:00,59.00,29.00,13.00,70.00,43.00,31.00,87.00,36.00,64.00,28.00,79.00,40.00,56.00,52.00,https://ChilhamParishCouncil.co.uk/GPGData,Firstname415 Lastname415 (Jobtitle 415),08/05/2016 00:00:00,Chilham Parish Council,,Address line 415,,City415,Country415,Post Code415,,1
01/04/2016 00:00:00,69.00,58.00,10.00,71.00,87.00,40.00,42.00,41.00,50.00,50.00,14.00,83.00,53.00,7.00,https://ChilternLearningTrust.co.uk/GPGData,Firstname416 Lastname416 (Jobtitle 416),24/10/2016 00:00:00,Chiltern Learning Trust,,Address line 416,,City416,Country416,Post Code416,,1
01/04/2016 00:00:00,92.00,18.00,15.00,81.00,14.00,97.00,52.00,77.00,80.00,45.00,22.00,76.00,34.00,70.00,https://ChiltonPoldenParishCouncil.co.uk/GPGData,Firstname417 Lastname417 (Jobtitle 417),07/04/2016 00:00:00,Chilton Polden Parish Council,,Address line 417,,City417,Country417,Post Code417,,1
01/04/2016 00:00:00,4.00,9.00,69.00,76.00,56.00,20.00,41.00,59.00,71.00,90.00,58.00,23.00,4.00,54.00,https://ChinehamParishCouncil.co.uk/GPGData,Firstname418 Lastname418 (Jobtitle 418),27/02/2017 00:00:00,Chineham Parish Council,,Address line 418,,City418,Country418,Post Code418,,1
01/04/2016 00:00:00,3.00,4.00,25.00,44.00,78.00,48.00,72.00,25.00,55.00,65.00,67.00,55.00,19.00,51.00,https://ChinleyBuxworthandBrownsideParishCouncil.co.uk/GPGData,Firstname15 Lastname15 (Jobtitle 15),25/10/2016 00:00:00,Chinley Buxworth and Brownside Parish Council,,Address line 15,,City15,Country15,Post Code15,,1
01/04/2016 00:00:00,78.00,30.00,57.00,11.00,47.00,21.00,53.00,32.00,11.00,21.00,20.00,22.00,49.00,5.00,https://ChorleyBoroughCouncil.co.uk/GPGData,Firstname16 Lastname16 (Jobtitle 16),06/01/2017 00:00:00,Chorley Borough Council,,Address line 16,,City16,Country16,Post Code16,,1
01/04/2016 00:00:00,94.00,77.00,54.00,80.00,29.00,15.00,40.00,3.00,18.00,50.00,23.00,79.00,68.00,54.00,https://ChristchurchBoroughCouncil.co.uk/GPGData,Firstname17 Lastname17 (Jobtitle 17),08/07/2016 00:00:00,Christchurch Borough Council,,Address line 17,,City17,Country17,Post Code17,,1
01/04/2016 00:00:00,66.00,1.00,75.00,63.00,88.00,33.00,98.00,29.00,87.00,16.00,15.00,66.00,39.00,43.00,https://ChurchwithChapelBramptonParishCouncil.co.uk/GPGData,Firstname18 Lastname18 (Jobtitle 18),23/03/2017 00:00:00,Church with Chapel Brampton Parish Council,,Address line 18,,City18,Country18,Post Code18,,1
01/04/2016 00:00:00,37.00,79.00,27.00,28.00,25.00,79.00,8.00,16.00,91.00,95.00,96.00,59.00,13.00,94.00,https://ChurchillandBlakedownParishCouncil.co.uk/GPGData,Firstname19 Lastname19 (Jobtitle 19),24/11/2016 00:00:00,Churchill and Blakedown Parish Council,,Address line 19,,City19,Country19,Post Code19,,1
01/04/2016 00:00:00,9.00,71.00,88.00,78.00,27.00,72.00,16.00,76.00,100.00,62.00,44.00,27.00,45.00,63.00,https://CityofBradfordMetropolitanDistrictCouncil.co.uk/GPGData,Firstname20 Lastname20 (Jobtitle 20),10/11/2016 00:00:00,City of Bradford Metropolitan District Council,,Address line 20,,City20,Country20,Post Code20,,1
01/04/2016 00:00:00,28.00,70.00,11.00,65.00,58.00,40.00,10.00,39.00,62.00,39.00,92.00,73.00,25.00,92.00,https://CityofEdinburghCouncil.co.uk/GPGData,Firstname21 Lastname21 (Jobtitle 21),11/10/2016 00:00:00,City of Edinburgh Council,,Address line 21,,City21,Country21,Post Code21,,1
01/04/2016 00:00:00,56.00,81.00,2.00,48.00,47.00,99.00,80.00,65.00,68.00,56.00,59.00,50.00,75.00,50.00,https://CivilServiceAppealBoard.co.uk/GPGData,Firstname244 Lastname244 (Jobtitle 244),20/11/2016 00:00:00,Civil Service Appeal Board,,Address line 244,,City244,Country244,Post Code244,,1
01/04/2016 00:00:00,9.00,30.00,31.00,57.00,53.00,77.00,67.00,10.00,33.00,1.00,50.00,74.00,98.00,17.00,https://ClatterbridgeCancerCentreNHSFoundationTrust.co.uk/GPGData,Firstname245 Lastname245 (Jobtitle 245),11/04/2016 00:00:00,Clatterbridge Cancer Centre NHS Foundation Trust,,Address line 245,,City245,Country245,Post Code245,,1
01/04/2016 00:00:00,91.00,36.00,58.00,16.00,59.00,96.00,73.00,49.00,54.00,18.00,67.00,38.00,36.00,68.00,https://ClevelandFireBrigade.co.uk/GPGData,Firstname246 Lastname246 (Jobtitle 246),10/04/2016 00:00:00,Cleveland Fire Brigade,,Address line 246,,City246,Country246,Post Code246,,1
01/04/2016 00:00:00,36.00,89.00,55.00,27.00,29.00,34.00,7.00,15.00,67.00,36.00,62.00,43.00,70.00,94.00,"https://CobhamParishCouncil,Kent.co.uk/GPGData",Firstname247 Lastname247 (Jobtitle 247),28/08/2016 00:00:00,"Cobham Parish Council, Kent",,Address line 247,,City247,Country247,Post Code247,,1
01/04/2016 00:00:00,88.00,28.00,43.00,82.00,64.00,46.00,69.00,22.00,66.00,15.00,95.00,0.00,83.00,51.00,https://Colby&BanninghamParishCouncil.co.uk/GPGData,Firstname248 Lastname248 (Jobtitle 248),03/01/2017 00:00:00,Colby & Banningham Parish Council,,Address line 248,,City248,Country248,Post Code248,,1
01/04/2016 00:00:00,45.00,53.00,41.00,66.00,55.00,5.00,74.00,75.00,39.00,63.00,64.00,76.00,30.00,60.00,https://ColchesterBoroughCouncil.co.uk/GPGData,Firstname249 Lastname249 (Jobtitle 249),20/10/2016 00:00:00,Colchester Borough Council,,Address line 249,,City249,Country249,Post Code249,,1
01/04/2016 00:00:00,57.00,66.00,33.00,100.00,18.00,32.00,29.00,36.00,23.00,94.00,52.00,17.00,66.00,99.00,https://ColdharbourParishCouncil.co.uk/GPGData,Firstname250 Lastname250 (Jobtitle 250),19/03/2017 00:00:00,Coldharbour Parish Council,,Address line 250,,City250,Country250,Post Code250,,1
01/04/2016 00:00:00,21.00,81.00,36.00,83.00,21.00,41.00,98.00,6.00,59.00,91.00,94.00,14.00,5.00,15.00,https://ColeraineBoroughCouncil.co.uk/GPGData,Firstname251 Lastname251 (Jobtitle 251),18/04/2016 00:00:00,Coleraine Borough Council,,Address line 251,,City251,Country251,Post Code251,,1
01/04/2016 00:00:00,69.00,83.00,9.00,14.00,3.00,47.00,95.00,35.00,12.00,92.00,26.00,22.00,66.00,91.00,https://ColnbrookwithPoyleParishCouncil.co.uk/GPGData,Firstname214 Lastname214 (Jobtitle 214),31/08/2016 00:00:00,Colnbrook with Poyle Parish Council,,Address line 214,,City214,Country214,Post Code214,,1
01/04/2016 00:00:00,3.00,0.00,56.00,94.00,69.00,21.00,90.00,85.00,14.00,13.00,12.00,78.00,6.00,72.00,https://ColneyHeathParishCouncil.co.uk/GPGData,Firstname215 Lastname215 (Jobtitle 215),26/07/2016 00:00:00,Colney Heath Parish Council,,Address line 215,,City215,Country215,Post Code215,,1
01/04/2016 00:00:00,76.00,41.00,93.00,92.00,78.00,46.00,84.00,24.00,45.00,29.00,74.00,56.00,73.00,92.00,https://ColwichParishCouncil.co.uk/GPGData,Firstname216 Lastname216 (Jobtitle 216),07/05/2016 00:00:00,Colwich Parish Council,,Address line 216,,City216,Country216,Post Code216,,1
01/04/2016 00:00:00,1.00,3.00,82.00,7.00,38.00,54.00,20.00,34.00,94.00,14.00,18.00,93.00,30.00,62.00,https://CombeMartinParishCouncil.co.uk/GPGData,Firstname217 Lastname217 (Jobtitle 217),14/08/2016 00:00:00,Combe Martin Parish Council,,Address line 217,,City217,Country217,Post Code217,,1
01/04/2016 00:00:00,7.00,26.00,8.00,47.00,47.00,93.00,22.00,84.00,68.00,10.00,71.00,27.00,94.00,72.00,https://CombertonAcademyTrust.co.uk/GPGData,Firstname218 Lastname218 (Jobtitle 218),21/03/2017 00:00:00,Comberton Academy Trust,,Address line 218,,City218,Country218,Post Code218,,1
01/04/2016 00:00:00,54.00,1.00,66.00,16.00,39.00,15.00,53.00,94.00,70.00,100.00,22.00,13.00,76.00,66.00,https://CombrookParishCouncil.co.uk/GPGData,Firstname219 Lastname219 (Jobtitle 219),08/03/2017 00:00:00,Combrook Parish Council,,Address line 219,,City219,Country219,Post Code219,,1
01/04/2016 00:00:00,26.00,50.00,44.00,26.00,61.00,50.00,4.00,66.00,69.00,69.00,13.00,75.00,29.00,63.00,https://ComeytroweParishCouncil.co.uk/GPGData,Firstname220 Lastname220 (Jobtitle 220),04/02/2017 00:00:00,Comeytrowe Parish Council,,Address line 220,,City220,Country220,Post Code220,,1
01/04/2016 00:00:00,66.00,57.00,13.00,88.00,61.00,79.00,26.00,18.00,42.00,88.00,5.00,54.00,41.00,11.00,https://ComhairleNanEileanSiar.co.uk/GPGData,Firstname221 Lastname221 (Jobtitle 221),09/01/2017 00:00:00,Comhairle Nan Eilean Siar,,Address line 221,,City221,Country221,Post Code221,,1
01/04/2016 00:00:00,23.00,30.00,50.00,77.00,19.00,1.00,98.00,2.00,18.00,4.00,70.00,100.00,60.00,19.00,https://CommissionforRuralcommunities.co.uk/GPGData,Firstname222 Lastname222 (Jobtitle 222),30/01/2017 00:00:00,Commission for Rural communities,,Address line 222,,City222,Country222,Post Code222,,1
01/04/2016 00:00:00,0.00,94.00,81.00,36.00,14.00,37.00,74.00,57.00,3.00,97.00,11.00,84.00,88.00,63.00,https://CommunityAcademiesTrust.co.uk/GPGData,Firstname223 Lastname223 (Jobtitle 223),15/05/2016 00:00:00,Community Academies Trust,,Address line 223,,City223,Country223,Post Code223,,1
01/04/2016 00:00:00,75.00,87.00,81.00,93.00,11.00,78.00,28.00,69.00,84.00,73.00,51.00,48.00,40.00,49.00,https://CongresburyParishCouncil.co.uk/GPGData,Firstname363 Lastname363 (Jobtitle 363),09/04/2016 00:00:00,Congresbury Parish Council,,Address line 363,,City363,Country363,Post Code363,,1
01/04/2016 00:00:00,40.00,57.00,83.00,38.00,93.00,35.00,70.00,12.00,73.00,78.00,62.00,54.00,93.00,26.00,https://ConstructionIndustryTrainingBoard.co.uk/GPGData,Firstname364 Lastname364 (Jobtitle 364),14/06/2016 00:00:00,Construction Industry Training Board,,Address line 364,,City364,Country364,Post Code364,,1
01/04/2016 00:00:00,12.00,48.00,0.00,77.00,86.00,94.00,55.00,76.00,78.00,6.00,44.00,70.00,25.00,30.00,https://ConwyCountyBoroughCouncil.co.uk/GPGData,Firstname365 Lastname365 (Jobtitle 365),23/03/2017 00:00:00,Conwy County Borough Council,,Address line 365,,City365,Country365,Post Code365,,1
01/04/2016 00:00:00,61.00,13.00,35.00,42.00,97.00,43.00,14.00,80.00,57.00,47.00,40.00,19.00,38.00,4.00,https://CopelandBoroughCouncil.co.uk/GPGData,Firstname366 Lastname366 (Jobtitle 366),21/10/2016 00:00:00,Copeland Borough Council,,Address line 366,,City366,Country366,Post Code366,,1
01/04/2016 00:00:00,78.00,18.00,92.00,46.00,24.00,31.00,48.00,85.00,11.00,75.00,73.00,5.00,47.00,62.00,https://CorbyBoroughCouncil.co.uk/GPGData,Firstname367 Lastname367 (Jobtitle 367),31/05/2016 00:00:00,Corby Borough Council,,Address line 367,,City367,Country367,Post Code367,,1
01/04/2016 00:00:00,93.00,35.00,54.00,84.00,85.00,94.00,66.00,50.00,80.00,3.00,5.00,33.00,86.00,78.00,https://Cowbridge(AncientBorough)andLlanblethianTownCouncil.co.uk/GPGData,Firstname368 Lastname368 (Jobtitle 368),30/09/2016 00:00:00,Cowbridge (Ancient Borough) and Llanblethian Town Council,,Address line 368,,City368,Country368,Post Code368,,1
01/04/2016 00:00:00,59.00,92.00,81.00,25.00,83.00,3.00,7.00,41.00,60.00,80.00,27.00,71.00,69.00,23.00,https://CranbrookTownCouncil.co.uk/GPGData,Firstname262 Lastname262 (Jobtitle 262),12/12/2016 00:00:00,Cranbrook Town Council,,Address line 262,,City262,Country262,Post Code262,,1
01/04/2016 00:00:00,94.00,79.00,61.00,57.00,56.00,87.00,9.00,54.00,51.00,45.00,48.00,27.00,0.00,74.00,https://CravenDistrictCouncil.co.uk/GPGData,Firstname263 Lastname263 (Jobtitle 263),24/03/2017 00:00:00,Craven District Council,,Address line 263,,City263,Country263,Post Code263,,1
01/04/2016 00:00:00,85.00,28.00,93.00,74.00,18.00,50.00,53.00,92.00,64.00,83.00,77.00,98.00,90.00,63.00,https://CrawleyBoroughCouncil.co.uk/GPGData,Firstname264 Lastname264 (Jobtitle 264),12/01/2017 00:00:00,Crawley Borough Council,,Address line 264,,City264,Country264,Post Code264,,1
01/04/2016 00:00:00,3.00,73.00,33.00,89.00,57.00,24.00,26.00,51.00,8.00,48.00,26.00,71.00,10.00,6.00,https://CreativeEducationAcademiesTrust.co.uk/GPGData,Firstname265 Lastname265 (Jobtitle 265),19/11/2016 00:00:00,Creative Education Academies Trust,,Address line 265,,City265,Country265,Post Code265,,1
01/04/2016 00:00:00,41.00,94.00,20.00,83.00,2.00,100.00,34.00,62.00,21.00,16.00,65.00,37.00,55.00,5.00,https://Crewe&NantwichBoroughCouncil.co.uk/GPGData,Firstname266 Lastname266 (Jobtitle 266),10/10/2016 00:00:00,Crewe & Nantwich Borough Council,,Address line 266,,City266,Country266,Post Code266,,1
01/04/2016 00:00:00,59.00,19.00,53.00,57.00,60.00,25.00,31.00,51.00,26.00,88.00,19.00,97.00,35.00,9.00,https://CrickladeTownCouncil.co.uk/GPGData,Firstname267 Lastname267 (Jobtitle 267),01/12/2016 00:00:00,Cricklade Town Council,,Address line 267,,City267,Country267,Post Code267,,1
01/04/2016 00:00:00,90.00,17.00,36.00,76.00,59.00,45.00,43.00,16.00,80.00,48.00,54.00,72.00,53.00,44.00,https://CriminalRecordsBureau.co.uk/GPGData,Firstname268 Lastname268 (Jobtitle 268),09/07/2016 00:00:00,Criminal Records Bureau,,Address line 268,,City268,Country268,Post Code268,,1
01/04/2016 00:00:00,29.00,97.00,89.00,58.00,39.00,89.00,83.00,47.00,77.00,91.00,98.00,91.00,53.00,77.00,https://CringlefordParichCouncil.co.uk/GPGData,Firstname269 Lastname269 (Jobtitle 269),15/11/2016 00:00:00,Cringleford Parich Council,,Address line 269,,City269,Country269,Post Code269,,1
01/04/2016 00:00:00,13.00,98.00,67.00,39.00,57.00,39.00,47.00,34.00,33.00,37.00,75.00,52.00,0.00,46.00,https://CrondallParishCouncil.co.uk/GPGData,Firstname270 Lastname270 (Jobtitle 270),24/02/2017 00:00:00,Crondall Parish Council,,Address line 270,,City270,Country270,Post Code270,,1
01/04/2016 00:00:00,83.00,42.00,98.00,41.00,2.00,64.00,53.00,20.00,73.00,16.00,4.00,1.00,73.00,86.00,https://CropwellBishopParishCouncil.co.uk/GPGData,Firstname271 Lastname271 (Jobtitle 271),28/12/2016 00:00:00,Cropwell Bishop Parish Council,,Address line 271,,City271,Country271,Post Code271,,1
01/04/2016 00:00:00,81.00,17.00,98.00,52.00,29.00,24.00,32.00,86.00,25.00,52.00,29.00,63.00,57.00,68.00,"https://DepartmentforBusiness,InnovationandSkills.co.uk/GPGData",Firstname42 Lastname42 (Jobtitle 42),17/04/2016 00:00:00,"Department for Business, Innovation and Skills",,Address line 42,,City42,Country42,Post Code42,,1
01/04/2016 00:00:00,28.00,35.00,35.00,22.00,63.00,26.00,13.00,50.00,0.00,25.00,13.00,78.00,36.00,41.00,"https://DepartmentofHealth,SocialServicesandPublicSafety.co.uk/GPGData",Firstname43 Lastname43 (Jobtitle 43),08/11/2016 00:00:00,"Department of Health, Social Services and Public Safety",,Address line 43,,City43,Country43,Post Code43,,1
01/04/2016 00:00:00,98.00,61.00,31.00,22.00,25.00,13.00,50.00,33.00,13.00,22.00,80.00,14.00,70.00,19.00,https://DerbyCityCouncil.co.uk/GPGData,Firstname44 Lastname44 (Jobtitle 44),28/10/2016 00:00:00,Derby City Council,,Address line 44,,City44,Country44,Post Code44,,1
01/04/2016 00:00:00,39.00,10.00,86.00,85.00,75.00,85.00,19.00,44.00,78.00,0.00,16.00,70.00,89.00,44.00,https://DerbyTeachingHospitalsNHSFoundationTrust.co.uk/GPGData,Firstname45 Lastname45 (Jobtitle 45),07/09/2016 00:00:00,Derby Teaching Hospitals NHS Foundation Trust,,Address line 45,,City45,Country45,Post Code45,,1
01/04/2016 00:00:00,25.00,70.00,26.00,72.00,20.00,77.00,22.00,67.00,29.00,49.00,90.00,27.00,78.00,62.00,https://DerbyshireAssociationofLocalCouncils.co.uk/GPGData,Firstname46 Lastname46 (Jobtitle 46),26/09/2016 00:00:00,Derbyshire Association of Local Councils,,Address line 46,,City46,Country46,Post Code46,,1
01/04/2016 00:00:00,74.00,63.00,82.00,18.00,4.00,4.00,70.00,4.00,14.00,10.00,94.00,44.00,49.00,41.00,https://DerbyshireCommunityHealthServicesNHSFoundationTrust.co.uk/GPGData,Firstname47 Lastname47 (Jobtitle 47),23/08/2016 00:00:00,Derbyshire Community Health Services NHS Foundation Trust,,Address line 47,,City47,Country47,Post Code47,,1
01/04/2016 00:00:00,1.00,35.00,24.00,73.00,33.00,83.00,25.00,71.00,24.00,74.00,92.00,56.00,51.00,42.00,https://DerbyshireCountyCouncil.co.uk/GPGData,Firstname48 Lastname48 (Jobtitle 48),25/02/2017 00:00:00,Derbyshire County Council,,Address line 48,,City48,Country48,Post Code48,,1
01/04/2016 00:00:00,53.00,2.00,99.00,98.00,71.00,12.00,0.00,0.00,74.00,82.00,41.00,59.00,4.00,77.00,https://DerbyshireDalesDistrictCouncil.co.uk/GPGData,Firstname49 Lastname49 (Jobtitle 49),11/11/2016 00:00:00,Derbyshire Dales District Council,,Address line 49,,City49,Country49,Post Code49,,1
01/04/2016 00:00:00,52.00,25.00,76.00,71.00,33.00,31.00,90.00,53.00,54.00,48.00,58.00,73.00,31.00,19.00,https://DerbyshireFire&RescueService.co.uk/GPGData,Firstname50 Lastname50 (Jobtitle 50),06/01/2017 00:00:00,Derbyshire Fire & Rescue Service,,Address line 50,,City50,Country50,Post Code50,,1
01/04/2016 00:00:00,55.00,24.00,19.00,7.00,77.00,78.00,4.00,88.00,26.00,43.00,8.00,56.00,17.00,32.00,https://DerbyshireFireandRescueService.co.uk/GPGData,Firstname51 Lastname51 (Jobtitle 51),13/11/2016 00:00:00,Derbyshire Fire and Rescue Service,,Address line 51,,City51,Country51,Post Code51,,1
01/04/2016 00:00:00,55.00,63.00,98.00,62.00,60.00,44.00,16.00,61.00,4.00,42.00,78.00,98.00,28.00,74.00,https://DerbyshireHealthcareNHSFoundationTrust.co.uk/GPGData,Firstname429 Lastname429 (Jobtitle 429),24/09/2016 00:00:00,Derbyshire Healthcare NHS Foundation Trust,,Address line 429,,City429,Country429,Post Code429,,1
01/04/2016 00:00:00,76.00,77.00,57.00,39.00,69.00,74.00,67.00,43.00,8.00,84.00,75.00,83.00,62.00,34.00,https://DerbyshirePolice.co.uk/GPGData,Firstname430 Lastname430 (Jobtitle 430),30/07/2016 00:00:00,Derbyshire Police,,Address line 430,,City430,Country430,Post Code430,,1
01/04/2016 00:00:00,37.00,29.00,55.00,49.00,48.00,20.00,74.00,86.00,62.00,1.00,91.00,38.00,38.00,40.00,https://DesboroughTownCouncil.co.uk/GPGData,Firstname431 Lastname431 (Jobtitle 431),23/07/2016 00:00:00,Desborough Town Council,,Address line 431,,City431,Country431,Post Code431,,1
01/04/2016 00:00:00,70.00,41.00,43.00,53.00,12.00,22.00,91.00,25.00,6.00,21.00,6.00,72.00,50.00,56.00,https://DevonandCornwallConstabulary.co.uk/GPGData,Firstname432 Lastname432 (Jobtitle 432),31/01/2017 00:00:00,Devon and Cornwall Constabulary,,Address line 432,,City432,Country432,Post Code432,,1
01/04/2016 00:00:00,5.00,55.00,100.00,72.00,43.00,81.00,59.00,57.00,93.00,76.00,34.00,74.00,54.00,13.00,https://DevonBuildingControlPartnership.co.uk/GPGData,Firstname433 Lastname433 (Jobtitle 433),07/06/2016 00:00:00,Devon Building Control Partnership,,Address line 433,,City433,Country433,Post Code433,,1
01/04/2016 00:00:00,32.00,73.00,16.00,87.00,92.00,95.00,69.00,87.00,45.00,95.00,80.00,47.00,60.00,15.00,https://DisclosureandBarringService.co.uk/GPGData,Firstname434 Lastname434 (Jobtitle 434),12/08/2016 00:00:00,Disclosure and Barring Service,,Address line 434,,City434,Country434,Post Code434,,1
01/04/2016 00:00:00,82.00,16.00,35.00,62.00,23.00,16.00,11.00,81.00,59.00,11.00,43.00,28.00,81.00,14.00,https://DixonsAcademiesCharitableTrustLimited.co.uk/GPGData,Firstname435 Lastname435 (Jobtitle 435),26/05/2016 00:00:00,Dixons Academies Charitable Trust Limited,,Address line 435,,City435,Country435,Post Code435,,1
01/04/2016 00:00:00,76.00,18.00,3.00,0.00,21.00,85.00,4.00,8.00,40.00,16.00,61.00,96.00,26.00,63.00,https://DoncasterandBassetlawHospitalsNHSFoundationTrust.co.uk/GPGData,Firstname436 Lastname436 (Jobtitle 436),05/08/2016 00:00:00,Doncaster and Bassetlaw Hospitals NHS Foundation Trust,,Address line 436,,City436,Country436,Post Code436,,1
01/04/2016 00:00:00,80.00,58.00,90.00,23.00,1.00,7.00,60.00,49.00,53.00,3.00,46.00,25.00,27.00,23.00,https://DoncasterMetropolitanBoroughCouncil.co.uk/GPGData,Firstname437 Lastname437 (Jobtitle 437),27/12/2016 00:00:00,Doncaster Metropolitan Borough Council,,Address line 437,,City437,Country437,Post Code437,,1
01/04/2016 00:00:00,58.00,35.00,80.00,26.00,74.00,27.00,36.00,65.00,52.00,12.00,94.00,43.00,40.00,12.00,https://DorsetandWiltshireFireandRescueAuthority.co.uk/GPGData,Firstname82 Lastname82 (Jobtitle 82),28/11/2016 00:00:00,Dorset and Wiltshire Fire and Rescue Authority,,Address line 82,,City82,Country82,Post Code82,,1
01/04/2016 00:00:00,79.00,1.00,84.00,78.00,40.00,49.00,41.00,2.00,32.00,4.00,22.00,19.00,39.00,11.00,https://DorsetAssociationofParish&TownCouncils.co.uk/GPGData,Firstname83 Lastname83 (Jobtitle 83),16/12/2016 00:00:00,Dorset Association of Parish & Town Councils,,Address line 83,,City83,Country83,Post Code83,,1
01/04/2016 00:00:00,25.00,87.00,88.00,36.00,34.00,51.00,57.00,71.00,89.00,96.00,73.00,38.00,4.00,12.00,https://DorsetCountyHospitalNHSFoundationTrust.co.uk/GPGData,Firstname84 Lastname84 (Jobtitle 84),23/11/2016 00:00:00,Dorset County Hospital NHS Foundation Trust,,Address line 84,,City84,Country84,Post Code84,,1
01/04/2016 00:00:00,59.00,61.00,26.00,51.00,38.00,23.00,85.00,90.00,43.00,30.00,62.00,56.00,16.00,7.00,https://DorsetFireandRescueService.co.uk/GPGData,Firstname85 Lastname85 (Jobtitle 85),16/03/2017 00:00:00,Dorset Fire and Rescue Service,,Address line 85,,City85,Country85,Post Code85,,1
01/04/2016 00:00:00,37.00,23.00,100.00,67.00,61.00,16.00,32.00,47.00,19.00,4.00,15.00,69.00,96.00,82.00,https://DorsetHealthcareUniversityNHSFoundationTrust.co.uk/GPGData,Firstname86 Lastname86 (Jobtitle 86),11/04/2016 00:00:00,Dorset Healthcare University NHS Foundation Trust,,Address line 86,,City86,Country86,Post Code86,,1
01/04/2016 00:00:00,92.00,93.00,1.00,17.00,25.00,85.00,40.00,19.00,4.00,47.00,4.00,37.00,91.00,13.00,https://DowntonParishCouncil.co.uk/GPGData,Firstname87 Lastname87 (Jobtitle 87),19/08/2016 00:00:00,Downton Parish Council,,Address line 87,,City87,Country87,Post Code87,,1
01/04/2016 00:00:00,90.00,71.00,24.00,45.00,29.00,37.00,11.00,48.00,49.00,61.00,71.00,20.00,2.00,80.00,https://DoxeyParishCouncil.co.uk/GPGData,Firstname88 Lastname88 (Jobtitle 88),18/06/2016 00:00:00,Doxey Parish Council,,Address line 88,,City88,Country88,Post Code88,,1
01/04/2016 00:00:00,1.00,56.00,85.00,24.00,15.00,84.00,10.00,81.00,57.00,59.00,89.00,71.00,9.00,7.00,https://Driver&VehicleStandardsAgency.co.uk/GPGData,Firstname89 Lastname89 (Jobtitle 89),16/02/2017 00:00:00,Driver & Vehicle Standards Agency,,Address line 89,,City89,Country89,Post Code89,,1
01/04/2016 00:00:00,6.00,100.00,70.00,70.00,82.00,75.00,20.00,21.00,50.00,56.00,86.00,7.00,100.00,30.00,https://DriverandVehicleLicensingAgency.co.uk/GPGData,Firstname90 Lastname90 (Jobtitle 90),25/01/2017 00:00:00,Driver and Vehicle Licensing Agency,,Address line 90,,City90,Country90,Post Code90,,1
01/04/2016 00:00:00,47.00,34.00,98.00,99.00,28.00,100.00,73.00,77.00,78.00,23.00,46.00,71.00,49.00,44.00,https://DriverandVehicleStandardsAgency.co.uk/GPGData,Firstname91 Lastname91 (Jobtitle 91),27/05/2016 00:00:00,Driver and Vehicle Standards Agency,,Address line 91,,City91,Country91,Post Code91,,1
01/04/2016 00:00:00,63.00,54.00,22.00,6.00,39.00,62.00,35.00,49.00,15.00,58.00,53.00,15.00,27.00,60.00,https://DudleyMetropolitanBoroughCouncil.co.uk/GPGData,Firstname438 Lastname438 (Jobtitle 438),03/10/2016 00:00:00,Dudley Metropolitan Borough Council,,Address line 438,,City438,Country438,Post Code438,,1
01/04/2016 00:00:00,37.00,23.00,0.00,93.00,89.00,6.00,45.00,21.00,91.00,89.00,9.00,55.00,55.00,61.00,https://EastLeakParishCouncil.co.uk/GPGData,Firstname112 Lastname112 (Jobtitle 112),26/02/2017 00:00:00,East Leak Parish Council,,Address line 112,,City112,Country112,Post Code112,,1
01/04/2016 00:00:00,97.00,22.00,38.00,73.00,86.00,36.00,87.00,69.00,79.00,8.00,13.00,44.00,89.00,68.00,https://EastLindseyDistrictCouncil.co.uk/GPGData,Firstname113 Lastname113 (Jobtitle 113),18/04/2016 00:00:00,East Lindsey District Council,,Address line 113,,City113,Country113,Post Code113,,1
01/04/2016 00:00:00,54.00,43.00,12.00,76.00,8.00,58.00,85.00,46.00,52.00,8.00,40.00,93.00,58.00,77.00,https://EastLondonNHSFoundationTrust.co.uk/GPGData,Firstname114 Lastname114 (Jobtitle 114),11/04/2016 00:00:00,East London NHS Foundation Trust,,Address line 114,,City114,Country114,Post Code114,,1
01/04/2016 00:00:00,33.00,93.00,56.00,68.00,77.00,22.00,46.00,45.00,35.00,17.00,47.00,83.00,83.00,34.00,https://EastLondonWasteAuthority.co.uk/GPGData,Firstname115 Lastname115 (Jobtitle 115),22/11/2016 00:00:00,East London Waste Authority,,Address line 115,,City115,Country115,Post Code115,,1
01/04/2016 00:00:00,40.00,8.00,79.00,22.00,72.00,30.00,29.00,27.00,99.00,7.00,0.00,0.00,100.00,35.00,https://EastLothianCouncil.co.uk/GPGData,Firstname116 Lastname116 (Jobtitle 116),08/03/2017 00:00:00,East Lothian Council,,Address line 116,,City116,Country116,Post Code116,,1
01/04/2016 00:00:00,83.00,84.00,30.00,99.00,43.00,77.00,75.00,83.00,14.00,45.00,56.00,87.00,81.00,48.00,https://EastMidlandsAmbulanceServiceNHSTrust.co.uk/GPGData,Firstname117 Lastname117 (Jobtitle 117),06/12/2016 00:00:00,East Midlands Ambulance Service NHS Trust,,Address line 117,,City117,Country117,Post Code117,,1
01/04/2016 00:00:00,90.00,9.00,89.00,51.00,92.00,15.00,42.00,41.00,12.00,54.00,16.00,88.00,60.00,63.00,https://EastMidlandsCouncils.co.uk/GPGData,Firstname118 Lastname118 (Jobtitle 118),16/12/2016 00:00:00,East Midlands Councils,,Address line 118,,City118,Country118,Post Code118,,1
01/04/2016 00:00:00,8.00,22.00,85.00,9.00,20.00,89.00,50.00,53.00,18.00,72.00,53.00,74.00,14.00,87.00,https://EastNorthamptonshireCouncil.co.uk/GPGData,Firstname119 Lastname119 (Jobtitle 119),22/07/2016 00:00:00,East Northamptonshire Council,,Address line 119,,City119,Country119,Post Code119,,1
01/04/2016 00:00:00,26.00,6.00,87.00,73.00,46.00,41.00,64.00,53.00,72.00,39.00,32.00,72.00,11.00,21.00,https://EastofEnglandAmbulanceServiceNHSTrust.co.uk/GPGData,Firstname120 Lastname120 (Jobtitle 120),01/11/2016 00:00:00,East of England Ambulance Service NHS Trust,,Address line 120,,City120,Country120,Post Code120,,1
01/04/2016 00:00:00,93.00,22.00,70.00,35.00,51.00,53.00,57.00,93.00,92.00,21.00,36.00,57.00,9.00,100.00,https://EastofEnglandLocalGovernmentAssociation.co.uk/GPGData,Firstname121 Lastname121 (Jobtitle 121),06/07/2016 00:00:00,East of England Local Government Association,,Address line 121,,City121,Country121,Post Code121,,1
01/04/2016 00:00:00,11.00,79.00,57.00,42.00,63.00,40.00,45.00,74.00,12.00,85.00,73.00,18.00,89.00,35.00,https://ExecutiveInformationService.co.uk/GPGData,Firstname92 Lastname92 (Jobtitle 92),20/12/2016 00:00:00,Executive Information Service,,Address line 92,,City92,Country92,Post Code92,,1
01/04/2016 00:00:00,26.00,75.00,84.00,29.00,85.00,17.00,49.00,95.00,51.00,81.00,48.00,8.00,9.00,55.00,https://ExmoorNationalParkAuthority.co.uk/GPGData,Firstname93 Lastname93 (Jobtitle 93),08/03/2017 00:00:00,Exmoor National Park Authority,,Address line 93,,City93,Country93,Post Code93,,1
01/04/2016 00:00:00,90.00,59.00,15.00,61.00,35.00,39.00,44.00,72.00,62.00,76.00,59.00,98.00,27.00,15.00,https://ExportCreditsGuaranteeDepartment.co.uk/GPGData,Firstname94 Lastname94 (Jobtitle 94),14/06/2016 00:00:00,Export Credits Guarantee Department,,Address line 94,,City94,Country94,Post Code94,,1
01/04/2016 00:00:00,29.00,94.00,44.00,65.00,76.00,94.00,66.00,83.00,61.00,18.00,54.00,69.00,36.00,52.00,https://EynshamParishCouncil.co.uk/GPGData,Firstname95 Lastname95 (Jobtitle 95),16/05/2016 00:00:00,Eynsham Parish Council,,Address line 95,,City95,Country95,Post Code95,,1
01/04/2016 00:00:00,5.00,6.00,50.00,11.00,51.00,84.00,41.00,24.00,7.00,5.00,59.00,5.00,15.00,53.00,https://FairOak&HortonHeathParishCouncil.co.uk/GPGData,Firstname96 Lastname96 (Jobtitle 96),03/07/2016 00:00:00,Fair Oak & Horton Heath Parish Council,,Address line 96,,City96,Country96,Post Code96,,1
01/04/2016 00:00:00,89.00,30.00,84.00,46.00,15.00,45.00,34.00,70.00,19.00,42.00,63.00,83.00,33.00,39.00,https://FairfieldParishCouncil.co.uk/GPGData,Firstname97 Lastname97 (Jobtitle 97),09/05/2016 00:00:00,Fairfield Parish Council,,Address line 97,,City97,Country97,Post Code97,,1
01/04/2016 00:00:00,60.00,47.00,86.00,69.00,1.00,49.00,70.00,58.00,71.00,49.00,91.00,71.00,13.00,81.00,https://FairfordTownCouncil.co.uk/GPGData,Firstname98 Lastname98 (Jobtitle 98),09/12/2016 00:00:00,Fairford Town Council,,Address line 98,,City98,Country98,Post Code98,,1
01/04/2016 00:00:00,56.00,61.00,78.00,16.00,79.00,54.00,39.00,34.00,66.00,77.00,95.00,82.00,23.00,76.00,https://FalkirkCouncil.co.uk/GPGData,Firstname99 Lastname99 (Jobtitle 99),31/10/2016 00:00:00,Falkirk Council,,Address line 99,,City99,Country99,Post Code99,,1
01/04/2016 00:00:00,14.00,100.00,41.00,21.00,42.00,36.00,45.00,88.00,80.00,92.00,78.00,98.00,91.00,55.00,https://FalstoneParishCouncil.co.uk/GPGData,Firstname100 Lastname100 (Jobtitle 100),01/01/2017 00:00:00,Falstone Parish Council,,Address line 100,,City100,Country100,Post Code100,,1
01/04/2016 00:00:00,64.00,96.00,36.00,85.00,43.00,36.00,59.00,88.00,2.00,61.00,52.00,86.00,94.00,41.00,https://FarehamBoroughCouncil.co.uk/GPGData,Firstname101 Lastname101 (Jobtitle 101),31/07/2016 00:00:00,Fareham Borough Council,,Address line 101,,City101,Country101,Post Code101,,1
01/04/2016 00:00:00,47.00,7.00,59.00,22.00,62.00,96.00,76.00,6.00,80.00,81.00,24.00,1.00,93.00,52.00,https://IsleofAngleseyCountyCouncil.co.uk/GPGData,Firstname484 Lastname484 (Jobtitle 484),25/12/2016 00:00:00,Isle of Anglesey County Council,,Address line 484,,City484,Country484,Post Code484,,1
01/04/2016 00:00:00,4.00,49.00,61.00,64.00,24.00,32.00,66.00,28.00,90.00,90.00,92.00,61.00,72.00,62.00,https://IslesofScillyIFCA.co.uk/GPGData,Firstname485 Lastname485 (Jobtitle 485),27/04/2016 00:00:00,Isles of Scilly IFCA,,Address line 485,,City485,Country485,Post Code485,,1
01/04/2016 00:00:00,1.00,98.00,32.00,80.00,26.00,56.00,35.00,90.00,0.00,7.00,59.00,29.00,36.00,85.00,https://ItchingfieldParishCouncil.co.uk/GPGData,Firstname486 Lastname486 (Jobtitle 486),15/08/2016 00:00:00,Itchingfield Parish Council,,Address line 486,,City486,Country486,Post Code486,,1
01/04/2016 00:00:00,37.00,57.00,1.00,66.00,91.00,38.00,25.00,41.00,42.00,20.00,71.00,18.00,36.00,7.00,https://IverParishCouncil.co.uk/GPGData,Firstname487 Lastname487 (Jobtitle 487),14/07/2016 00:00:00,Iver Parish Council,,Address line 487,,City487,Country487,Post Code487,,1
01/04/2016 00:00:00,26.00,28.00,45.00,34.00,88.00,84.00,42.00,54.00,65.00,20.00,93.00,96.00,62.00,97.00,https://IvybridgeAcademyTrust.co.uk/GPGData,Firstname488 Lastname488 (Jobtitle 488),04/12/2016 00:00:00,Ivybridge Academy Trust,,Address line 488,,City488,Country488,Post Code488,,1
01/04/2016 00:00:00,52.00,3.00,59.00,21.00,85.00,50.00,73.00,43.00,90.00,52.00,16.00,25.00,93.00,4.00,https://JackHuntSchool.co.uk/GPGData,Firstname489 Lastname489 (Jobtitle 489),17/08/2016 00:00:00,Jack Hunt School,,Address line 489,,City489,Country489,Post Code489,,1
01/04/2016 00:00:00,59.00,99.00,100.00,3.00,72.00,23.00,48.00,75.00,47.00,56.00,73.00,55.00,19.00,92.00,https://JamesPagetUniversityHospitalsNHSFoundationTrust.co.uk/GPGData,Firstname490 Lastname490 (Jobtitle 490),03/08/2016 00:00:00,James Paget University Hospitals NHS Foundation Trust,,Address line 490,,City490,Country490,Post Code490,,1
01/04/2016 00:00:00,55.00,74.00,86.00,60.00,72.00,35.00,29.00,22.00,40.00,4.00,7.00,55.00,77.00,83.00,https://JefferysEducationTrust.co.uk/GPGData,Firstname491 Lastname491 (Jobtitle 491),25/01/2017 00:00:00,Jefferys Education Trust,,Address line 491,,City491,Country491,Post Code491,,1
01/04/2016 00:00:00,96.00,68.00,25.00,41.00,88.00,2.00,38.00,0.00,91.00,56.00,77.00,24.00,6.00,95.00,https://JudicialAppointmentsBoardforScotland.co.uk/GPGData,Firstname323 Lastname323 (Jobtitle 323),05/06/2016 00:00:00,Judicial Appointments Board for Scotland,,Address line 323,,City323,Country323,Post Code323,,1
01/04/2016 00:00:00,9.00,65.00,72.00,67.00,38.00,19.00,26.00,93.00,19.00,77.00,86.00,44.00,47.00,27.00,https://KelvedonHatchParishCouncil.co.uk/GPGData,Firstname492 Lastname492 (Jobtitle 492),05/11/2016 00:00:00,Kelvedon Hatch Parish Council,,Address line 492,,City492,Country492,Post Code492,,1
01/04/2016 00:00:00,32.00,47.00,88.00,49.00,64.00,88.00,38.00,12.00,31.00,83.00,19.00,94.00,2.00,94.00,https://KetteringBoroughCouncil.co.uk/GPGData,Firstname324 Lastname324 (Jobtitle 324),05/05/2016 00:00:00,Kettering Borough Council,,Address line 324,,City324,Country324,Post Code324,,1
01/04/2016 00:00:00,93.00,22.00,65.00,27.00,32.00,62.00,38.00,72.00,47.00,61.00,99.00,62.00,96.00,83.00,https://KimberleyTownCouncil.co.uk/GPGData,Firstname325 Lastname325 (Jobtitle 325),05/05/2016 00:00:00,Kimberley Town Council,,Address line 325,,City325,Country325,Post Code325,,1
01/04/2016 00:00:00,44.00,87.00,49.00,79.00,27.00,40.00,8.00,84.00,69.00,2.00,43.00,26.00,61.00,60.00,https://KimboltonandStonelyParishCouncil.co.uk/GPGData,Firstname326 Lastname326 (Jobtitle 326),15/07/2016 00:00:00,Kimbolton and Stonely Parish Council,,Address line 326,,City326,Country326,Post Code326,,1
01/04/2016 00:00:00,3.00,1.00,71.00,47.00,75.00,22.00,97.00,94.00,64.00,4.00,29.00,33.00,91.00,71.00,https://KingsbridgeTownCouncil.co.uk/GPGData,Firstname327 Lastname327 (Jobtitle 327),25/10/2016 00:00:00,Kingsbridge Town Council,,Address line 327,,City327,Country327,Post Code327,,1
01/04/2016 00:00:00,12.00,13.00,36.00,46.00,80.00,62.00,87.00,35.00,34.00,76.00,28.00,37.00,65.00,77.00,https://KingsburyHighSchool.co.uk/GPGData,Firstname328 Lastname328 (Jobtitle 328),20/10/2016 00:00:00,Kingsbury High School,,Address line 328,,City328,Country328,Post Code328,,1
01/04/2016 00:00:00,100.00,73.00,47.00,90.00,14.00,5.00,93.00,12.00,2.00,44.00,57.00,72.00,5.00,99.00,https://KirkbymoorsideTownCouncil.co.uk/GPGData,Firstname329 Lastname329 (Jobtitle 329),21/04/2016 00:00:00,Kirkbymoorside Town Council,,Address line 329,,City329,Country329,Post Code329,,1
01/04/2016 00:00:00,75.00,10.00,12.00,44.00,88.00,71.00,19.00,87.00,98.00,52.00,27.00,28.00,24.00,31.00,https://KnaresboroughTownCouncil.co.uk/GPGData,Firstname330 Lastname330 (Jobtitle 330),19/06/2016 00:00:00,Knaresborough Town Council,,Address line 330,,City330,Country330,Post Code330,,1
01/04/2016 00:00:00,79.00,12.00,2.00,61.00,42.00,21.00,37.00,91.00,98.00,93.00,28.00,60.00,11.00,60.00,https://KnebworthParishCouncil.co.uk/GPGData,Firstname331 Lastname331 (Jobtitle 331),23/06/2016 00:00:00,Knebworth Parish Council,,Address line 331,,City331,Country331,Post Code331,,1
01/04/2016 00:00:00,47.00,91.00,37.00,23.00,90.00,5.00,89.00,35.00,66.00,28.00,72.00,11.00,52.00,67.00,https://KnowsleyMetropolitanBoroughCouncil.co.uk/GPGData,Firstname332 Lastname332 (Jobtitle 332),23/02/2017 00:00:00,Knowsley Metropolitan Borough Council,,Address line 332,,City332,Country332,Post Code332,,1
01/04/2016 00:00:00,41.00,6.00,7.00,26.00,44.00,40.00,24.00,51.00,48.00,38.00,79.00,35.00,46.00,62.00,https://MonkSherborneParishCouncil.co.uk/GPGData,Firstname102 Lastname102 (Jobtitle 102),27/03/2017 00:00:00,Monk Sherborne Parish Council,,Address line 102,,City102,Country102,Post Code102,,1
01/04/2016 00:00:00,32.00,41.00,36.00,35.00,34.00,83.00,83.00,72.00,86.00,54.00,47.00,19.00,24.00,97.00,https://MontsayeCommunityLearningPartnership.co.uk/GPGData,Firstname103 Lastname103 (Jobtitle 103),29/11/2016 00:00:00,Montsaye Community Learning Partnership,,Address line 103,,City103,Country103,Post Code103,,1
01/04/2016 00:00:00,10.00,85.00,82.00,44.00,6.00,20.00,56.00,91.00,67.00,5.00,5.00,91.00,22.00,100.00,https://MoorfieldsEyeHospitalNHSFoundationTrust.co.uk/GPGData,Firstname104 Lastname104 (Jobtitle 104),02/01/2017 00:00:00,Moorfields Eye Hospital NHS Foundation Trust,,Address line 104,,City104,Country104,Post Code104,,1
01/04/2016 00:00:00,67.00,23.00,38.00,97.00,13.00,3.00,54.00,100.00,20.00,74.00,87.00,14.00,100.00,98.00,https://MorayCouncil.co.uk/GPGData,Firstname105 Lastname105 (Jobtitle 105),02/06/2016 00:00:00,Moray Council,,Address line 105,,City105,Country105,Post Code105,,1
01/04/2016 00:00:00,7.00,34.00,6.00,78.00,70.00,21.00,23.00,44.00,45.00,91.00,76.00,9.00,93.00,58.00,https://MorecambeTownCouncil.co.uk/GPGData,Firstname106 Lastname106 (Jobtitle 106),28/08/2016 00:00:00,Morecambe Town Council,,Address line 106,,City106,Country106,Post Code106,,1
01/04/2016 00:00:00,50.00,41.00,79.00,9.00,99.00,3.00,40.00,86.00,51.00,15.00,53.00,100.00,94.00,83.00,https://MorvilleParishCouncil.co.uk/GPGData,Firstname107 Lastname107 (Jobtitle 107),25/02/2017 00:00:00,Morville Parish Council,,Address line 107,,City107,Country107,Post Code107,,1
01/04/2016 00:00:00,10.00,76.00,81.00,68.00,20.00,91.00,31.00,8.00,75.00,91.00,99.00,16.00,15.00,56.00,https://MoultonParishCouncil.co.uk/GPGData,Firstname108 Lastname108 (Jobtitle 108),01/09/2016 00:00:00,Moulton Parish Council,,Address line 108,,City108,Country108,Post Code108,,1
01/04/2016 00:00:00,28.00,29.00,68.00,33.00,18.00,62.00,16.00,30.00,17.00,52.00,46.00,16.00,98.00,29.00,https://MudfordParishCouncil.co.uk/GPGData,Firstname109 Lastname109 (Jobtitle 109),26/01/2017 00:00:00,Mudford Parish Council,,Address line 109,,City109,Country109,Post Code109,,1
01/04/2016 00:00:00,12.00,30.00,95.00,74.00,16.00,16.00,67.00,53.00,97.00,22.00,38.00,64.00,47.00,21.00,https://MyddleandBroughtonParishCouncil.co.uk/GPGData,Firstname110 Lastname110 (Jobtitle 110),08/09/2016 00:00:00,Myddle and Broughton Parish Council,,Address line 110,,City110,Country110,Post Code110,,1
01/04/2016 00:00:00,58.00,99.00,31.00,33.00,5.00,73.00,14.00,21.00,89.00,51.00,6.00,41.00,63.00,30.00,https://NailseaTownCouncil.co.uk/GPGData,Firstname111 Lastname111 (Jobtitle 111),12/09/2016 00:00:00,Nailsea Town Council,,Address line 111,,City111,Country111,Post Code111,,1
01/04/2016 00:00:00,71.00,90.00,85.00,30.00,35.00,28.00,33.00,34.00,44.00,14.00,50.00,47.00,84.00,90.00,https://NarboroughParishCouncil.co.uk/GPGData,Firstname439 Lastname439 (Jobtitle 439),11/09/2016 00:00:00,Narborough Parish Council,,Address line 439,,City439,Country439,Post Code439,,1
01/04/2016 00:00:00,3.00,75.00,67.00,99.00,36.00,81.00,16.00,56.00,77.00,60.00,68.00,55.00,66.00,35.00,https://NationalInstituteforHealthandCareExcellence.co.uk/GPGData,Firstname353 Lastname353 (Jobtitle 353),13/02/2017 00:00:00,National Institute for Health and Care Excellence,,Address line 353,,City353,Country353,Post Code353,,1
01/04/2016 00:00:00,25.00,70.00,66.00,77.00,14.00,86.00,85.00,38.00,75.00,61.00,32.00,7.00,51.00,13.00,https://NationalOffenderManagementService.co.uk/GPGData,Firstname354 Lastname354 (Jobtitle 354),07/12/2016 00:00:00,National Offender Management Service,,Address line 354,,City354,Country354,Post Code354,,1
01/04/2016 00:00:00,22.00,100.00,11.00,100.00,18.00,1.00,65.00,44.00,53.00,82.00,76.00,54.00,28.00,31.00,https://NationalParkingAdjudicationService.co.uk/GPGData,Firstname355 Lastname355 (Jobtitle 355),18/07/2016 00:00:00,National Parking Adjudication Service,,Address line 355,,City355,Country355,Post Code355,,1
01/04/2016 00:00:00,60.00,92.00,61.00,36.00,20.00,68.00,68.00,51.00,45.00,47.00,48.00,77.00,3.00,0.00,https://NationalRecordsofScotland.co.uk/GPGData,Firstname356 Lastname356 (Jobtitle 356),02/11/2016 00:00:00,National Records of Scotland,,Address line 356,,City356,Country356,Post Code356,,1
01/04/2016 00:00:00,89.00,19.00,18.00,86.00,34.00,71.00,82.00,48.00,43.00,89.00,19.00,63.00,0.00,4.00,https://NationalWeightsandMeasuresLaboratory.co.uk/GPGData,Firstname357 Lastname357 (Jobtitle 357),17/11/2016 00:00:00,National Weights and Measures Laboratory,,Address line 357,,City357,Country357,Post Code357,,1
01/04/2016 00:00:00,87.00,60.00,17.00,34.00,44.00,77.00,6.00,24.00,27.00,35.00,71.00,89.00,39.00,21.00,https://NaturalEngland.co.uk/GPGData,Firstname358 Lastname358 (Jobtitle 358),20/10/2016 00:00:00,Natural England,,Address line 358,,City358,Country358,Post Code358,,1
01/04/2016 00:00:00,81.00,55.00,92.00,2.00,50.00,5.00,46.00,28.00,70.00,3.00,60.00,74.00,73.00,45.00,https://NavigateAcadmiesTrust.co.uk/GPGData,Firstname359 Lastname359 (Jobtitle 359),10/05/2016 00:00:00,Navigate Acadmies Trust,,Address line 359,,City359,Country359,Post Code359,,1
01/04/2016 00:00:00,80.00,85.00,44.00,100.00,87.00,74.00,16.00,84.00,62.00,45.00,27.00,22.00,57.00,75.00,https://Navigo.co.uk/GPGData,Firstname360 Lastname360 (Jobtitle 360),19/01/2017 00:00:00,Navigo,,Address line 360,,City360,Country360,Post Code360,,1
01/04/2016 00:00:00,17.00,80.00,29.00,49.00,61.00,3.00,86.00,31.00,49.00,76.00,13.00,38.00,63.00,83.00,https://NeathPortTalbotCountyBoroughCouncil.co.uk/GPGData,Firstname361 Lastname361 (Jobtitle 361),22/06/2016 00:00:00,Neath Port Talbot County Borough Council,,Address line 361,,City361,Country361,Post Code361,,1
01/04/2016 00:00:00,62.00,21.00,97.00,56.00,39.00,6.00,49.00,73.00,4.00,75.00,51.00,37.00,16.00,40.00,https://NeathTownCouncil.co.uk/GPGData,Firstname362 Lastname362 (Jobtitle 362),21/06/2016 00:00:00,Neath Town Council,,Address line 362,,City362,Country362,Post Code362,,1
01/04/2016 00:00:00,39.00,73.00,39.00,74.00,84.00,49.00,4.00,87.00,61.00,1.00,49.00,12.00,12.00,87.00,https://NewBradwellParishCouncil.co.uk/GPGData,Firstname440 Lastname440 (Jobtitle 440),21/09/2016 00:00:00,New Bradwell Parish Council,,Address line 440,,City440,Country440,Post Code440,,1
01/04/2016 00:00:00,2.00,16.00,4.00,4.00,95.00,61.00,18.00,37.00,44.00,53.00,28.00,18.00,12.00,38.00,https://NewbigginTownCouncil.co.uk/GPGData,Firstname441 Lastname441 (Jobtitle 441),11/08/2016 00:00:00,Newbiggin Town Council,,Address line 441,,City441,Country441,Post Code441,,1
01/04/2016 00:00:00,84.00,82.00,86.00,8.00,27.00,99.00,19.00,36.00,55.00,87.00,16.00,52.00,64.00,97.00,https://NewburyTownCouncil.co.uk/GPGData,Firstname442 Lastname442 (Jobtitle 442),20/04/2016 00:00:00,Newbury Town Council,,Address line 442,,City442,Country442,Post Code442,,1
01/04/2016 00:00:00,1.00,30.00,40.00,21.00,88.00,19.00,1.00,33.00,19.00,21.00,5.00,98.00,32.00,20.00,https://NewcastleunderLymeBoroughCouncil.co.uk/GPGData,Firstname443 Lastname443 (Jobtitle 443),16/05/2016 00:00:00,Newcastle under Lyme Borough Council,,Address line 443,,City443,Country443,Post Code443,,1
01/04/2016 00:00:00,42.00,50.00,83.00,49.00,9.00,2.00,66.00,53.00,20.00,63.00,7.00,1.00,90.00,24.00,https://NewfrankleyinBirminghamParishCouncil.co.uk/GPGData,Firstname444 Lastname444 (Jobtitle 444),11/07/2016 00:00:00,Newfrankley in Birmingham Parish Council,,Address line 444,,City444,Country444,Post Code444,,1
01/04/2016 00:00:00,70.00,39.00,40.00,2.00,27.00,98.00,21.00,5.00,80.00,45.00,75.00,28.00,99.00,5.00,https://NewtonabbotTownCouncil.co.uk/GPGData,Firstname445 Lastname445 (Jobtitle 445),08/07/2016 00:00:00,Newtonabbot Town Council,,Address line 445,,City445,Country445,Post Code445,,1
01/04/2016 00:00:00,43.00,76.00,14.00,68.00,29.00,88.00,34.00,55.00,0.00,65.00,5.00,70.00,8.00,36.00,https://NewtownabbeyBoroughCouncil.co.uk/GPGData,Firstname72 Lastname72 (Jobtitle 72),03/10/2016 00:00:00,Newtownabbey Borough Council,,Address line 72,,City72,Country72,Post Code72,,1
01/04/2016 00:00:00,19.00,90.00,66.00,82.00,32.00,27.00,97.00,93.00,70.00,20.00,51.00,93.00,74.00,7.00,https://NHSBloodandTransplant.co.uk/GPGData,Firstname73 Lastname73 (Jobtitle 73),05/02/2017 00:00:00,NHS Blood and Transplant,,Address line 73,,City73,Country73,Post Code73,,1
01/04/2016 00:00:00,15.00,69.00,99.00,71.00,61.00,97.00,69.00,95.00,31.00,65.00,84.00,17.00,37.00,69.00,https://NHSBrentCCG.co.uk/GPGData,Firstname74 Lastname74 (Jobtitle 74),25/06/2016 00:00:00,NHS Brent CCG,,Address line 74,,City74,Country74,Post Code74,,1
01/04/2016 00:00:00,41.00,92.00,21.00,78.00,33.00,70.00,92.00,1.00,78.00,92.00,50.00,39.00,59.00,53.00,https://NHSBusinessServicesAuthority.co.uk/GPGData,Firstname75 Lastname75 (Jobtitle 75),24/03/2017 00:00:00,NHS Business Services Authority,,Address line 75,,City75,Country75,Post Code75,,1
01/04/2016 00:00:00,36.00,38.00,93.00,50.00,44.00,40.00,46.00,8.00,1.00,85.00,17.00,41.00,37.00,72.00,https://NHSBusinessServicesAuthorityLtd.co.uk/GPGData,Firstname76 Lastname76 (Jobtitle 76),28/12/2016 00:00:00,NHS Business Services Authority Ltd,,Address line 76,,City76,Country76,Post Code76,,1
01/04/2016 00:00:00,74.00,46.00,85.00,33.00,47.00,72.00,68.00,84.00,98.00,36.00,27.00,59.00,54.00,93.00,https://NHSCambridgeshireandPeterboroughCCG.co.uk/GPGData,Firstname77 Lastname77 (Jobtitle 77),13/10/2016 00:00:00,NHS Cambridgeshire and Peterborough CCG,,Address line 77,,City77,Country77,Post Code77,,1
01/04/2016 00:00:00,3.00,56.00,40.00,93.00,16.00,61.00,78.00,97.00,97.00,42.00,68.00,35.00,75.00,86.00,https://NHSYorkshireandHumberCommissioningSupportUnit.co.uk/GPGData,Firstname78 Lastname78 (Jobtitle 78),05/08/2016 00:00:00,NHS Yorkshire and Humber Commissioning Support Unit,,Address line 78,,City78,Country78,Post Code78,,1
01/04/2016 00:00:00,43.00,46.00,19.00,67.00,18.00,47.00,94.00,35.00,91.00,35.00,10.00,61.00,4.00,86.00,https://NorfolkConstabulary.co.uk/GPGData,Firstname79 Lastname79 (Jobtitle 79),05/05/2016 00:00:00,Norfolk Constabulary,,Address line 79,,City79,Country79,Post Code79,,1
01/04/2016 00:00:00,29.00,21.00,7.00,71.00,9.00,66.00,86.00,26.00,37.00,46.00,91.00,80.00,49.00,8.00,https://NorthBristolNHSTrust.co.uk/GPGData,Firstname80 Lastname80 (Jobtitle 80),10/06/2016 00:00:00,North Bristol NHS Trust,,Address line 80,,City80,Country80,Post Code80,,1
01/04/2016 00:00:00,66.00,79.00,37.00,95.00,82.00,82.00,75.00,40.00,88.00,68.00,39.00,67.00,31.00,84.00,https://NorthCumbriaUniversityHospitalsNHSTrust.co.uk/GPGData,Firstname81 Lastname81 (Jobtitle 81),31/05/2016 00:00:00,North Cumbria University Hospitals NHS Trust,,Address line 81,,City81,Country81,Post Code81,,1
01/04/2016 00:00:00,71.00,46.00,27.00,47.00,37.00,72.00,53.00,77.00,70.00,41.00,80.00,52.00,32.00,68.00,https://PrivateRentedHousingPanel.co.uk/GPGData,Firstname194 Lastname194 (Jobtitle 194),23/06/2016 00:00:00,Private Rented Housing Panel,,Address line 194,,City194,Country194,Post Code194,,1
01/04/2016 00:00:00,38.00,43.00,90.00,81.00,81.00,63.00,59.00,35.00,67.00,1.00,95.00,93.00,55.00,24.00,https://ProbationTrusts.co.uk/GPGData,Firstname195 Lastname195 (Jobtitle 195),10/12/2016 00:00:00,Probation Trusts,,Address line 195,,City195,Country195,Post Code195,,1
01/04/2016 00:00:00,0.00,11.00,56.00,18.00,7.00,5.00,19.00,88.00,7.00,36.00,64.00,76.00,68.00,79.00,https://ProbusParishCouncil.co.uk/GPGData,Firstname196 Lastname196 (Jobtitle 196),28/06/2016 00:00:00,Probus Parish Council,,Address line 196,,City196,Country196,Post Code196,,1
01/04/2016 00:00:00,98.00,21.00,95.00,67.00,89.00,89.00,56.00,10.00,85.00,47.00,97.00,68.00,43.00,40.00,https://ProspectsAcademiesTrust.co.uk/GPGData,Firstname197 Lastname197 (Jobtitle 197),17/10/2016 00:00:00,Prospects Academies Trust,,Address line 197,,City197,Country197,Post Code197,,1
01/04/2016 00:00:00,24.00,52.00,65.00,80.00,57.00,8.00,4.00,94.00,26.00,71.00,4.00,77.00,40.00,27.00,https://PublicHealthEngland.co.uk/GPGData,Firstname198 Lastname198 (Jobtitle 198),06/08/2016 00:00:00,Public Health England,,Address line 198,,City198,Country198,Post Code198,,1
01/04/2016 00:00:00,45.00,16.00,44.00,95.00,88.00,50.00,4.00,7.00,4.00,16.00,31.00,27.00,18.00,68.00,https://PublowwithPensfordParishCouncil.co.uk/GPGData,Firstname199 Lastname199 (Jobtitle 199),19/11/2016 00:00:00,Publow with Pensford Parish Council,,Address line 199,,City199,Country199,Post Code199,,1
01/04/2016 00:00:00,54.00,5.00,87.00,5.00,69.00,56.00,53.00,76.00,43.00,79.00,38.00,69.00,23.00,32.00,https://PulboroughParishCouncil.co.uk/GPGData,Firstname200 Lastname200 (Jobtitle 200),22/11/2016 00:00:00,Pulborough Parish Council,,Address line 200,,City200,Country200,Post Code200,,1
01/04/2016 00:00:00,79.00,52.00,27.00,12.00,100.00,97.00,14.00,78.00,52.00,87.00,59.00,93.00,61.00,43.00,https://PuritonParishCouncil.co.uk/GPGData,Firstname201 Lastname201 (Jobtitle 201),30/04/2016 00:00:00,Puriton Parish Council,,Address line 201,,City201,Country201,Post Code201,,1
01/04/2016 00:00:00,64.00,14.00,79.00,4.00,25.00,28.00,19.00,8.00,67.00,66.00,79.00,65.00,23.00,98.00,https://PurleyonThamesParishCouncil.co.uk/GPGData,Firstname202 Lastname202 (Jobtitle 202),08/03/2017 00:00:00,Purley on Thames Parish Council,,Address line 202,,City202,Country202,Post Code202,,1
01/04/2016 00:00:00,76.00,23.00,70.00,8.00,51.00,31.00,82.00,90.00,65.00,88.00,2.00,24.00,58.00,39.00,https://PurtonParishCouncil.co.uk/GPGData,Firstname203 Lastname203 (Jobtitle 203),10/03/2017 00:00:00,Purton Parish Council,,Address line 203,,City203,Country203,Post Code203,,1
01/04/2016 00:00:00,74.00,91.00,18.00,78.00,79.00,11.00,94.00,3.00,82.00,83.00,53.00,96.00,86.00,30.00,https://RandwickandWestripParishCouncil.co.uk/GPGData,Firstname282 Lastname282 (Jobtitle 282),03/11/2016 00:00:00,Randwick and Westrip Parish Council,,Address line 282,,City282,Country282,Post Code282,,1
01/04/2016 00:00:00,66.00,94.00,61.00,81.00,24.00,27.00,95.00,3.00,29.00,28.00,14.00,38.00,86.00,94.00,https://RaundsTownCouncil.co.uk/GPGData,Firstname283 Lastname283 (Jobtitle 283),19/12/2016 00:00:00,Raunds Town Council,,Address line 283,,City283,Country283,Post Code283,,1
01/04/2016 00:00:00,81.00,12.00,31.00,36.00,38.00,66.00,19.00,69.00,29.00,32.00,81.00,70.00,70.00,84.00,https://RavenfieldParishCouncil.co.uk/GPGData,Firstname284 Lastname284 (Jobtitle 284),07/01/2017 00:00:00,Ravenfield Parish Council,,Address line 284,,City284,Country284,Post Code284,,1
01/04/2016 00:00:00,90.00,22.00,22.00,45.00,28.00,61.00,85.00,87.00,39.00,100.00,60.00,37.00,27.00,33.00,https://RavensWoodLearningTrust.co.uk/GPGData,Firstname285 Lastname285 (Jobtitle 285),10/01/2017 00:00:00,Ravens Wood Learning Trust,,Address line 285,,City285,Country285,Post Code285,,1
01/04/2016 00:00:00,27.00,5.00,22.00,75.00,59.00,74.00,93.00,68.00,45.00,75.00,99.00,96.00,35.00,1.00,https://RawcliffeParishCouncil.co.uk/GPGData,Firstname286 Lastname286 (Jobtitle 286),12/10/2016 00:00:00,Rawcliffe Parish Council,,Address line 286,,City286,Country286,Post Code286,,1
01/04/2016 00:00:00,48.00,67.00,70.00,81.00,92.00,76.00,28.00,4.00,46.00,17.00,36.00,93.00,8.00,34.00,https://RawdonParishCouncil.co.uk/GPGData,Firstname287 Lastname287 (Jobtitle 287),20/12/2016 00:00:00,Rawdon Parish Council,,Address line 287,,City287,Country287,Post Code287,,1
01/04/2016 00:00:00,27.00,36.00,21.00,68.00,0.00,74.00,5.00,58.00,85.00,100.00,69.00,84.00,50.00,4.00,https://RayleighTownCouncil.co.uk/GPGData,Firstname288 Lastname288 (Jobtitle 288),08/05/2016 00:00:00,Rayleigh Town Council,,Address line 288,,City288,Country288,Post Code288,,1
01/04/2016 00:00:00,86.00,18.00,36.00,57.00,4.00,65.00,56.00,25.00,30.00,7.00,90.00,97.00,38.00,6.00,https://RayneParishCouncil.co.uk/GPGData,Firstname289 Lastname289 (Jobtitle 289),27/03/2017 00:00:00,Rayne Parish Council,,Address line 289,,City289,Country289,Post Code289,,1
01/04/2016 00:00:00,88.00,36.00,75.00,3.00,68.00,43.00,38.00,8.00,66.00,66.00,68.00,54.00,88.00,12.00,https://ReadingBoroughCouncil.co.uk/GPGData,Firstname290 Lastname290 (Jobtitle 290),21/12/2016 00:00:00,Reading Borough Council,,Address line 290,,City290,Country290,Post Code290,,1
01/04/2016 00:00:00,33.00,18.00,78.00,39.00,74.00,2.00,98.00,35.00,24.00,55.00,96.00,62.00,97.00,76.00,https://RedbournParishCouncil.co.uk/GPGData,Firstname291 Lastname291 (Jobtitle 291),05/09/2016 00:00:00,Redbourn Parish Council,,Address line 291,,City291,Country291,Post Code291,,1
01/04/2016 00:00:00,60.00,56.00,71.00,100.00,81.00,49.00,20.00,59.00,73.00,10.00,10.00,2.00,13.00,8.00,https://RestormelBoroughCouncil.co.uk/GPGData,Firstname419 Lastname419 (Jobtitle 419),21/11/2016 00:00:00,Restormel Borough Council,,Address line 419,,City419,Country419,Post Code419,,1
01/04/2016 00:00:00,26.00,17.00,76.00,9.00,42.00,96.00,44.00,25.00,34.00,47.00,61.00,7.00,8.00,17.00,https://RhonddaCynonTafCountyBoroughCouncil.co.uk/GPGData,Firstname420 Lastname420 (Jobtitle 420),14/05/2016 00:00:00,Rhondda Cynon Taf County Borough Council,,Address line 420,,City420,Country420,Post Code420,,1
01/04/2016 00:00:00,85.00,53.00,29.00,9.00,5.00,52.00,27.00,68.00,26.00,25.00,95.00,3.00,92.00,28.00,https://RibblevalleyBoroughCouncil.co.uk/GPGData,Firstname421 Lastname421 (Jobtitle 421),10/02/2017 00:00:00,Ribblevalley Borough Council,,Address line 421,,City421,Country421,Post Code421,,1
01/04/2016 00:00:00,60.00,27.00,3.00,50.00,76.00,41.00,6.00,47.00,69.00,45.00,12.00,38.00,4.00,38.00,https://RiverWiskeInternalDrainageBoard.co.uk/GPGData,Firstname422 Lastname422 (Jobtitle 422),24/05/2016 00:00:00,River Wiske Internal Drainage Board,,Address line 422,,City422,Country422,Post Code422,,1
01/04/2016 00:00:00,15.00,95.00,95.00,18.00,52.00,75.00,55.00,29.00,49.00,71.00,85.00,66.00,30.00,94.00,https://RobertJonesandAgnesHuntOrthopaedicHospitalNHSFoundationTrust.co.uk/GPGData,Firstname423 Lastname423 (Jobtitle 423),05/06/2016 00:00:00,Robert Jones and Agnes Hunt Orthopaedic Hospital NHS Foundation Trust,,Address line 423,,City423,Country423,Post Code423,,1
01/04/2016 00:00:00,4.00,39.00,77.00,26.00,44.00,54.00,71.00,17.00,43.00,79.00,0.00,59.00,73.00,5.00,https://RochdaleMetropolitanBoroughCouncil.co.uk/GPGData,Firstname424 Lastname424 (Jobtitle 424),07/02/2017 00:00:00,Rochdale Metropolitan Borough Council,,Address line 424,,City424,Country424,Post Code424,,1
01/04/2016 00:00:00,70.00,47.00,29.00,53.00,86.00,0.00,84.00,21.00,90.00,31.00,11.00,48.00,39.00,70.00,https://RodboroughParishCouncil.co.uk/GPGData,Firstname425 Lastname425 (Jobtitle 425),15/04/2016 00:00:00,Rodborough Parish Council,,Address line 425,,City425,Country425,Post Code425,,1
01/04/2016 00:00:00,60.00,96.00,52.00,69.00,27.00,42.00,49.00,16.00,70.00,54.00,4.00,62.00,17.00,26.00,https://RomanbyParishCouncil.co.uk/GPGData,Firstname426 Lastname426 (Jobtitle 426),28/07/2016 00:00:00,Romanby Parish Council,,Address line 426,,City426,Country426,Post Code426,,1
01/04/2016 00:00:00,21.00,28.00,8.00,96.00,67.00,35.00,4.00,2.00,57.00,80.00,0.00,58.00,2.00,33.00,https://RossendaleBoroughCouncil.co.uk/GPGData,Firstname427 Lastname427 (Jobtitle 427),18/12/2016 00:00:00,Rossendale Borough Council,,Address line 427,,City427,Country427,Post Code427,,1
01/04/2016 00:00:00,44.00,75.00,89.00,18.00,38.00,40.00,45.00,77.00,82.00,73.00,47.00,34.00,1.00,47.00,https://RotherhamBoroughCouncil.co.uk/GPGData,Firstname428 Lastname428 (Jobtitle 428),28/06/2016 00:00:00,Rotherham Borough Council,,Address line 428,,City428,Country428,Post Code428,,1
01/04/2016 00:00:00,33.00,50.00,88.00,45.00,19.00,72.00,35.00,67.00,34.00,33.00,21.00,29.00,23.00,8.00,https://RoundwayParishCouncil.co.uk/GPGData,Firstname446 Lastname446 (Jobtitle 446),15/05/2016 00:00:00,Roundway Parish Council,,Address line 446,,City446,Country446,Post Code446,,1
01/04/2016 00:00:00,100.00,87.00,3.00,73.00,22.00,6.00,89.00,39.00,7.00,12.00,20.00,95.00,97.00,57.00,https://RoyalAirForce.co.uk/GPGData,Firstname447 Lastname447 (Jobtitle 447),31/05/2016 00:00:00,Royal Air Force,,Address line 447,,City447,Country447,Post Code447,,1
01/04/2016 00:00:00,79.00,52.00,13.00,62.00,74.00,58.00,52.00,27.00,81.00,63.00,34.00,99.00,22.00,76.00,https://RoyalBerkshireNHSFoundationTrust.co.uk/GPGData,Firstname448 Lastname448 (Jobtitle 448),28/04/2016 00:00:00,Royal Berkshire NHS Foundation Trust,,Address line 448,,City448,Country448,Post Code448,,1
01/04/2016 00:00:00,83.00,20.00,12.00,76.00,47.00,72.00,26.00,99.00,68.00,74.00,53.00,81.00,94.00,27.00,https://RoyalBoroughofWindsorandMaidenhead.co.uk/GPGData,Firstname449 Lastname449 (Jobtitle 449),10/10/2016 00:00:00,Royal Borough of Windsor and Maidenhead,,Address line 449,,City449,Country449,Post Code449,,1
01/04/2016 00:00:00,100.00,24.00,8.00,87.00,100.00,57.00,71.00,9.00,83.00,96.00,64.00,17.00,87.00,20.00,https://RoyalBournemouthandChristchurchHospitalsNHSFoundationTrust.co.uk/GPGData,Firstname450 Lastname450 (Jobtitle 450),07/03/2017 00:00:00,Royal Bournemouth and Christchurch Hospitals NHS Foundation Trust,,Address line 450,,City450,Country450,Post Code450,,1
01/04/2016 00:00:00,67.00,63.00,2.00,49.00,31.00,62.00,58.00,77.00,20.00,46.00,57.00,9.00,73.00,69.00,https://RoyalBromptonandHarefieldNHSFoundationTrust.co.uk/GPGData,Firstname451 Lastname451 (Jobtitle 451),14/02/2017 00:00:00,Royal Brompton and Harefield NHS Foundation Trust,,Address line 451,,City451,Country451,Post Code451,,1
01/04/2016 00:00:00,74.00,79.00,37.00,26.00,55.00,40.00,19.00,58.00,34.00,45.00,84.00,96.00,86.00,70.00,https://RoyalCommissionontheAncientandHistoricalMonumentsofScotland.co.uk/GPGData,Firstname452 Lastname452 (Jobtitle 452),04/06/2016 00:00:00,Royal Commission on the Ancient and Historical Monuments of Scotland,,Address line 452,,City452,Country452,Post Code452,,1
01/04/2016 00:00:00,34.00,11.00,31.00,48.00,21.00,39.00,69.00,80.00,35.00,88.00,70.00,50.00,33.00,24.00,https://RoyalCommissionontheAncientandHistoricalMonumentsofWales.co.uk/GPGData,Firstname453 Lastname453 (Jobtitle 453),08/05/2016 00:00:00,Royal Commission on the Ancient and Historical Monuments of Wales,,Address line 453,,City453,Country453,Post Code453,,1
01/04/2016 00:00:00,22.00,33.00,92.00,12.00,85.00,10.00,32.00,36.00,6.00,32.00,56.00,94.00,98.00,88.00,https://RoyalCornwallHospitalsNHSTrust.co.uk/GPGData,Firstname454 Lastname454 (Jobtitle 454),16/06/2016 00:00:00,Royal Cornwall Hospitals NHS Trust,,Address line 454,,City454,Country454,Post Code454,,1
01/04/2016 00:00:00,15.00,4.00,40.00,92.00,38.00,87.00,29.00,0.00,20.00,91.00,87.00,13.00,69.00,22.00,https://RoyalDevonandExeterNHSFoundationTrust.co.uk/GPGData,Firstname455 Lastname455 (Jobtitle 455),08/03/2017 00:00:00,Royal Devon and Exeter NHS Foundation Trust,,Address line 455,,City455,Country455,Post Code455,,1
01/04/2016 00:00:00,63.00,15.00,16.00,76.00,70.00,68.00,81.00,98.00,69.00,53.00,47.00,66.00,98.00,44.00,https://RushcliffeBoroughCouncil.co.uk/GPGData,Firstname22 Lastname22 (Jobtitle 22),21/02/2017 00:00:00,Rushcliffe Borough Council,,Address line 22,,City22,Country22,Post Code22,,1
01/04/2016 00:00:00,86.00,7.00,22.00,61.00,86.00,89.00,40.00,18.00,52.00,31.00,8.00,67.00,65.00,51.00,https://RushmoorBoroughCouncil.co.uk/GPGData,Firstname23 Lastname23 (Jobtitle 23),23/03/2017 00:00:00,Rushmoor Borough Council,,Address line 23,,City23,Country23,Post Code23,,1
01/04/2016 00:00:00,64.00,25.00,23.00,73.00,100.00,100.00,55.00,86.00,21.00,66.00,9.00,23.00,24.00,91.00,https://SalcombeTownCouncil.co.uk/GPGData,Firstname24 Lastname24 (Jobtitle 24),17/06/2016 00:00:00,Salcombe Town Council,,Address line 24,,City24,Country24,Post Code24,,1
01/04/2016 00:00:00,94.00,87.00,88.00,85.00,75.00,53.00,16.00,0.00,49.00,65.00,37.00,28.00,38.00,32.00,https://SalisburyCityCouncil.co.uk/GPGData,Firstname25 Lastname25 (Jobtitle 25),07/02/2017 00:00:00,Salisbury City Council,,Address line 25,,City25,Country25,Post Code25,,1
01/04/2016 00:00:00,38.00,77.00,33.00,64.00,59.00,84.00,87.00,15.00,49.00,32.00,75.00,67.00,92.00,98.00,https://SalisburyNHSFoundationTrust.co.uk/GPGData,Firstname26 Lastname26 (Jobtitle 26),31/03/2017 00:00:00,Salisbury NHS Foundation Trust,,Address line 26,,City26,Country26,Post Code26,,1
01/04/2016 00:00:00,24.00,39.00,92.00,47.00,49.00,62.00,50.00,32.00,28.00,82.00,50.00,24.00,27.00,33.00,https://SandbachTownCouncil.co.uk/GPGData,Firstname27 Lastname27 (Jobtitle 27),01/09/2016 00:00:00,Sandbach Town Council,,Address line 27,,City27,Country27,Post Code27,,1
01/04/2016 00:00:00,13.00,77.00,77.00,85.00,0.00,10.00,49.00,62.00,50.00,69.00,84.00,15.00,11.00,91.00,https://SandwellandWestBirminghamHospitalsNHSTrust.co.uk/GPGData,Firstname28 Lastname28 (Jobtitle 28),15/07/2016 00:00:00,Sandwell and West Birmingham Hospitals NHS Trust,,Address line 28,,City28,Country28,Post Code28,,1
01/04/2016 00:00:00,38.00,19.00,33.00,4.00,7.00,30.00,8.00,54.00,68.00,46.00,74.00,88.00,79.00,29.00,https://SandwellMetropolitanBoroughCouncil.co.uk/GPGData,Firstname29 Lastname29 (Jobtitle 29),04/08/2016 00:00:00,Sandwell Metropolitan Borough Council,,Address line 29,,City29,Country29,Post Code29,,1
01/04/2016 00:00:00,67.00,65.00,14.00,17.00,48.00,99.00,59.00,50.00,100.00,42.00,87.00,95.00,57.00,48.00,https://SawbridgeworthTownCouncil.co.uk/GPGData,Firstname30 Lastname30 (Jobtitle 30),17/12/2016 00:00:00,Sawbridgeworth Town Council,,Address line 30,,City30,Country30,Post Code30,,1
01/04/2016 00:00:00,12.00,42.00,67.00,37.00,24.00,90.00,66.00,78.00,13.00,84.00,88.00,2.00,81.00,59.00,https://SaxbyAllSaintsParishCouncil.co.uk/GPGData,Firstname31 Lastname31 (Jobtitle 31),19/06/2016 00:00:00,Saxby All Saints Parish Council,,Address line 31,,City31,Country31,Post Code31,,1
01/04/2016 00:00:00,30.00,6.00,59.00,42.00,12.00,9.00,3.00,12.00,100.00,9.00,28.00,99.00,16.00,78.00,https://SouthFerribyParishCouncil.co.uk/GPGData,Firstname389 Lastname389 (Jobtitle 389),20/07/2016 00:00:00,South Ferriby Parish Council,,Address line 389,,City389,Country389,Post Code389,,1
01/04/2016 00:00:00,67.00,10.00,48.00,0.00,63.00,13.00,27.00,44.00,26.00,18.00,52.00,71.00,36.00,23.00,https://SouthHamsDistrictCouncil.co.uk/GPGData,Firstname390 Lastname390 (Jobtitle 390),10/04/2016 00:00:00,South Hams District Council,,Address line 390,,City390,Country390,Post Code390,,1
01/04/2016 00:00:00,2.00,47.00,81.00,78.00,62.00,69.00,45.00,11.00,87.00,91.00,41.00,21.00,53.00,48.00,https://SouthHillParishCouncil.co.uk/GPGData,Firstname391 Lastname391 (Jobtitle 391),04/10/2016 00:00:00,South Hill Parish Council,,Address line 391,,City391,Country391,Post Code391,,1
01/04/2016 00:00:00,86.00,97.00,78.00,92.00,28.00,4.00,83.00,55.00,31.00,20.00,64.00,76.00,90.00,90.00,https://SouthHollandDistrictCouncil.co.uk/GPGData,Firstname392 Lastname392 (Jobtitle 392),10/09/2016 00:00:00,South Holland District Council,,Address line 392,,City392,Country392,Post Code392,,1
01/04/2016 00:00:00,75.00,50.00,48.00,87.00,79.00,31.00,63.00,90.00,40.00,48.00,29.00,24.00,61.00,98.00,https://SouthHunsleySchoolandSixthFormCollege.co.uk/GPGData,Firstname393 Lastname393 (Jobtitle 393),09/11/2016 00:00:00,South Hunsley School and Sixth Form College,,Address line 393,,City393,Country393,Post Code393,,1
01/04/2016 00:00:00,1.00,10.00,18.00,29.00,3.00,100.00,47.00,96.00,28.00,33.00,84.00,78.00,45.00,92.00,https://SouthKirkbyandMoorthorpeTownCouncil.co.uk/GPGData,Firstname394 Lastname394 (Jobtitle 394),07/07/2016 00:00:00,South Kirkby and Moorthorpe Town Council,,Address line 394,,City394,Country394,Post Code394,,1
01/04/2016 00:00:00,54.00,19.00,4.00,32.00,1.00,83.00,81.00,17.00,19.00,46.00,29.00,68.00,52.00,53.00,https://SouthLakelandDistrictCouncil.co.uk/GPGData,Firstname395 Lastname395 (Jobtitle 395),28/05/2016 00:00:00,South Lakeland District Council,,Address line 395,,City395,Country395,Post Code395,,1
01/04/2016 00:00:00,29.00,44.00,40.00,46.00,51.00,65.00,8.00,55.00,97.00,94.00,14.00,2.00,58.00,19.00,https://SouthLanarkshireCouncil.co.uk/GPGData,Firstname396 Lastname396 (Jobtitle 396),20/09/2016 00:00:00,South Lanarkshire Council,,Address line 396,,City396,Country396,Post Code396,,1
01/04/2016 00:00:00,7.00,86.00,42.00,21.00,95.00,90.00,10.00,65.00,93.00,23.00,2.00,29.00,5.00,63.00,https://SouthLondonandMaudsleyNHSFoundationTrust.co.uk/GPGData,Firstname397 Lastname397 (Jobtitle 397),03/07/2016 00:00:00,South London and Maudsley NHS Foundation Trust,,Address line 397,,City397,Country397,Post Code397,,1
01/04/2016 00:00:00,50.00,10.00,70.00,12.00,29.00,68.00,91.00,55.00,71.00,51.00,47.00,15.00,100.00,56.00,https://SouthNorthamptonshireCouncil.co.uk/GPGData,Firstname398 Lastname398 (Jobtitle 398),10/12/2016 00:00:00,South Northamptonshire Council,,Address line 398,,City398,Country398,Post Code398,,1
01/04/2016 00:00:00,87.00,27.00,41.00,43.00,10.00,5.00,85.00,95.00,95.00,73.00,61.00,66.00,50.00,6.00,https://SouthWestRegionalBoard.co.uk/GPGData,Firstname234 Lastname234 (Jobtitle 234),10/12/2016 00:00:00,South West Regional Board,,Address line 234,,City234,Country234,Post Code234,,1
01/04/2016 00:00:00,53.00,31.00,72.00,34.00,69.00,12.00,72.00,85.00,27.00,49.00,100.00,16.00,13.00,92.00,https://SouthWestYorkshirePartnershipNHSFoundationTrust.co.uk/GPGData,Firstname235 Lastname235 (Jobtitle 235),02/04/2016 00:00:00,South West Yorkshire Partnership NHS Foundation Trust,,Address line 235,,City235,Country235,Post Code235,,1
01/04/2016 00:00:00,28.00,60.00,96.00,78.00,18.00,80.00,72.00,52.00,0.00,21.00,100.00,16.00,38.00,46.00,https://SouthWesternAmbulanceServiceNHSFoundationTrust.co.uk/GPGData,Firstname236 Lastname236 (Jobtitle 236),01/11/2016 00:00:00,South Western Ambulance Service NHS Foundation Trust,,Address line 236,,City236,Country236,Post Code236,,1
01/04/2016 00:00:00,40.00,38.00,22.00,69.00,4.00,29.00,47.00,56.00,34.00,77.00,38.00,42.00,16.00,85.00,https://SouthWingfieldParishCouncil.co.uk/GPGData,Firstname237 Lastname237 (Jobtitle 237),16/08/2016 00:00:00,South Wingfield Parish Council,,Address line 237,,City237,Country237,Post Code237,,1
01/04/2016 00:00:00,63.00,13.00,24.00,49.00,91.00,81.00,69.00,75.00,4.00,30.00,63.00,3.00,13.00,36.00,https://SouthWoodhamFerrersTownCouncil.co.uk/GPGData,Firstname238 Lastname238 (Jobtitle 238),23/07/2016 00:00:00,South Woodham Ferrers Town Council,,Address line 238,,City238,Country238,Post Code238,,1
01/04/2016 00:00:00,32.00,35.00,36.00,74.00,76.00,22.00,41.00,29.00,9.00,78.00,1.00,33.00,35.00,54.00,https://SouthYorkshireFireandRescueService.co.uk/GPGData,Firstname239 Lastname239 (Jobtitle 239),30/04/2016 00:00:00,South Yorkshire Fire and Rescue Service,,Address line 239,,City239,Country239,Post Code239,,1
01/04/2016 00:00:00,56.00,2.00,42.00,98.00,20.00,71.00,27.00,45.00,60.00,37.00,98.00,17.00,60.00,30.00,https://SouthYorkshirePoliceandCrimeCommissioner.co.uk/GPGData,Firstname240 Lastname240 (Jobtitle 240),30/12/2016 00:00:00,South Yorkshire Police and Crime Commissioner,,Address line 240,,City240,Country240,Post Code240,,1
01/04/2016 00:00:00,77.00,18.00,46.00,26.00,98.00,97.00,17.00,43.00,73.00,17.00,72.00,23.00,79.00,28.00,https://SouthamTownCouncil.co.uk/GPGData,Firstname241 Lastname241 (Jobtitle 241),22/10/2016 00:00:00,Southam Town Council,,Address line 241,,City241,Country241,Post Code241,,1
01/04/2016 00:00:00,95.00,18.00,14.00,15.00,66.00,81.00,8.00,40.00,24.00,97.00,31.00,54.00,55.00,81.00,https://SouthamptonCityCouncil.co.uk/GPGData,Firstname242 Lastname242 (Jobtitle 242),26/03/2017 00:00:00,Southampton City Council,,Address line 242,,City242,Country242,Post Code242,,1
01/04/2016 00:00:00,97.00,17.00,2.00,26.00,9.00,0.00,85.00,31.00,28.00,85.00,65.00,46.00,92.00,62.00,https://SouthendUniversityHospitalNHSFoundationTrust.co.uk/GPGData,Firstname243 Lastname243 (Jobtitle 243),06/06/2016 00:00:00,Southend University Hospital NHS Foundation Trust,,Address line 243,,City243,Country243,Post Code243,,1
01/04/2016 00:00:00,86.00,42.00,83.00,2.00,58.00,13.00,3.00,75.00,21.00,30.00,19.00,49.00,83.00,6.00,https://TadleyTownCouncil.co.uk/GPGData,Firstname272 Lastname272 (Jobtitle 272),10/10/2016 00:00:00,Tadley Town Council,,Address line 272,,City272,Country272,Post Code272,,1
01/04/2016 00:00:00,57.00,23.00,90.00,25.00,61.00,44.00,71.00,4.00,94.00,32.00,36.00,7.00,4.00,13.00,https://TamesideHospitalNHSFoundationTrust.co.uk/GPGData,Firstname273 Lastname273 (Jobtitle 273),18/08/2016 00:00:00,Tameside Hospital NHS Foundation Trust,,Address line 273,,City273,Country273,Post Code273,,1
01/04/2016 00:00:00,85.00,40.00,44.00,35.00,25.00,35.00,45.00,96.00,45.00,30.00,84.00,76.00,2.00,71.00,https://TamesideMetropolitanBoroughCouncil.co.uk/GPGData,Firstname274 Lastname274 (Jobtitle 274),12/01/2017 00:00:00,Tameside Metropolitan Borough Council,,Address line 274,,City274,Country274,Post Code274,,1
01/04/2016 00:00:00,34.00,2.00,83.00,3.00,32.00,100.00,95.00,80.00,16.00,11.00,91.00,4.00,61.00,37.00,https://TamworthBoroughCouncil.co.uk/GPGData,Firstname275 Lastname275 (Jobtitle 275),02/03/2017 00:00:00,Tamworth Borough Council,,Address line 275,,City275,Country275,Post Code275,,1
01/04/2016 00:00:00,80.00,0.00,58.00,47.00,38.00,88.00,25.00,76.00,16.00,2.00,21.00,15.00,92.00,17.00,https://TandridgeDistrictCouncil.co.uk/GPGData,Firstname276 Lastname276 (Jobtitle 276),18/11/2016 00:00:00,Tandridge District Council,,Address line 276,,City276,Country276,Post Code276,,1
01/04/2016 00:00:00,13.00,33.00,3.00,13.00,96.00,93.00,20.00,82.00,23.00,73.00,30.00,64.00,91.00,98.00,https://TaptonSchoolAcademyTrust.co.uk/GPGData,Firstname277 Lastname277 (Jobtitle 277),18/07/2016 00:00:00,Tapton School Academy Trust,,Address line 277,,City277,Country277,Post Code277,,1
01/04/2016 00:00:00,46.00,45.00,46.00,47.00,46.00,80.00,16.00,64.00,15.00,1.00,6.00,46.00,21.00,89.00,https://TarletonParishCouncil.co.uk/GPGData,Firstname278 Lastname278 (Jobtitle 278),11/07/2016 00:00:00,Tarleton Parish Council,,Address line 278,,City278,Country278,Post Code278,,1
01/04/2016 00:00:00,29.00,94.00,38.00,62.00,42.00,1.00,13.00,52.00,84.00,62.00,2.00,71.00,15.00,53.00,https://TauntonandSomersetNHSFoundationTrust.co.uk/GPGData,Firstname279 Lastname279 (Jobtitle 279),14/06/2016 00:00:00,Taunton and Somerset NHS Foundation Trust,,Address line 279,,City279,Country279,Post Code279,,1
01/04/2016 00:00:00,25.00,22.00,52.00,87.00,4.00,77.00,95.00,2.00,36.00,36.00,93.00,83.00,83.00,14.00,https://TauntonDeaneBoroughCouncil.co.uk/GPGData,Firstname280 Lastname280 (Jobtitle 280),19/08/2016 00:00:00,Taunton Deane Borough Council,,Address line 280,,City280,Country280,Post Code280,,1
01/04/2016 00:00:00,33.00,72.00,73.00,25.00,90.00,28.00,3.00,20.00,88.00,95.00,99.00,66.00,86.00,21.00,https://TavistockandPortmanNHSFoundationTrust.co.uk/GPGData,Firstname281 Lastname281 (Jobtitle 281),30/03/2017 00:00:00,Tavistock and Portman NHS Foundation Trust,,Address line 281,,City281,Country281,Post Code281,,1
01/04/2016 00:00:00,27.00,49.00,7.00,39.00,82.00,92.00,58.00,60.00,78.00,89.00,67.00,32.00,63.00,60.00,https://TavistockTownCouncil.co.uk/GPGData,Firstname132 Lastname132 (Jobtitle 132),25/09/2016 00:00:00,Tavistock Town Council,,Address line 132,,City132,Country132,Post Code132,,1
01/04/2016 00:00:00,76.00,65.00,2.00,14.00,38.00,34.00,70.00,71.00,29.00,79.00,14.00,35.00,88.00,52.00,https://TaysideandCentralScotlandTransportPartnership.co.uk/GPGData,Firstname133 Lastname133 (Jobtitle 133),16/08/2016 00:00:00,Tayside and Central Scotland Transport Partnership,,Address line 133,,City133,Country133,Post Code133,,1
01/04/2016 00:00:00,89.00,66.00,97.00,0.00,86.00,16.00,0.00,74.00,32.00,19.00,1.00,36.00,13.00,88.00,https://TaysideFireandRescue.co.uk/GPGData,Firstname134 Lastname134 (Jobtitle 134),18/09/2016 00:00:00,Tayside Fire and Rescue,,Address line 134,,City134,Country134,Post Code134,,1
01/04/2016 00:00:00,1.00,100.00,97.00,71.00,54.00,59.00,70.00,98.00,18.00,77.00,2.00,57.00,31.00,43.00,https://TaysideValuationJointBoard.co.uk/GPGData,Firstname135 Lastname135 (Jobtitle 135),17/09/2016 00:00:00,Tayside Valuation Joint Board,,Address line 135,,City135,Country135,Post Code135,,1
01/04/2016 00:00:00,58.00,65.00,82.00,99.00,100.00,51.00,85.00,62.00,36.00,4.00,45.00,6.00,4.00,98.00,"https://Tees,EskandWearValleysNHSFoundationTrust.co.uk/GPGData",Firstname136 Lastname136 (Jobtitle 136),16/05/2016 00:00:00,"Tees, Esk and Wear Valleys NHS Foundation Trust",,Address line 136,,City136,Country136,Post Code136,,1
01/04/2016 00:00:00,73.00,0.00,4.00,79.00,37.00,79.00,43.00,31.00,61.00,48.00,9.00,85.00,75.00,46.00,https://TeignmouthLearningTrust.co.uk/GPGData,Firstname137 Lastname137 (Jobtitle 137),29/11/2016 00:00:00,Teignmouth Learning Trust,,Address line 137,,City137,Country137,Post Code137,,1
01/04/2016 00:00:00,52.00,42.00,49.00,31.00,32.00,47.00,91.00,25.00,7.00,45.00,7.00,13.00,60.00,64.00,https://TelfordandWrekinCouncil.co.uk/GPGData,Firstname138 Lastname138 (Jobtitle 138),12/08/2016 00:00:00,Telford and Wrekin Council,,Address line 138,,City138,Country138,Post Code138,,1
01/04/2016 00:00:00,87.00,45.00,95.00,96.00,4.00,41.00,57.00,97.00,71.00,40.00,62.00,10.00,61.00,25.00,https://TelfordCo-operativeMultiAcademyTrust.co.uk/GPGData,Firstname139 Lastname139 (Jobtitle 139),04/06/2016 00:00:00,Telford Co-operative Multi Academy Trust,,Address line 139,,City139,Country139,Post Code139,,1
01/04/2016 00:00:00,29.00,18.00,21.00,37.00,69.00,92.00,72.00,73.00,32.00,61.00,30.00,44.00,13.00,23.00,https://TemplerAcademySchoolsTrust.co.uk/GPGData,Firstname140 Lastname140 (Jobtitle 140),22/08/2016 00:00:00,Templer Academy Schools Trust,,Address line 140,,City140,Country140,Post Code140,,1
01/04/2016 00:00:00,68.00,86.00,85.00,17.00,72.00,96.00,11.00,66.00,61.00,16.00,77.00,92.00,100.00,55.00,https://TestValleyBoroughCouncil.co.uk/GPGData,Firstname141 Lastname141 (Jobtitle 141),02/06/2016 00:00:00,Test Valley Borough Council,,Address line 141,,City141,Country141,Post Code141,,1
01/04/2016 00:00:00,100.00,63.00,82.00,61.00,73.00,89.00,77.00,56.00,34.00,71.00,12.00,73.00,86.00,61.00,https://ThameTownCouncil.co.uk/GPGData,Firstname156 Lastname156 (Jobtitle 156),30/07/2016 00:00:00,Thame Town Council,,Address line 156,,City156,Country156,Post Code156,,1
01/04/2016 00:00:00,32.00,51.00,57.00,48.00,79.00,67.00,6.00,11.00,49.00,22.00,34.00,80.00,19.00,48.00,https://ThamesValleyPolice.co.uk/GPGData,Firstname157 Lastname157 (Jobtitle 157),14/08/2016 00:00:00,Thames Valley Police,,Address line 157,,City157,Country157,Post Code157,,1
01/04/2016 00:00:00,52.00,44.00,37.00,26.00,50.00,11.00,99.00,73.00,73.00,100.00,30.00,5.00,18.00,32.00,https://ThanetDistrictCouncil.co.uk/GPGData,Firstname158 Lastname158 (Jobtitle 158),03/11/2016 00:00:00,Thanet District Council,,Address line 158,,City158,Country158,Post Code158,,1
01/04/2016 00:00:00,44.00,80.00,61.00,74.00,99.00,47.00,66.00,26.00,64.00,90.00,80.00,41.00,77.00,55.00,https://ThaningtonWithoutParishCouncil.co.uk/GPGData,Firstname159 Lastname159 (Jobtitle 159),21/06/2016 00:00:00,Thanington Without Parish Council,,Address line 159,,City159,Country159,Post Code159,,1
01/04/2016 00:00:00,21.00,77.00,81.00,58.00,41.00,46.00,49.00,49.00,29.00,4.00,34.00,98.00,87.00,62.00,https://ThatchamTownCouncil.co.uk/GPGData,Firstname160 Lastname160 (Jobtitle 160),09/02/2017 00:00:00,Thatcham Town Council,,Address line 160,,City160,Country160,Post Code160,,1
01/04/2016 00:00:00,9.00,48.00,77.00,85.00,2.00,27.00,77.00,89.00,82.00,37.00,75.00,100.00,97.00,98.00,https://TheActiveLearningTrustLimited.co.uk/GPGData,Firstname161 Lastname161 (Jobtitle 161),13/11/2016 00:00:00,The Active Learning Trust Limited,,Address line 161,,City161,Country161,Post Code161,,1
01/04/2016 00:00:00,62.00,5.00,53.00,71.00,98.00,76.00,97.00,2.00,15.00,13.00,41.00,94.00,40.00,79.00,https://TheAdjudicator'sOffice.co.uk/GPGData,Firstname162 Lastname162 (Jobtitle 162),15/11/2016 00:00:00,The Adjudicator's Office,,Address line 162,,City162,Country162,Post Code162,,1
01/04/2016 00:00:00,84.00,43.00,11.00,83.00,91.00,68.00,0.00,88.00,20.00,55.00,69.00,57.00,96.00,25.00,https://TheArthurTerryLearningPartnership.co.uk/GPGData,Firstname163 Lastname163 (Jobtitle 163),08/07/2016 00:00:00,The Arthur Terry Learning Partnership,,Address line 163,,City163,Country163,Post Code163,,1
01/04/2016 00:00:00,31.00,37.00,43.00,30.00,58.00,40.00,98.00,3.00,97.00,3.00,94.00,89.00,75.00,10.00,https://TheAttorneyGeneral'sOffice.co.uk/GPGData,Firstname164 Lastname164 (Jobtitle 164),16/11/2016 00:00:00,The Attorney General's Office,,Address line 164,,City164,Country164,Post Code164,,1
01/04/2016 00:00:00,30.00,28.00,6.00,11.00,97.00,26.00,78.00,8.00,86.00,39.00,81.00,90.00,35.00,20.00,https://TheBankofEngland.co.uk/GPGData,Firstname165 Lastname165 (Jobtitle 165),29/11/2016 00:00:00,The Bank of England,,Address line 165,,City165,Country165,Post Code165,,1
01/04/2016 00:00:00,15.00,16.00,87.00,28.00,35.00,88.00,0.00,32.00,23.00,53.00,15.00,2.00,59.00,44.00,https://TheGangmastersandLabourAbuseAuthority.co.uk/GPGData,Firstname166 Lastname166 (Jobtitle 166),04/05/2016 00:00:00,The Gangmasters and Labour Abuse Authority,,Address line 166,,City166,Country166,Post Code166,,1
01/04/2016 00:00:00,25.00,41.00,50.00,36.00,23.00,31.00,19.00,21.00,99.00,73.00,61.00,36.00,8.00,34.00,"https://TheGeneralCounciloftheBar,inrespectofitspublicfunctions.co.uk/GPGData",Firstname167 Lastname167 (Jobtitle 167),27/05/2016 00:00:00,"The General Council of the Bar, in respect of its public functions",,Address line 167,,City167,Country167,Post Code167,,1
01/04/2016 00:00:00,73.00,26.00,10.00,15.00,17.00,11.00,70.00,71.00,48.00,91.00,86.00,87.00,81.00,42.00,https://TheGlynLearningFoundation.co.uk/GPGData,Firstname168 Lastname168 (Jobtitle 168),14/04/2016 00:00:00,The Glyn Learning Foundation,,Address line 168,,City168,Country168,Post Code168,,1
01/04/2016 00:00:00,88.00,0.00,25.00,23.00,31.00,22.00,16.00,10.00,61.00,78.00,30.00,55.00,89.00,25.00,https://TheGorgeParishCouncil.co.uk/GPGData,Firstname169 Lastname169 (Jobtitle 169),20/02/2017 00:00:00,The Gorge Parish Council,,Address line 169,,City169,Country169,Post Code169,,1
01/04/2016 00:00:00,95.00,99.00,95.00,47.00,29.00,49.00,13.00,70.00,83.00,32.00,16.00,91.00,24.00,66.00,https://TheGORSEAcademiesTrust.co.uk/GPGData,Firstname170 Lastname170 (Jobtitle 170),22/05/2016 00:00:00,The GORSE Academies Trust,,Address line 170,,City170,Country170,Post Code170,,1
01/04/2016 00:00:00,89.00,55.00,68.00,29.00,46.00,23.00,74.00,92.00,87.00,83.00,99.00,77.00,100.00,91.00,https://TheHealthandSafetyExecutive.co.uk/GPGData,Firstname171 Lastname171 (Jobtitle 171),28/08/2016 00:00:00,The Health and Safety Executive,,Address line 171,,City171,Country171,Post Code171,,1
01/04/2016 00:00:00,57.00,57.00,12.00,90.00,38.00,30.00,46.00,41.00,2.00,84.00,64.00,73.00,32.00,28.00,https://TheHealthandSocialCareInformationCentre.co.uk/GPGData,Firstname172 Lastname172 (Jobtitle 172),06/09/2016 00:00:00,The Health and Social Care Information Centre,,Address line 172,,City172,Country172,Post Code172,,1
01/04/2016 00:00:00,67.00,77.00,25.00,39.00,54.00,47.00,71.00,19.00,22.00,75.00,91.00,87.00,90.00,19.00,https://TheHeathFamily(NorthWest).co.uk/GPGData,Firstname173 Lastname173 (Jobtitle 173),09/03/2017 00:00:00,The Heath Family (North West),,Address line 173,,City173,Country173,Post Code173,,1
01/04/2016 00:00:00,91.00,92.00,39.00,75.00,98.00,7.00,80.00,85.00,55.00,88.00,1.00,5.00,49.00,63.00,https://TheHighlandCouncil.co.uk/GPGData,Firstname174 Lastname174 (Jobtitle 174),04/07/2016 00:00:00,The Highland Council,,Address line 174,,City174,Country174,Post Code174,,1
01/04/2016 00:00:00,79.00,29.00,65.00,57.00,44.00,17.00,15.00,19.00,25.00,26.00,45.00,43.00,41.00,15.00,https://TheHighwaysAgency.co.uk/GPGData,Firstname175 Lastname175 (Jobtitle 175),07/09/2016 00:00:00,The Highways Agency,,Address line 175,,City175,Country175,Post Code175,,1
01/04/2016 00:00:00,3.00,42.00,47.00,27.00,90.00,92.00,62.00,66.00,3.00,33.00,68.00,71.00,68.00,64.00,https://TheOfficeofQueen'sandLordTreasurer'sRemembrancer.co.uk/GPGData,Firstname224 Lastname224 (Jobtitle 224),23/06/2016 00:00:00,The Office of Queen's and Lord Treasurer's Remembrancer,,Address line 224,,City224,Country224,Post Code224,,1
01/04/2016 00:00:00,58.00,52.00,56.00,87.00,88.00,69.00,58.00,10.00,54.00,74.00,86.00,69.00,61.00,94.00,https://TheOfficeoftheComplaintsCommissioner.co.uk/GPGData,Firstname225 Lastname225 (Jobtitle 225),27/09/2016 00:00:00,The Office of the Complaints Commissioner,,Address line 225,,City225,Country225,Post Code225,,1
01/04/2016 00:00:00,0.00,81.00,23.00,82.00,9.00,89.00,45.00,46.00,99.00,55.00,66.00,90.00,65.00,1.00,https://TheOfficeoftheKentPoliceandCrimeCommissioner.co.uk/GPGData,Firstname226 Lastname226 (Jobtitle 226),02/03/2017 00:00:00,The Office of the Kent Police and Crime Commissioner,,Address line 226,,City226,Country226,Post Code226,,1
01/04/2016 00:00:00,16.00,30.00,18.00,81.00,5.00,24.00,0.00,73.00,96.00,50.00,41.00,28.00,70.00,81.00,https://TheOfficeofThePrinceofWalesandTheDuchessofCornwall.co.uk/GPGData,Firstname227 Lastname227 (Jobtitle 227),28/02/2017 00:00:00,The Office of The Prince of Wales and The Duchess of Cornwall,,Address line 227,,City227,Country227,Post Code227,,1
01/04/2016 00:00:00,42.00,84.00,32.00,86.00,94.00,61.00,0.00,5.00,78.00,71.00,25.00,49.00,14.00,20.00,https://TheOfficeofthePublicGuardian.co.uk/GPGData,Firstname228 Lastname228 (Jobtitle 228),28/10/2016 00:00:00,The Office of the Public Guardian,,Address line 228,,City228,Country228,Post Code228,,1
01/04/2016 00:00:00,30.00,19.00,43.00,29.00,13.00,98.00,26.00,98.00,67.00,57.00,70.00,18.00,42.00,80.00,https://TheOfficeoftheScottishRoadWorksCommissioner.co.uk/GPGData,Firstname229 Lastname229 (Jobtitle 229),12/07/2016 00:00:00,The Office of the Scottish Road Works Commissioner,,Address line 229,,City229,Country229,Post Code229,,1
01/04/2016 00:00:00,86.00,76.00,26.00,58.00,34.00,97.00,100.00,33.00,76.00,89.00,25.00,33.00,97.00,93.00,https://TheOlympusAcademyTrust.co.uk/GPGData,Firstname230 Lastname230 (Jobtitle 230),03/11/2016 00:00:00,The Olympus Academy Trust,,Address line 230,,City230,Country230,Post Code230,,1
01/04/2016 00:00:00,11.00,49.00,65.00,9.00,91.00,31.00,34.00,38.00,60.00,93.00,24.00,49.00,9.00,97.00,https://ThePainsleyCatholicAcademy.co.uk/GPGData,Firstname231 Lastname231 (Jobtitle 231),14/08/2016 00:00:00,The Painsley Catholic Academy,,Address line 231,,City231,Country231,Post Code231,,1
01/04/2016 00:00:00,95.00,55.00,37.00,46.00,83.00,51.00,86.00,93.00,52.00,95.00,30.00,79.00,29.00,74.00,https://TheParkFederationAcademyTrust.co.uk/GPGData,Firstname232 Lastname232 (Jobtitle 232),06/01/2017 00:00:00,The Park Federation Academy Trust,,Address line 232,,City232,Country232,Post Code232,,1
01/04/2016 00:00:00,20.00,29.00,17.00,44.00,12.00,21.00,7.00,36.00,8.00,54.00,27.00,26.00,97.00,97.00,https://ThePassmoresCo-operativeLearningCommunity.co.uk/GPGData,Firstname233 Lastname233 (Jobtitle 233),11/04/2016 00:00:00,The Passmores Co-operative Learning Community,,Address line 233,,City233,Country233,Post Code233,,1
01/04/2016 00:00:00,21.00,25.00,0.00,80.00,38.00,28.00,8.00,1.00,99.00,2.00,74.00,97.00,45.00,92.00,https://TransportforLondon.co.uk/GPGData,Firstname252 Lastname252 (Jobtitle 252),18/09/2016 00:00:00,Transport for London,,Address line 252,,City252,Country252,Post Code252,,1
01/04/2016 00:00:00,11.00,15.00,26.00,85.00,88.00,85.00,18.00,46.00,22.00,37.00,53.00,49.00,100.00,9.00,https://TreasurySolicitor.co.uk/GPGData,Firstname253 Lastname253 (Jobtitle 253),26/03/2017 00:00:00,Treasury Solicitor,,Address line 253,,City253,Country253,Post Code253,,1
01/04/2016 00:00:00,48.00,72.00,26.00,26.00,9.00,15.00,7.00,53.00,18.00,86.00,81.00,4.00,50.00,10.00,https://TreetonParishCouncil.co.uk/GPGData,Firstname254 Lastname254 (Jobtitle 254),10/06/2016 00:00:00,Treeton Parish Council,,Address line 254,,City254,Country254,Post Code254,,1
01/04/2016 00:00:00,94.00,13.00,69.00,67.00,21.00,43.00,42.00,35.00,19.00,65.00,19.00,92.00,85.00,31.00,https://TrimdonFoundryParishCouncil.co.uk/GPGData,Firstname255 Lastname255 (Jobtitle 255),10/08/2016 00:00:00,Trimdon Foundry Parish Council,,Address line 255,,City255,Country255,Post Code255,,1
01/04/2016 00:00:00,64.00,32.00,87.00,36.00,62.00,31.00,24.00,46.00,95.00,90.00,58.00,39.00,22.00,36.00,https://TrimdonParishCouncil.co.uk/GPGData,Firstname256 Lastname256 (Jobtitle 256),15/02/2017 00:00:00,Trimdon Parish Council,,Address line 256,,City256,Country256,Post Code256,,1
01/04/2016 00:00:00,32.00,10.00,5.00,99.00,14.00,31.00,88.00,33.00,0.00,75.00,27.00,20.00,15.00,34.00,https://TrinitasAcademyTrust.co.uk/GPGData,Firstname257 Lastname257 (Jobtitle 257),19/06/2016 00:00:00,Trinitas Academy Trust,,Address line 257,,City257,Country257,Post Code257,,1
01/04/2016 00:00:00,17.00,63.00,12.00,9.00,50.00,57.00,57.00,37.00,9.00,67.00,96.00,26.00,22.00,26.00,https://TrinityAcademy-Halifax.co.uk/GPGData,Firstname258 Lastname258 (Jobtitle 258),17/10/2016 00:00:00,Trinity Academy - Halifax,,Address line 258,,City258,Country258,Post Code258,,1
01/04/2016 00:00:00,51.00,26.00,39.00,59.00,100.00,73.00,36.00,86.00,81.00,36.00,73.00,88.00,31.00,25.00,https://TrustinLearning(Academies).co.uk/GPGData,Firstname259 Lastname259 (Jobtitle 259),28/09/2016 00:00:00,Trust in Learning (Academies),,Address line 259,,City259,Country259,Post Code259,,1
01/04/2016 00:00:00,70.00,18.00,21.00,83.00,31.00,9.00,23.00,47.00,67.00,36.00,15.00,39.00,77.00,88.00,https://TudorGrangeAcademiesTrust.co.uk/GPGData,Firstname260 Lastname260 (Jobtitle 260),10/04/2016 00:00:00,Tudor Grange Academies Trust,,Address line 260,,City260,Country260,Post Code260,,1
01/04/2016 00:00:00,45.00,42.00,84.00,86.00,20.00,11.00,40.00,46.00,61.00,59.00,54.00,84.00,70.00,11.00,https://TuxfordParishCouncil.co.uk/GPGData,Firstname261 Lastname261 (Jobtitle 261),11/06/2016 00:00:00,Tuxford Parish Council,,Address line 261,,City261,Country261,Post Code261,,1
01/04/2016 00:00:00,83.00,66.00,65.00,62.00,74.00,92.00,89.00,86.00,74.00,35.00,88.00,74.00,82.00,75.00,https://UKTradeandInvestment.co.uk/GPGData,Firstname302 Lastname302 (Jobtitle 302),19/05/2016 00:00:00,UK Trade and Investment,,Address line 302,,City302,Country302,Post Code302,,1
01/04/2016 00:00:00,71.00,21.00,18.00,52.00,5.00,13.00,49.00,20.00,62.00,0.00,58.00,58.00,48.00,3.00,https://UleyParishCouncil.co.uk/GPGData,Firstname303 Lastname303 (Jobtitle 303),19/04/2016 00:00:00,Uley Parish Council,,Address line 303,,City303,Country303,Post Code303,,1
01/04/2016 00:00:00,33.00,21.00,13.00,26.00,68.00,30.00,88.00,99.00,70.00,9.00,90.00,33.00,22.00,20.00,https://UnitedKingdomStatisticsAuthority.co.uk/GPGData,Firstname304 Lastname304 (Jobtitle 304),01/04/2017 00:00:00,United Kingdom Statistics Authority,,Address line 304,,City304,Country304,Post Code304,,1
01/04/2016 00:00:00,70.00,90.00,30.00,16.00,36.00,45.00,48.00,37.00,58.00,57.00,9.00,21.00,66.00,87.00,https://UnitedLearningTrust.co.uk/GPGData,Firstname305 Lastname305 (Jobtitle 305),21/06/2016 00:00:00,United Learning Trust,,Address line 305,,City305,Country305,Post Code305,,1
01/04/2016 00:00:00,79.00,82.00,52.00,70.00,81.00,75.00,78.00,38.00,45.00,72.00,37.00,29.00,83.00,39.00,https://UnitedLincolnshireHospitalsNHSTrust.co.uk/GPGData,Firstname306 Lastname306 (Jobtitle 306),25/01/2017 00:00:00,United Lincolnshire Hospitals NHS Trust,,Address line 306,,City306,Country306,Post Code306,,1
01/04/2016 00:00:00,39.00,25.00,8.00,7.00,45.00,27.00,71.00,27.00,42.00,18.00,36.00,38.00,68.00,19.00,https://UniversityCollegeLondonHospitalsNHSFoundationTrust.co.uk/GPGData,Firstname307 Lastname307 (Jobtitle 307),02/04/2016 00:00:00,University College London Hospitals NHS Foundation Trust,,Address line 307,,City307,Country307,Post Code307,,1
01/04/2016 00:00:00,7.00,9.00,68.00,5.00,77.00,87.00,83.00,21.00,72.00,35.00,37.00,87.00,84.00,35.00,https://UniversityHospitalofSouthManchesterNHSFoundationTrust.co.uk/GPGData,Firstname308 Lastname308 (Jobtitle 308),23/10/2016 00:00:00,University Hospital of South Manchester NHS Foundation Trust,,Address line 308,,City308,Country308,Post Code308,,1
01/04/2016 00:00:00,52.00,91.00,22.00,37.00,43.00,89.00,98.00,45.00,7.00,71.00,23.00,70.00,94.00,62.00,https://UniversityHospitalSouthamptonNHSFoundationTrust.co.uk/GPGData,Firstname309 Lastname309 (Jobtitle 309),08/11/2016 00:00:00,University Hospital Southampton NHS Foundation Trust,,Address line 309,,City309,Country309,Post Code309,,1
01/04/2016 00:00:00,81.00,61.00,76.00,49.00,76.00,64.00,83.00,81.00,20.00,67.00,10.00,81.00,60.00,54.00,https://UniversityHospitalsBirminghamNHSFoundationTrust.co.uk/GPGData,Firstname310 Lastname310 (Jobtitle 310),08/01/2017 00:00:00,University Hospitals Birmingham NHS Foundation Trust,,Address line 310,,City310,Country310,Post Code310,,1
01/04/2016 00:00:00,41.00,11.00,7.00,19.00,50.00,41.00,50.00,97.00,90.00,54.00,27.00,92.00,12.00,45.00,https://UniversityHospitalsBristolNHSFoundationTrust.co.uk/GPGData,Firstname311 Lastname311 (Jobtitle 311),16/02/2017 00:00:00,University Hospitals Bristol NHS Foundation Trust,,Address line 311,,City311,Country311,Post Code311,,1
01/04/2016 00:00:00,32.00,11.00,66.00,25.00,38.00,36.00,30.00,37.00,58.00,56.00,38.00,10.00,30.00,84.00,https://WelshGovernmentFireBranch.co.uk/GPGData,Firstname2 Lastname2 (Jobtitle 2),17/02/2017 00:00:00,Welsh Government Fire Branch,,Address line 2,,City2,Country2,Post Code2,,1
01/04/2016 00:00:00,26.00,82.00,38.00,16.00,12.00,5.00,59.00,0.00,72.00,75.00,28.00,32.00,19.00,97.00,https://WelshLocalGovernmentAssociation.co.uk/GPGData,Firstname3 Lastname3 (Jobtitle 3),26/01/2017 00:00:00,Welsh Local Government Association,,Address line 3,,City3,Country3,Post Code3,,1
01/04/2016 00:00:00,74.00,68.00,68.00,67.00,52.00,97.00,3.00,46.00,58.00,34.00,24.00,48.00,53.00,2.00,https://WelshamptonandLynealParishCouncil.co.uk/GPGData,Firstname4 Lastname4 (Jobtitle 4),06/12/2016 00:00:00,Welshampton and Lyneal Parish Council,,Address line 4,,City4,Country4,Post Code4,,1
01/04/2016 00:00:00,40.00,95.00,94.00,51.00,34.00,16.00,49.00,92.00,84.00,83.00,49.00,60.00,72.00,50.00,https://WeltonParishCouncil.co.uk/GPGData,Firstname5 Lastname5 (Jobtitle 5),08/03/2017 00:00:00,Welton Parish Council,,Address line 5,,City5,Country5,Post Code5,,1
01/04/2016 00:00:00,79.00,20.00,51.00,43.00,88.00,27.00,82.00,40.00,15.00,42.00,13.00,76.00,71.00,13.00,https://WelwynHatfieldBoroughCouncil.co.uk/GPGData,Firstname6 Lastname6 (Jobtitle 6),17/10/2016 00:00:00,Welwyn Hatfield Borough Council,,Address line 6,,City6,Country6,Post Code6,,1
01/04/2016 00:00:00,57.00,77.00,13.00,3.00,14.00,88.00,69.00,83.00,21.00,94.00,83.00,73.00,86.00,67.00,https://WemRuralParishCouncil.co.uk/GPGData,Firstname7 Lastname7 (Jobtitle 7),18/08/2016 00:00:00,Wem Rural Parish Council,,Address line 7,,City7,Country7,Post Code7,,1
01/04/2016 00:00:00,57.00,94.00,50.00,0.00,70.00,40.00,58.00,78.00,20.00,28.00,34.00,94.00,23.00,60.00,https://WendoverParishCouncil.co.uk/GPGData,Firstname8 Lastname8 (Jobtitle 8),28/05/2016 00:00:00,Wendover Parish Council,,Address line 8,,City8,Country8,Post Code8,,1
01/04/2016 00:00:00,82.00,83.00,21.00,39.00,48.00,100.00,18.00,6.00,41.00,89.00,98.00,36.00,21.00,54.00,https://WestDunbartonshireCouncil.co.uk/GPGData,Firstname9 Lastname9 (Jobtitle 9),16/10/2016 00:00:00,West Dunbartonshire Council,,Address line 9,,City9,Country9,Post Code9,,1
01/04/2016 00:00:00,55.00,91.00,39.00,62.00,20.00,54.00,68.00,82.00,97.00,59.00,77.00,74.00,29.00,14.00,https://WestEndParishCouncil.co.uk/GPGData,Firstname10 Lastname10 (Jobtitle 10),09/09/2016 00:00:00,West End Parish Council,,Address line 10,,City10,Country10,Post Code10,,1
01/04/2016 00:00:00,84.00,12.00,9.00,38.00,27.00,67.00,75.00,92.00,39.00,34.00,71.00,88.00,18.00,7.00,https://WestGrinsteadParishCouncil.co.uk/GPGData,Firstname11 Lastname11 (Jobtitle 11),18/10/2016 00:00:00,West Grinstead Parish Council,,Address line 11,,City11,Country11,Post Code11,,1
01/04/2016 00:00:00,94.00,30.00,77.00,96.00,21.00,69.00,90.00,52.00,92.00,69.00,36.00,19.00,81.00,91.00,https://WeymouthandPortlandBoroughCouncil.co.uk/GPGData,Firstname176 Lastname176 (Jobtitle 176),05/03/2017 00:00:00,Weymouth and Portland Borough Council,,Address line 176,,City176,Country176,Post Code176,,1
01/04/2016 00:00:00,42.00,34.00,64.00,6.00,92.00,44.00,12.00,19.00,32.00,31.00,13.00,88.00,75.00,0.00,https://WheathampsteadParishCouncil.co.uk/GPGData,Firstname177 Lastname177 (Jobtitle 177),09/11/2016 00:00:00,Wheathampstead Parish Council,,Address line 177,,City177,Country177,Post Code177,,1
01/04/2016 00:00:00,76.00,53.00,67.00,77.00,38.00,86.00,93.00,47.00,86.00,5.00,92.00,28.00,22.00,82.00,https://WheatleyParishCouncil.co.uk/GPGData,Firstname178 Lastname178 (Jobtitle 178),30/06/2016 00:00:00,Wheatley Parish Council,,Address line 178,,City178,Country178,Post Code178,,1
01/04/2016 00:00:00,81.00,47.00,19.00,25.00,94.00,39.00,54.00,80.00,16.00,37.00,26.00,93.00,45.00,83.00,https://WheldrakeParishCouncil.co.uk/GPGData,Firstname179 Lastname179 (Jobtitle 179),25/05/2016 00:00:00,Wheldrake Parish Council,,Address line 179,,City179,Country179,Post Code179,,1
01/04/2016 00:00:00,22.00,94.00,85.00,69.00,56.00,1.00,48.00,69.00,8.00,93.00,63.00,53.00,92.00,17.00,https://WhiteshillandRuscombeParishCouncil.co.uk/GPGData,Firstname180 Lastname180 (Jobtitle 180),23/01/2017 00:00:00,Whiteshill and Ruscombe Parish Council,,Address line 180,,City180,Country180,Post Code180,,1
01/04/2016 00:00:00,68.00,58.00,57.00,69.00,61.00,44.00,40.00,23.00,50.00,96.00,24.00,42.00,52.00,66.00,https://WhitnashTownCouncil.co.uk/GPGData,Firstname181 Lastname181 (Jobtitle 181),06/10/2016 00:00:00,Whitnash Town Council,,Address line 181,,City181,Country181,Post Code181,,1
01/04/2016 00:00:00,70.00,79.00,15.00,100.00,14.00,46.00,83.00,41.00,6.00,41.00,35.00,13.00,94.00,37.00,https://WhittingtonHospitalNHSTrust.co.uk/GPGData,Firstname182 Lastname182 (Jobtitle 182),21/08/2016 00:00:00,Whittington Hospital NHS Trust,,Address line 182,,City182,Country182,Post Code182,,1
01/04/2016 00:00:00,21.00,80.00,47.00,60.00,36.00,40.00,97.00,34.00,88.00,91.00,57.00,6.00,88.00,95.00,https://WhitwellParishCouncil.co.uk/GPGData,Firstname183 Lastname183 (Jobtitle 183),23/03/2017 00:00:00,Whitwell Parish Council,,Address line 183,,City183,Country183,Post Code183,,1
01/04/2016 00:00:00,9.00,83.00,75.00,8.00,32.00,45.00,43.00,42.00,31.00,100.00,52.00,68.00,39.00,26.00,https://WiganMetropolitanBoroughCouncil.co.uk/GPGData,Firstname184 Lastname184 (Jobtitle 184),17/12/2016 00:00:00,Wigan Metropolitan Borough Council,,Address line 184,,City184,Country184,Post Code184,,1
01/04/2016 00:00:00,54.00,91.00,17.00,56.00,84.00,50.00,78.00,74.00,26.00,80.00,76.00,93.00,37.00,68.00,https://WilbarstonParishCouncil.co.uk/GPGData,Firstname185 Lastname185 (Jobtitle 185),02/09/2016 00:00:00,Wilbarston Parish Council,,Address line 185,,City185,Country185,Post Code185,,1
01/04/2016 00:00:00,70.00,91.00,31.00,98.00,49.00,92.00,40.00,40.00,100.00,99.00,48.00,19.00,30.00,68.00,https://WraysburyParishCouncil.co.uk/GPGData,Firstname456 Lastname456 (Jobtitle 456),04/07/2016 00:00:00,Wraysbury Parish Council,,Address line 456,,City456,Country456,Post Code456,,1
01/04/2016 00:00:00,46.00,0.00,3.00,39.00,66.00,29.00,48.00,29.00,17.00,95.00,38.00,37.00,47.00,17.00,https://Wrestlingworth&CockayneHatleyParishCouncil.co.uk/GPGData,Firstname457 Lastname457 (Jobtitle 457),25/10/2016 00:00:00,Wrestlingworth & Cockayne Hatley Parish Council,,Address line 457,,City457,Country457,Post Code457,,1
01/04/2016 00:00:00,75.00,37.00,29.00,30.00,66.00,41.00,13.00,44.00,17.00,67.00,22.00,91.00,13.00,51.00,https://WrexhamCountyBoroughCouncil.co.uk/GPGData,Firstname458 Lastname458 (Jobtitle 458),03/11/2016 00:00:00,Wrexham County Borough Council,,Address line 458,,City458,Country458,Post Code458,,1
01/04/2016 00:00:00,96.00,94.00,68.00,60.00,47.00,19.00,21.00,26.00,40.00,97.00,6.00,76.00,82.00,7.00,"https://Wrightington,WiganandLeighNHSFoundationTrust.co.uk/GPGData",Firstname459 Lastname459 (Jobtitle 459),28/01/2017 00:00:00,"Wrightington, Wigan and Leigh NHS Foundation Trust",,Address line 459,,City459,Country459,Post Code459,,1
01/04/2016 00:00:00,94.00,2.00,51.00,31.00,68.00,60.00,78.00,68.00,87.00,1.00,2.00,29.00,42.00,69.00,https://WringtonParishCouncil.co.uk/GPGData,Firstname460 Lastname460 (Jobtitle 460),11/04/2016 00:00:00,Wrington Parish Council,,Address line 460,,City460,Country460,Post Code460,,1
01/04/2016 00:00:00,87.00,34.00,90.00,62.00,53.00,33.00,25.00,9.00,88.00,36.00,17.00,41.00,61.00,19.00,https://WroseParishCouncil.co.uk/GPGData,Firstname461 Lastname461 (Jobtitle 461),16/03/2017 00:00:00,Wrose Parish Council,,Address line 461,,City461,Country461,Post Code461,,1
01/04/2016 00:00:00,63.00,24.00,79.00,33.00,61.00,4.00,21.00,67.00,0.00,46.00,80.00,10.00,70.00,69.00,https://WroughtonParishCouncil.co.uk/GPGData,Firstname462 Lastname462 (Jobtitle 462),15/02/2017 00:00:00,Wroughton Parish Council,,Address line 462,,City462,Country462,Post Code462,,1
01/04/2016 00:00:00,83.00,5.00,79.00,95.00,22.00,40.00,18.00,92.00,11.00,96.00,40.00,98.00,23.00,59.00,https://WychavonDistrictCouncil.co.uk/GPGData,Firstname463 Lastname463 (Jobtitle 463),05/08/2016 00:00:00,Wychavon District Council,,Address line 463,,City463,Country463,Post Code463,,1
01/04/2016 00:00:00,47.00,81.00,1.00,29.00,81.00,11.00,11.00,33.00,91.00,35.00,7.00,44.00,57.00,25.00,https://WyeValleyNHSTrust.co.uk/GPGData,Firstname464 Lastname464 (Jobtitle 464),12/10/2016 00:00:00,Wye Valley NHS Trust,,Address line 464,,City464,Country464,Post Code464,,1
01/04/2016 00:00:00,33.00,71.00,93.00,53.00,92.00,73.00,53.00,72.00,95.00,17.00,96.00,47.00,24.00,33.00,https://YaldingParishCouncil.co.uk/GPGData,Firstname465 Lastname465 (Jobtitle 465),01/07/2016 00:00:00,Yalding Parish Council,,Address line 465,,City465,Country465,Post Code465,,1
